{"type":"FeatureCollection", "features": [
{"type":"Feature","geometry":{"type":"Polygon","coordinates":[[[25.80039,59.36214],[25.80209,59.36202],[25.80368,59.36182],[25.80523,59.3615],[25.80674,59.36091],[25.80881,59.35986],[25.80987,59.35918],[25.81142,59.35856],[25.81227,59.35834],[25.81332,59.35824],[25.81371,59.35849],[25.81466,59.35863],[25.81541,59.35841],[25.81613,59.3581],[25.81617,59.35788],[25.82029,59.35751],[25.82193,59.35755],[25.82303,59.3577],[25.82403,59.35829],[25.82452,59.35882],[25.82566,59.35943],[25.82608,59.35945],[25.82674,59.35933],[25.82745,59.35907],[25.82865,59.36029],[25.82967,59.36037],[25.83323,59.36269],[25.83564,59.36379],[25.84492,59.36867],[25.84837,59.37018],[25.84914,59.37102],[25.84896,59.37125],[25.84842,59.37143],[25.84719,59.372],[25.84396,59.37273],[25.84243,59.37329],[25.84084,59.3742],[25.84031,59.37444],[25.83948,59.37469],[25.83893,59.37492],[25.83848,59.37524],[25.83787,59.3761],[25.8377,59.37704],[25.8375,59.37774],[25.83706,59.37837],[25.83695,59.38002],[25.83143,59.37891],[25.8305,59.37958],[25.82988,59.37986],[25.8267,59.3795],[25.82507,59.37967],[25.82424,59.37956],[25.82361,59.37874],[25.82254,59.37788],[25.82124,59.37738],[25.82079,59.37687],[25.82003,59.37626],[25.81983,59.37584],[25.8191,59.37526],[25.81807,59.37507],[25.81682,59.37514],[25.81554,59.37503],[25.81459,59.37509],[25.81407,59.37495],[25.81213,59.37486],[25.81156,59.37445],[25.81108,59.37359],[25.81147,59.37271],[25.81009,59.37222],[25.81007,59.37187],[25.80958,59.37184],[25.80872,59.37221],[25.80772,59.3728],[25.80768,59.37328],[25.80862,59.3736],[25.80851,59.37372],[25.80686,59.37365],[25.8057,59.37399],[25.80412,59.37397],[25.80348,59.37338],[25.80209,59.3722],[25.80197,59.37098],[25.80202,59.37022],[25.80127,59.36601],[25.80039,59.36214]]]},"properties":{"name":"Sihtmärgialad 1 & 2"}},
{"type":"Feature","geometry":{"type":"Polygon","coordinates":[[[25.86282,59.4392],[25.86417,59.44139],[25.86382,59.44158],[25.86314,59.44181],[25.8621,59.44201],[25.86049,59.44219],[25.86013,59.44199],[25.85887,59.44064],[25.86103,59.43894],[25.86251,59.4387],[25.86282,59.4392]]]},"properties":{"name":"Keskpolügooni teeninduskeskus"}},
{"type":"Feature","geometry":{"type":"Polygon","coordinates":[[[25.93838,59.25076],[25.93938,59.24947],[25.94156,59.24991],[25.94171,59.2501],[25.94279,59.25024],[25.94322,59.25146],[25.94135,59.25157],[25.9412,59.2515],[25.94046,59.25158],[25.94035,59.25147],[25.93859,59.25113],[25.93838,59.25076]]]},"properties":{"name":""}},
{"type":"Feature","geometry":{"type":"Polygon","coordinates":[[[25.92978,59.23264],[25.93598,59.23151],[25.94275,59.2335],[25.95486,59.23706],[25.96595,59.24029],[25.96382,59.24216],[25.96932,59.24378],[25.96902,59.2441],[25.97078,59.24537],[25.97069,59.24661],[25.96742,59.24838],[25.96466,59.24836],[25.96189,59.24876],[25.95922,59.2491],[25.94751,59.24702],[25.94782,59.24634],[25.94707,59.24625],[25.94714,59.24608],[25.9464,59.24599],[25.93827,59.24509],[25.9353,59.24073],[25.93197,59.23583],[25.92978,59.23264]]]},"properties":{"name":"Tapa sõjaväelinnak"}},
{"type":"Feature","geometry":{"type":"Polygon","coordinates":[[[25.80252,59.37369],[25.80355,59.37431],[25.80374,59.37477],[25.80423,59.37503],[25.80552,59.37504],[25.80639,59.37473],[25.80729,59.37496],[25.80923,59.37513],[25.81094,59.37577],[25.81326,59.37546],[25.81444,59.37575],[25.81531,59.37563],[25.8169,59.37575],[25.81722,59.37679],[25.81898,59.37674],[25.81978,59.37719],[25.82023,59.37766],[25.8212,59.37797],[25.82204,59.37841],[25.82265,59.37892],[25.82293,59.37946],[25.82359,59.37979],[25.82463,59.38021],[25.82624,59.3802],[25.82716,59.38035],[25.82735,59.38057],[25.82359,59.38309],[25.82875,59.38318],[25.82831,59.38374],[25.82754,59.3844],[25.82668,59.38508],[25.82639,59.38551],[25.82643,59.38574],[25.82703,59.38622],[25.82746,59.38672],[25.82791,59.38748],[25.82699,59.38834],[25.82687,59.38889],[25.8264,59.38919],[25.82599,59.38967],[25.82544,59.39019],[25.82408,59.39062],[25.82319,59.39098],[25.82234,59.39146],[25.82158,59.39198],[25.82052,59.39253],[25.81956,59.39324],[25.81807,59.39414],[25.81756,59.39427],[25.81461,59.39384],[25.81401,59.39381],[25.81323,59.394],[25.81269,59.39442],[25.8121,59.39463],[25.81168,59.39465],[25.81026,59.39276],[25.80351,59.3813],[25.80276,59.37713],[25.8027,59.37599],[25.80252,59.37369]]]},"properties":{"name":"Sihtmärgiala 3"}},
{"type":"Feature","geometry":{"type":"Polygon","coordinates":[[[26.5166,59.07881],[26.51772,59.0779],[26.52047,59.0788],[26.51994,59.07948],[26.51885,59.08036],[26.51698,59.07975],[26.5166,59.07881]]]},"properties":{"name":""}},
{"type":"Feature","geometry":{"type":"Polygon","coordinates":[[[25.23049,59.41831],[25.23135,59.4174],[25.23219,59.41666],[25.23508,59.41488],[25.23622,59.41416],[25.23912,59.41363],[25.24543,59.41245],[25.24816,59.41434],[25.24874,59.41447],[25.24844,59.41515],[25.24786,59.41568],[25.24704,59.41586],[25.24434,59.41596],[25.24265,59.41621],[25.24116,59.41653],[25.24014,59.41691],[25.23988,59.41745],[25.24053,59.41904],[25.24131,59.41985],[25.2436,59.41992],[25.245,59.42158],[25.24492,59.42201],[25.24425,59.42229],[25.24064,59.4234],[25.23938,59.42307],[25.23721,59.41891],[25.23577,59.41958],[25.23461,59.41877],[25.23347,59.41944],[25.23049,59.41831]]]},"properties":{"name":"Jägala sõjaväelinnak"}},
{"type":"Feature","geometry":{"type":"Polygon","coordinates":[[[25.93619,59.25054],[25.93762,59.25012],[25.9385,59.25173],[25.93866,59.25223],[25.93883,59.25235],[25.93949,59.25331],[25.93668,59.25413],[25.93708,59.25448],[25.93712,59.25469],[25.93653,59.25486],[25.93674,59.25527],[25.9337,59.25554],[25.93351,59.25501],[25.93281,59.25507],[25.93228,59.25362],[25.92865,59.25385],[25.92819,59.25477],[25.92759,59.25538],[25.92711,59.2565],[25.92841,59.25854],[25.92671,59.2589],[25.92371,59.25911],[25.92265,59.2591],[25.92073,59.25876],[25.91949,59.25862],[25.91798,59.25809],[25.91575,59.25772],[25.91504,59.25738],[25.91393,59.25613],[25.9097,59.25537],[25.91441,59.25259],[25.91536,59.25194],[25.91608,59.25061],[25.91717,59.25045],[25.92534,59.25131],[25.93104,59.2515],[25.93164,59.25117],[25.93192,59.25115],[25.93139,59.24973],[25.93202,59.24958],[25.93301,59.2498],[25.93391,59.2498],[25.93488,59.24999],[25.9354,59.24994],[25.93526,59.25022],[25.93619,59.25054]]]},"properties":{"name":""}},
{"type":"Feature","geometry":{"type":"Polygon","coordinates":[[[25.91536,59.25195],[25.91598,59.25144],[25.91641,59.25057],[25.91715,59.25046],[25.9193,59.25069],[25.92265,59.25142],[25.92194,59.25279],[25.91619,59.25202],[25.91583,59.2522],[25.91536,59.25195]]]},"properties":{"name":"Lasketiir"}},
{"type":"Feature","geometry":{"type":"Polygon","coordinates":[[[25.79224,59.3592],[25.79289,59.35903],[25.79361,59.35892],[25.7932,59.35856],[25.783,59.35365],[25.78168,59.35178],[25.78097,59.35045],[25.78061,59.35025],[25.78194,59.34957],[25.78188,59.34929],[25.7867,59.3469],[25.79798,59.34746],[25.79843,59.34556],[25.79359,59.34177],[25.79387,59.34111],[25.7953,59.34004],[25.8024,59.33755],[25.79465,59.33276],[25.79489,59.3319],[25.79567,59.33144],[25.79526,59.33121],[25.79407,59.33182],[25.78816,59.32926],[25.76553,59.3216],[25.76614,59.32144],[25.76643,59.3216],[25.76733,59.32173],[25.76738,59.32144],[25.76759,59.32139],[25.76798,59.3216],[25.76886,59.32146],[25.76847,59.32127],[25.76848,59.3211],[25.76919,59.32116],[25.76951,59.3211],[25.76984,59.32085],[25.77033,59.3208],[25.77011,59.32113],[25.77091,59.32117],[25.77128,59.3209],[25.77096,59.32066],[25.77115,59.32045],[25.77152,59.3204],[25.77187,59.32062],[25.77217,59.32058],[25.77249,59.32033],[25.77316,59.32044],[25.77352,59.32039],[25.77346,59.31991],[25.77419,59.31994],[25.77452,59.32007],[25.7749,59.31963],[25.7753,59.3196],[25.77571,59.3198],[25.77601,59.3198],[25.77643,59.31957],[25.77543,59.31901],[25.77555,59.31888],[25.77629,59.31894],[25.77657,59.31879],[25.7761,59.31835],[25.77663,59.31832],[25.77649,59.31804],[25.7769,59.31795],[25.77688,59.31766],[25.7771,59.31752],[25.77758,59.31746],[25.77834,59.31769],[25.77903,59.31745],[25.7793,59.31724],[25.7792,59.317],[25.78001,59.31699],[25.78004,59.31681],[25.78043,59.31649],[25.78108,59.31634],[25.78057,59.31604],[25.78081,59.31567],[25.78115,59.31568],[25.78181,59.31534],[25.78183,59.31506],[25.78243,59.31481],[25.78249,59.31452],[25.78209,59.31433],[25.78252,59.31412],[25.78259,59.3139],[25.78298,59.31363],[25.7835,59.31352],[25.78333,59.31288],[25.78372,59.31288],[25.78426,59.31318],[25.78464,59.313],[25.78497,59.31264],[25.78468,59.31261],[25.78398,59.31222],[25.78394,59.31207],[25.78441,59.31184],[25.78478,59.31116],[25.78497,59.31101],[25.78558,59.31077],[25.78576,59.31039],[25.78564,59.30978],[25.7864,59.3093],[25.78747,59.30891],[25.78864,59.30825],[25.7894,59.3082],[25.79045,59.30841],[25.79149,59.30827],[25.79186,59.30833],[25.79255,59.30868],[25.79292,59.30912],[25.79319,59.3092],[25.79453,59.30918],[25.79549,59.30867],[25.79544,59.30832],[25.79512,59.30801],[25.7952,59.30786],[25.7946,59.30765],[25.79451,59.30738],[25.79414,59.30696],[25.79417,59.30633],[25.79357,59.30545],[25.79289,59.30433],[25.79255,59.30361],[25.79292,59.30326],[25.79294,59.30282],[25.79222,59.3027],[25.79208,59.30245],[25.79168,59.30211],[25.79178,59.30186],[25.79166,59.30154],[25.79213,59.30131],[25.79212,59.3011],[25.79248,59.30063],[25.79251,59.30043],[25.79167,59.30019],[25.79201,59.29994],[25.79224,59.29957],[25.79279,59.29932],[25.79343,59.29956],[25.79398,59.29947],[25.79417,59.29913],[25.7946,59.29877],[25.79542,59.29856],[25.79554,59.29833],[25.79532,59.29768],[25.79472,59.29732],[25.79482,59.29661],[25.79577,59.29623],[25.79708,59.29612],[25.7976,59.29639],[25.79843,59.29646],[25.79896,59.29632],[25.79906,59.29611],[25.7988,59.29582],[25.79912,59.29549],[25.79995,59.29537],[25.80075,59.29548],[25.8017,59.29498],[25.80174,59.29487],[25.80236,59.29475],[25.80249,59.29462],[25.8023,59.29433],[25.80286,59.29391],[25.80362,59.29389],[25.8046,59.29407],[25.80558,59.29407],[25.80667,59.29384],[25.80779,59.29378],[25.80825,59.29368],[25.81081,59.29251],[25.81115,59.29182],[25.8126,59.29254],[25.82617,59.29178],[25.83301,59.29136],[25.84768,59.29065],[25.84908,59.29133],[25.84919,59.29133],[25.85272,59.29024],[25.85288,59.29023],[25.85628,59.29054],[25.85646,59.29051],[25.85705,59.29011],[25.8634,59.28983],[25.86826,59.2896],[25.87679,59.28924],[25.87727,59.2893],[25.88245,59.28901],[25.88831,59.28861],[25.89503,59.27873],[25.89502,59.27857],[25.89449,59.27767],[25.90146,59.27679],[25.90272,59.2768],[25.90353,59.27693],[25.90756,59.27788],[25.90886,59.27799],[25.91003,59.27791],[25.91117,59.27776],[25.91201,59.2775],[25.91953,59.28916],[25.91772,59.29438],[25.91504,59.29821],[25.91654,59.2989],[25.91616,59.29944],[25.91566,59.2995],[25.91496,59.29935],[25.91453,59.29935],[25.91358,59.29999],[25.91262,59.29998],[25.91203,59.3001],[25.91146,59.30036],[25.91142,59.3006],[25.91191,59.30098],[25.91118,59.30176],[25.90984,59.30185],[25.90879,59.30246],[25.91404,59.30305],[25.90842,59.30718],[25.91089,59.30817],[25.91362,59.31917],[25.90982,59.31835],[25.90643,59.32043],[25.90472,59.31977],[25.90199,59.3215],[25.8943,59.32066],[25.89215,59.32262],[25.88916,59.32383],[25.88608,59.32498],[25.88624,59.32514],[25.87758,59.33075],[25.87892,59.33814],[25.86521,59.33682],[25.86199,59.33839],[25.86023,59.35176],[25.85891,59.35144],[25.85776,59.35364],[25.85563,59.35517],[25.85789,59.35573],[25.85873,59.35592],[25.85962,59.35637],[25.86293,59.35724],[25.86377,59.35655],[25.86425,59.35666],[25.8632,59.35777],[25.86285,59.35842],[25.86226,59.3591],[25.86205,59.35989],[25.86363,59.36088],[25.86378,59.3611],[25.86564,59.3622],[25.8659,59.36291],[25.86627,59.36365],[25.86801,59.36342],[25.86862,59.36329],[25.86932,59.36302],[25.87004,59.36268],[25.87167,59.36168],[25.87312,59.36127],[25.87474,59.36052],[25.87608,59.35945],[25.87737,59.3581],[25.879,59.35728],[25.87991,59.35718],[25.88293,59.35755],[25.88453,59.35791],[25.89081,59.35727],[25.89091,59.35826],[25.897,59.36053],[25.89357,59.36407],[25.89548,59.36469],[25.90013,59.36657],[25.90307,59.36824],[25.90227,59.38005],[25.90204,59.38092],[25.90112,59.38087],[25.89695,59.3798],[25.89626,59.3801],[25.89836,59.38107],[25.89981,59.38258],[25.8984,59.38278],[25.89758,59.38261],[25.89699,59.38764],[25.89728,59.38774],[25.89842,59.38852],[25.89801,59.38947],[25.89683,59.39165],[25.89645,59.39241],[25.89609,59.39325],[25.8952,59.39523],[25.89491,59.39581],[25.89407,59.39765],[25.89479,59.39783],[25.89554,59.39821],[25.89607,59.39865],[25.89325,59.40137],[25.89292,59.40166],[25.89076,59.40215],[25.88696,59.40306],[25.8837,59.40577],[25.89092,59.4086],[25.89026,59.40884],[25.88955,59.40931],[25.88884,59.40963],[25.88793,59.40989],[25.8863,59.41015],[25.88541,59.41034],[25.88505,59.41082],[25.88446,59.41142],[25.88419,59.41186],[25.88413,59.41246],[25.88438,59.41265],[25.88423,59.41297],[25.88462,59.41323],[25.88459,59.41358],[25.88501,59.41378],[25.88521,59.41407],[25.88581,59.4145],[25.88588,59.4148],[25.88616,59.41523],[25.88755,59.41658],[25.88775,59.41682],[25.8887,59.41715],[25.88919,59.41858],[25.89518,59.42414],[25.89619,59.42452],[25.89671,59.42504],[25.89691,59.42533],[25.89708,59.42638],[25.89716,59.42751],[25.89596,59.42971],[25.89219,59.43141],[25.88906,59.43296],[25.88829,59.43412],[25.88891,59.4354],[25.88891,59.43562],[25.8885,59.43565],[25.88711,59.43533],[25.88527,59.43531],[25.88452,59.43551],[25.88298,59.43543],[25.88149,59.43497],[25.8811,59.4349],[25.87961,59.44141],[25.87809,59.44165],[25.87783,59.44347],[25.87437,59.44324],[25.86982,59.44289],[25.86061,59.44229],[25.85679,59.44204],[25.85616,59.4447],[25.85097,59.44441],[25.84495,59.44399],[25.83393,59.44322],[25.80293,59.44627],[25.80294,59.44644],[25.80201,59.4503],[25.79489,59.44986],[25.7709,59.44842],[25.76989,59.44356],[25.76092,59.4394],[25.75854,59.43964],[25.75826,59.43945],[25.75817,59.43901],[25.75777,59.43873],[25.75767,59.43833],[25.75828,59.43743],[25.7585,59.43735],[25.75972,59.43751],[25.76014,59.43744],[25.76028,59.43727],[25.76023,59.43695],[25.75917,59.43624],[25.75905,59.43607],[25.75916,59.43575],[25.75992,59.43545],[25.75924,59.43527],[25.75925,59.43486],[25.75831,59.43452],[25.75806,59.43417],[25.75814,59.43395],[25.75843,59.43386],[25.75896,59.43393],[25.75922,59.43386],[25.7599,59.43402],[25.76062,59.43401],[25.76075,59.43382],[25.76058,59.43272],[25.76072,59.43252],[25.76137,59.43203],[25.76255,59.4319],[25.76277,59.4317],[25.76243,59.43111],[25.76203,59.43106],[25.76176,59.4312],[25.76108,59.4313],[25.76022,59.43116],[25.76031,59.43087],[25.76078,59.43094],[25.76134,59.43093],[25.76193,59.43084],[25.76279,59.43079],[25.76315,59.43058],[25.76242,59.43041],[25.76166,59.4303],[25.76052,59.43005],[25.75992,59.42979],[25.75952,59.42949],[25.7593,59.42882],[25.75855,59.42862],[25.75775,59.42822],[25.75754,59.42791],[25.75698,59.42748],[25.75631,59.4273],[25.75534,59.4274],[25.75457,59.42722],[25.75439,59.42683],[25.75467,59.42643],[25.75527,59.42593],[25.75478,59.42548],[25.75413,59.42532],[25.75329,59.42521],[25.75339,59.42496],[25.7542,59.42472],[25.75436,59.42457],[25.75409,59.42421],[25.75283,59.42408],[25.75263,59.42384],[25.75148,59.42344],[25.75109,59.42316],[25.75012,59.42296],[25.74988,59.4228],[25.74988,59.42258],[25.75027,59.42239],[25.75034,59.42192],[25.74972,59.42168],[25.74978,59.42097],[25.7482,59.42031],[25.74767,59.41995],[25.74768,59.41946],[25.74733,59.41902],[25.74678,59.41869],[25.74686,59.41842],[25.7473,59.41814],[25.74797,59.4175],[25.7479,59.4173],[25.74654,59.41701],[25.74632,59.41681],[25.74667,59.41636],[25.74717,59.41589],[25.74654,59.41569],[25.7459,59.41606],[25.74551,59.41609],[25.74455,59.41588],[25.74387,59.4155],[25.74398,59.41536],[25.74445,59.41527],[25.74478,59.41535],[25.74539,59.41524],[25.74568,59.41494],[25.74585,59.41428],[25.74549,59.41415],[25.74452,59.41419],[25.74433,59.414],[25.74467,59.41369],[25.74596,59.41348],[25.7462,59.41325],[25.74619,59.41301],[25.74579,59.4129],[25.74445,59.41266],[25.74413,59.41245],[25.74422,59.41227],[25.74457,59.41214],[25.74557,59.41198],[25.74594,59.41186],[25.74618,59.41164],[25.74614,59.41128],[25.74526,59.41092],[25.74501,59.41067],[25.74564,59.40988],[25.74546,59.40951],[25.74521,59.40943],[25.7452,59.40912],[25.74492,59.40898],[25.74508,59.40843],[25.74535,59.40817],[25.74525,59.40797],[25.74474,59.4076],[25.74382,59.40737],[25.7438,59.40708],[25.74465,59.40729],[25.7451,59.40696],[25.74497,59.4064],[25.7445,59.40615],[25.74415,59.40637],[25.74343,59.40641],[25.74285,59.40608],[25.74304,59.40565],[25.74266,59.40524],[25.7432,59.40466],[25.74323,59.40432],[25.74271,59.40428],[25.74229,59.40407],[25.74245,59.40357],[25.7428,59.40342],[25.74263,59.40327],[25.74219,59.40329],[25.74206,59.40308],[25.74254,59.40287],[25.74275,59.40253],[25.74258,59.4024],[25.74209,59.40234],[25.74187,59.40222],[25.74182,59.40193],[25.74208,59.40163],[25.7421,59.40099],[25.74246,59.40081],[25.7425,59.40053],[25.74231,59.40024],[25.74238,59.39985],[25.74207,59.3995],[25.74149,59.39931],[25.741,59.39944],[25.74073,59.3994],[25.74032,59.39916],[25.7404,59.3987],[25.7412,59.3984],[25.74148,59.39775],[25.74138,59.39756],[25.74148,59.39731],[25.74117,59.397],[25.74131,59.39667],[25.74167,59.39643],[25.74141,59.39622],[25.74162,59.39583],[25.74149,59.3957],[25.7417,59.39521],[25.74116,59.39498],[25.7414,59.39464],[25.74187,59.3945],[25.74212,59.39412],[25.74206,59.39388],[25.74137,59.39324],[25.74186,59.39311],[25.74262,59.39317],[25.74286,59.39308],[25.7429,59.39262],[25.74365,59.39236],[25.74421,59.39203],[25.74396,59.39155],[25.74417,59.39112],[25.74467,59.39115],[25.74483,59.3909],[25.74483,59.39061],[25.7452,59.3904],[25.74532,59.39018],[25.74593,59.38975],[25.74629,59.38964],[25.74684,59.38964],[25.74709,59.38975],[25.74722,59.39007],[25.74763,59.39048],[25.74804,59.39053],[25.74858,59.39],[25.74925,59.38991],[25.74961,59.38974],[25.75045,59.38949],[25.74969,59.38905],[25.74991,59.3888],[25.75023,59.38874],[25.75098,59.38887],[25.75175,59.38879],[25.75211,59.38862],[25.75187,59.38832],[25.75221,59.38805],[25.75285,59.38832],[25.7535,59.38815],[25.75336,59.38782],[25.75351,59.38718],[25.75379,59.38698],[25.75447,59.38705],[25.7547,59.38669],[25.75469,59.38605],[25.7555,59.38612],[25.75588,59.38604],[25.75637,59.38613],[25.75712,59.38587],[25.75783,59.38581],[25.75795,59.38556],[25.75743,59.38533],[25.75751,59.38497],[25.7581,59.38424],[25.75846,59.38399],[25.75845,59.38352],[25.75893,59.38332],[25.75966,59.38333],[25.76075,59.3831],[25.76055,59.38259],[25.76067,59.38236],[25.76139,59.3822],[25.76144,59.38168],[25.76179,59.38139],[25.76133,59.38117],[25.76084,59.38119],[25.76044,59.381],[25.76005,59.38027],[25.76011,59.38011],[25.76109,59.37968],[25.76131,59.37945],[25.76131,59.37893],[25.76163,59.37871],[25.76243,59.37897],[25.76312,59.37862],[25.76349,59.37855],[25.76357,59.37829],[25.76336,59.37799],[25.76363,59.37775],[25.76499,59.37783],[25.76499,59.37745],[25.76528,59.37728],[25.7657,59.37747],[25.76583,59.37778],[25.76673,59.37771],[25.76703,59.37752],[25.76689,59.37734],[25.76705,59.3771],[25.76765,59.37691],[25.76802,59.3769],[25.76853,59.37643],[25.76889,59.37638],[25.76941,59.37657],[25.76994,59.3763],[25.77001,59.37599],[25.76974,59.37568],[25.77025,59.37541],[25.771,59.37541],[25.77079,59.37571],[25.77113,59.37581],[25.77222,59.3759],[25.77282,59.37576],[25.77288,59.37556],[25.77325,59.37539],[25.77347,59.37508],[25.77368,59.37501],[25.77465,59.37522],[25.77515,59.37518],[25.77581,59.37485],[25.77566,59.3747],[25.77584,59.37449],[25.77633,59.37432],[25.77708,59.37435],[25.77734,59.37443],[25.77783,59.37421],[25.77856,59.37419],[25.77901,59.37424],[25.77948,59.37406],[25.7797,59.37353],[25.78077,59.37368],[25.78102,59.37346],[25.78035,59.3731],[25.78026,59.37284],[25.78032,59.3721],[25.78045,59.3718],[25.78108,59.37154],[25.78162,59.37081],[25.78132,59.37049],[25.78141,59.37039],[25.78205,59.3703],[25.78209,59.37019],[25.78127,59.36977],[25.78174,59.36975],[25.78226,59.36961],[25.78178,59.36922],[25.78212,59.36899],[25.7824,59.36898],[25.78297,59.36913],[25.78347,59.36939],[25.78394,59.36928],[25.78467,59.36887],[25.78449,59.36855],[25.78455,59.36812],[25.78512,59.3675],[25.78511,59.36716],[25.78464,59.36697],[25.78541,59.36658],[25.78578,59.36658],[25.78596,59.36638],[25.78568,59.36621],[25.7859,59.36579],[25.78629,59.36553],[25.78708,59.36578],[25.78787,59.36568],[25.7882,59.36534],[25.78823,59.36506],[25.78745,59.36493],[25.78684,59.36409],[25.78713,59.36374],[25.78769,59.36373],[25.7883,59.36401],[25.78893,59.36379],[25.78907,59.36362],[25.7888,59.36309],[25.78886,59.36272],[25.78961,59.36227],[25.79028,59.36205],[25.79066,59.36201],[25.79119,59.36174],[25.7912,59.36127],[25.79156,59.36093],[25.79237,59.36094],[25.79275,59.36081],[25.79249,59.3604],[25.79223,59.36018],[25.79224,59.3592]]]},"properties":{"name":"Keskpolügoon"}},
{"type":"Feature","geometry":{"type":"Polygon","coordinates":[[[26.35511,59.34834],[26.35522,59.34814],[26.35616,59.34824],[26.35606,59.34847],[26.35511,59.34834]]]},"properties":{"name":"Kaitseliit Viru Malev"}},
{"type":"Feature","geometry":{"type":"Polygon","coordinates":[[[25.4702,59.39002],[25.47592,59.3857],[25.48654,59.38576],[25.48796,59.38567],[25.48864,59.38523],[25.4898,59.38303],[25.50012,59.38047],[25.50512,59.3799],[25.51019,59.3791],[25.5142,59.3779],[25.51892,59.37654],[25.52411,59.37506],[25.5266,59.37446],[25.52686,59.37323],[25.53621,59.37081],[25.53973,59.36989],[25.54179,59.37173],[25.55686,59.36731],[25.56728,59.36447],[25.5811,59.36083],[25.59327,59.35734],[25.65128,59.35628],[25.65134,59.36599],[25.65877,59.36964],[25.65745,59.37341],[25.65715,59.38001],[25.65252,59.38431],[25.65397,59.39306],[25.65398,59.39758],[25.65127,59.40891],[25.64971,59.41714],[25.64664,59.42818],[25.63895,59.42679],[25.63818,59.42685],[25.62797,59.42559],[25.61883,59.4246],[25.61123,59.42403],[25.59105,59.42298],[25.57931,59.42174],[25.56046,59.41869],[25.55125,59.42182],[25.53774,59.4199],[25.52873,59.4223],[25.52456,59.42139],[25.51414,59.42335],[25.50764,59.42222],[25.50668,59.42176],[25.5063,59.41978],[25.50575,59.41831],[25.50519,59.41737],[25.50334,59.41363],[25.49982,59.41038],[25.49192,59.40322],[25.47699,59.39588],[25.47484,59.39487],[25.4702,59.39002]]]},"properties":{"name":"Soodla harjutusväli"}},
{"type":"Feature","geometry":{"type":"Polygon","coordinates":[[[25.89908,59.29694],[25.89966,59.29682],[25.90255,59.29494],[25.90329,59.29522],[25.90015,59.29735],[25.89908,59.29694]]]},"properties":{"name":"Lasketiir"}},
{"type":"Feature","geometry":{"type":"Polygon","coordinates":[[[25.89775,59.29144],[25.90151,59.28936],[25.90238,59.28972],[25.89858,59.29187],[25.89775,59.29144]]]},"properties":{"name":"Lasketiir"}},
{"type":"Feature","geometry":{"type":"Polygon","coordinates":[[[25.95097,59.22691],[25.95932,59.22414],[25.96175,59.2248],[25.9622,59.22516],[25.96146,59.22582],[25.9531,59.2286],[25.95097,59.22691]]]},"properties":{"name":""}},
{"type":"Feature","geometry":{"type":"Polygon","coordinates":[[[25.85991,59.29475],[25.86189,59.29466],[25.86458,59.30408],[25.86013,59.30425],[25.85991,59.29475]]]},"properties":{"name":"Lasketiir"}},
{"type":"Feature","geometry":{"type":"Polygon","coordinates":[[[25.76901,59.42885],[25.78024,59.41617],[25.78481,59.4174],[25.78003,59.4214],[25.77059,59.42929],[25.76901,59.42885]]]},"properties":{"name":"Lasketiir"}},
{"type":"Feature","geometry":{"type":"Polygon","coordinates":[[[25.9235,59.22845],[25.92408,59.22709],[25.92496,59.22584],[25.92526,59.22579],[25.93457,59.22801],[25.93428,59.22869],[25.93375,59.22936],[25.93226,59.2306],[25.93195,59.23067],[25.92793,59.23],[25.92361,59.22873],[25.9235,59.22845]]]},"properties":{"name":"Tapa soomukite õppesõiduväljak"}},
{"type":"Feature","geometry":{"type":"Polygon","coordinates":[[[25.95191,59.25443],[25.95377,59.25438],[25.95383,59.25489],[25.95196,59.25494],[25.95191,59.25443]]]},"properties":{"name":""}},
{"type":"Feature","geometry":{"type":"Polygon","coordinates":[[[25.95032,59.24735],[25.9505,59.24695],[25.95349,59.24729],[25.95326,59.24772],[25.95032,59.24735]]]},"properties":{"name":""}},
{"type":"Feature","geometry":{"type":"Polygon","coordinates":[[[26.35261,59.36243],[26.35292,59.36159],[26.35393,59.3619],[26.35491,59.36171],[26.3539,59.36256],[26.35261,59.36243]]]},"properties":{"name":""}},
{"type":"Feature","geometry":{"type":"Polygon","coordinates":[[[25.80038,59.27982],[25.80142,59.28005],[25.80145,59.27938],[25.80169,59.27906],[25.8021,59.27876],[25.80685,59.27991],[25.81054,59.27805],[25.8112,59.27817],[25.81158,59.27934],[25.81346,59.27945],[25.8136,59.27974],[25.81344,59.28032],[25.81352,59.28055],[25.81335,59.28096],[25.81282,59.28133],[25.81255,59.28226],[25.81204,59.28247],[25.81164,59.28299],[25.81142,59.28352],[25.8111,59.28389],[25.81099,59.28424],[25.80324,59.28357],[25.80122,59.28175],[25.80038,59.27982]]]},"properties":{"name":""}},
{"type":"Feature","geometry":{"type":"Polygon","coordinates":[[[25.89649,59.22308],[25.89766,59.22286],[25.89728,59.22131],[25.89759,59.22125],[25.90042,59.21955],[25.90063,59.21945],[25.90197,59.21917],[25.90237,59.21925],[25.90804,59.2181],[25.908,59.21803],[25.9071,59.21394],[25.90663,59.21264],[25.90548,59.20937],[25.90487,59.20768],[25.90848,59.20667],[25.9099,59.20619],[25.91102,59.20589],[25.91163,59.2056],[25.91569,59.20359],[25.91669,59.20307],[25.92118,59.20149],[25.92273,59.19908],[25.92661,59.19885],[25.94098,59.20345],[25.94067,59.20419],[25.93969,59.20492],[25.94846,59.20698],[25.96451,59.2064],[25.96465,59.20713],[25.96496,59.20824],[25.96537,59.20928],[25.96566,59.20984],[25.96674,59.21109],[25.96704,59.21157],[25.96843,59.21306],[25.9708,59.21561],[25.97116,59.21602],[25.97214,59.21673],[25.97378,59.21813],[25.97399,59.21822],[25.97468,59.21875],[25.97672,59.22021],[25.97746,59.22053],[25.97727,59.22091],[25.97708,59.22158],[25.97709,59.22202],[25.97772,59.22523],[25.97807,59.22672],[25.97854,59.22745],[25.97972,59.22836],[25.98181,59.23084],[25.98297,59.23232],[25.98624,59.23648],[25.98638,59.23701],[25.98605,59.23746],[25.98487,59.23883],[25.98477,59.23924],[25.98493,59.23959],[25.98555,59.23996],[25.98896,59.24121],[25.98843,59.2421],[25.98576,59.24603],[25.97712,59.24363],[25.97366,59.24664],[25.97321,59.24715],[25.97152,59.24678],[25.96777,59.24882],[25.96485,59.24881],[25.96449,59.24893],[25.96364,59.24995],[25.96286,59.24993],[25.96137,59.25102],[25.9603,59.25237],[25.94716,59.25145],[25.94651,59.25129],[25.94327,59.25147],[25.9411,59.25162],[25.93889,59.25175],[25.93804,59.25022],[25.93752,59.24981],[25.93366,59.24786],[25.93182,59.24695],[25.93117,59.2465],[25.93089,59.24622],[25.93017,59.24499],[25.92865,59.24287],[25.92771,59.24166],[25.92728,59.24136],[25.92579,59.24041],[25.92575,59.23989],[25.92651,59.23834],[25.92671,59.23705],[25.92661,59.23541],[25.92544,59.23369],[25.92625,59.23146],[25.92407,59.2301],[25.92417,59.22978],[25.92153,59.22941],[25.91825,59.22871],[25.91864,59.23136],[25.91906,59.23488],[25.91895,59.23605],[25.91572,59.23396],[25.91416,59.23296],[25.90499,59.22706],[25.90185,59.22507],[25.90096,59.22455],[25.90033,59.22428],[25.89881,59.22371],[25.89649,59.22308]]]},"properties":{"name":""}},
{"type":"Feature","geometry":{"type":"Polygon","coordinates":[[[25.49619,58.96386],[25.49979,58.9639],[25.49989,58.96432],[25.49868,58.96441],[25.4984,58.96424],[25.4963,58.96436],[25.49619,58.96386]]]},"properties":{"name":"Eivere lasketiir"}},
{"type":"Feature","geometry":{"type":"Polygon","coordinates":[[[25.23358,59.41771],[25.23646,59.41582],[25.23904,59.41537],[25.24069,59.41618],[25.23938,59.41678],[25.23851,59.41799],[25.23875,59.41839],[25.23756,59.41887],[25.23358,59.41771]]]},"properties":{"name":"Jägala sõjaväelinnak"}}
]}