{"type":"FeatureCollection", "features": [
{"type":"Feature","geometry":{"type":"Point","coordinates":[26.13725,59.34237]},"properties":{"name":"Kadrina","fclass":"village","population":0}},
{"type":"Feature","geometry":{"type":"Point","coordinates":[26.01164,59.4567]},"properties":{"name":"Viitna","fclass":"hamlet","population":56}},
{"type":"Feature","geometry":{"type":"Point","coordinates":[25.96269,59.26186]},"properties":{"name":"Tapa","fclass":"town","population":9448}},
{"type":"Feature","geometry":{"type":"Point","coordinates":[26.2513,59.12967]},"properties":{"name":"Väike-Maarja","fclass":"village","population":0}},
{"type":"Feature","geometry":{"type":"Point","coordinates":[26.40024,59.04543]},"properties":{"name":"Simuna","fclass":"village","population":0}},
{"type":"Feature","geometry":{"type":"Point","coordinates":[26.41398,59.36343]},"properties":{"name":"Näpi","fclass":"village","population":0}},
{"type":"Feature","geometry":{"type":"Point","coordinates":[26.33473,59.11472]},"properties":{"name":"Triigi","fclass":"hamlet","population":0}},
{"type":"Feature","geometry":{"type":"Point","coordinates":[25.755,59.1909]},"properties":{"name":"Käravete","fclass":"village","population":0}},
{"type":"Feature","geometry":{"type":"Point","coordinates":[25.59577,59.21199]},"properties":{"name":"Lehtmetsa","fclass":"hamlet","population":0}},
{"type":"Feature","geometry":{"type":"Point","coordinates":[25.66069,59.15393]},"properties":{"name":"Albu","fclass":"hamlet","population":241}},
{"type":"Feature","geometry":{"type":"Point","coordinates":[25.66134,59.12047]},"properties":{"name":"Järva-Madise","fclass":"hamlet","population":0}},
{"type":"Feature","geometry":{"type":"Point","coordinates":[25.70668,59.02953]},"properties":{"name":"Roosna-Alliku","fclass":"village","population":0}},
{"type":"Feature","geometry":{"type":"Point","coordinates":[25.67902,59.24386]},"properties":{"name":"Jäneda","fclass":"hamlet","population":0}},
{"type":"Feature","geometry":{"type":"Point","coordinates":[26.11057,59.16142]},"properties":{"name":"Tamsalu","fclass":"town","population":2629}},
{"type":"Feature","geometry":{"type":"Point","coordinates":[26.45378,59.37432]},"properties":{"name":"Koovälja","fclass":"hamlet","population":0}},
{"type":"Feature","geometry":{"type":"Point","coordinates":[26.50305,59.39659]},"properties":{"name":"Kohala-Eesküla","fclass":"hamlet","population":0}},
{"type":"Feature","geometry":{"type":"Point","coordinates":[26.50332,59.43658]},"properties":{"name":"Jäätma","fclass":"hamlet","population":0}},
{"type":"Feature","geometry":{"type":"Point","coordinates":[26.45778,59.41771]},"properties":{"name":"Aresi","fclass":"hamlet","population":0}},
{"type":"Feature","geometry":{"type":"Point","coordinates":[26.43638,59.39467]},"properties":{"name":"Nurme","fclass":"hamlet","population":0}},
{"type":"Feature","geometry":{"type":"Point","coordinates":[26.42913,59.41245]},"properties":{"name":"Ubja","fclass":"hamlet","population":0}},
{"type":"Feature","geometry":{"type":"Point","coordinates":[26.39422,59.37496]},"properties":{"name":"Roodevälja","fclass":"hamlet","population":0}},
{"type":"Feature","geometry":{"type":"Point","coordinates":[26.3682,59.43017]},"properties":{"name":"Essu","fclass":"hamlet","population":0}},
{"type":"Feature","geometry":{"type":"Point","coordinates":[26.34019,59.41919]},"properties":{"name":"Põdruse","fclass":"hamlet","population":0}},
{"type":"Feature","geometry":{"type":"Point","coordinates":[26.27278,59.4444]},"properties":{"name":"Tatruse","fclass":"hamlet","population":0}},
{"type":"Feature","geometry":{"type":"Point","coordinates":[26.26595,59.43264]},"properties":{"name":"Haljala","fclass":"village","population":0}},
{"type":"Feature","geometry":{"type":"Point","coordinates":[25.43226,59.44388]},"properties":{"name":"Kuusalu","fclass":"village","population":0}},
{"type":"Feature","geometry":{"type":"Point","coordinates":[25.38657,59.44786]},"properties":{"name":"Kiiu","fclass":"village","population":726}},
{"type":"Feature","geometry":{"type":"Point","coordinates":[25.78914,59.46882]},"properties":{"name":"Valgejõe","fclass":"hamlet","population":26}},
{"type":"Feature","geometry":{"type":"Point","coordinates":[25.51278,59.43705]},"properties":{"name":"Kursi","fclass":"hamlet","population":0}},
{"type":"Feature","geometry":{"type":"Point","coordinates":[25.44549,59.39539]},"properties":{"name":"Härmakosu","fclass":"hamlet","population":0}},
{"type":"Feature","geometry":{"type":"Point","coordinates":[25.68581,59.09451]},"properties":{"name":"Kaalepi","fclass":"hamlet","population":0}},
{"type":"Feature","geometry":{"type":"Point","coordinates":[26.36172,59.34822]},"properties":{"name":"Rakvere","fclass":"town","population":16953}},
{"type":"Feature","geometry":{"type":"Point","coordinates":[26.2647,59.28769]},"properties":{"name":"Järni","fclass":"hamlet","population":0}},
{"type":"Feature","geometry":{"type":"Point","coordinates":[26.3494,59.38325]},"properties":{"name":"Päide","fclass":"hamlet","population":0}},
{"type":"Feature","geometry":{"type":"Point","coordinates":[26.28976,59.33097]},"properties":{"name":"Lepna","fclass":"village","population":400}},
{"type":"Feature","geometry":{"type":"Point","coordinates":[25.8814,59.04213]},"properties":{"name":"Järva-Jaani","fclass":"village","population":977}},
{"type":"Feature","geometry":{"type":"Point","coordinates":[26.41191,59.28073]},"properties":{"name":"Pajusti","fclass":"village","population":0}},
{"type":"Feature","geometry":{"type":"Point","coordinates":[26.42896,59.29252]},"properties":{"name":"Vinni","fclass":"village","population":0}},
{"type":"Feature","geometry":{"type":"Point","coordinates":[26.29534,59.15977]},"properties":{"name":"Pandivere","fclass":"hamlet","population":0}},
{"type":"Feature","geometry":{"type":"Point","coordinates":[26.26349,59.16023]},"properties":{"name":"Koonu","fclass":"hamlet","population":0}},
{"type":"Feature","geometry":{"type":"Point","coordinates":[26.32516,59.20298]},"properties":{"name":"Veadla","fclass":"hamlet","population":0}},
{"type":"Feature","geometry":{"type":"Point","coordinates":[26.10411,59.19798]},"properties":{"name":"Naistevälja","fclass":"hamlet","population":0}},
{"type":"Feature","geometry":{"type":"Point","coordinates":[26.12749,59.17473]},"properties":{"name":"Uudeküla","fclass":"hamlet","population":0}},
{"type":"Feature","geometry":{"type":"Point","coordinates":[26.12782,59.13827]},"properties":{"name":"Põdrangu","fclass":"hamlet","population":0}},
{"type":"Feature","geometry":{"type":"Point","coordinates":[26.15281,59.1691]},"properties":{"name":"Sauvälja","fclass":"hamlet","population":0}},
{"type":"Feature","geometry":{"type":"Point","coordinates":[26.1817,59.16464]},"properties":{"name":"Loksa","fclass":"hamlet","population":0}},
{"type":"Feature","geometry":{"type":"Point","coordinates":[26.25772,59.18184]},"properties":{"name":"Aburi","fclass":"hamlet","population":0}},
{"type":"Feature","geometry":{"type":"Point","coordinates":[25.61285,59.28746]},"properties":{"name":"Aegviidu","fclass":"village","population":769}},
{"type":"Feature","geometry":{"type":"Point","coordinates":[26.24169,58.99013]},"properties":{"name":"Rakke","fclass":"village","population":0}},
{"type":"Feature","geometry":{"type":"Point","coordinates":[26.33437,59.28895]},"properties":{"name":"Karitsa","fclass":"hamlet","population":0}},
{"type":"Feature","geometry":{"type":"Point","coordinates":[26.38555,59.29115]},"properties":{"name":"Vana-Vinni","fclass":"hamlet","population":0}},
{"type":"Feature","geometry":{"type":"Point","coordinates":[26.1283,59.27356]},"properties":{"name":"Pariisi","fclass":"hamlet","population":0}},
{"type":"Feature","geometry":{"type":"Point","coordinates":[25.90275,59.44597]},"properties":{"name":"Läsna","fclass":"hamlet","population":0}},
{"type":"Feature","geometry":{"type":"Point","coordinates":[26.13533,59.4404]},"properties":{"name":"Aaspere","fclass":"hamlet","population":0}},
{"type":"Feature","geometry":{"type":"Point","coordinates":[25.32928,59.33632]},"properties":{"name":"Kehra","fclass":"town","population":2641}},
{"type":"Feature","geometry":{"type":"Point","coordinates":[25.85646,59.36471]},"properties":{"name":"Pala","fclass":"hamlet","population":0}},
{"type":"Feature","geometry":{"type":"Point","coordinates":[25.74846,59.41767]},"properties":{"name":"Suru","fclass":"hamlet","population":0}},
{"type":"Feature","geometry":{"type":"Point","coordinates":[25.82255,59.2531]},"properties":{"name":"Lehtse","fclass":"village","population":0}},
{"type":"Feature","geometry":{"type":"Point","coordinates":[25.70572,59.46018]},"properties":{"name":"Kemba","fclass":"hamlet","population":0}},
{"type":"Feature","geometry":{"type":"Point","coordinates":[25.65174,59.45831]},"properties":{"name":"Liiapeksi","fclass":"hamlet","population":0}},
{"type":"Feature","geometry":{"type":"Point","coordinates":[25.93268,59.4178]},"properties":{"name":"Mõndavere","fclass":"hamlet","population":0}},
{"type":"Feature","geometry":{"type":"Point","coordinates":[25.57469,59.44286]},"properties":{"name":"Sigula","fclass":"hamlet","population":0}},
{"type":"Feature","geometry":{"type":"Point","coordinates":[26.32858,58.99163]},"properties":{"name":"Tammiku","fclass":"hamlet","population":0}},
{"type":"Feature","geometry":{"type":"Point","coordinates":[26.32003,59.00964]},"properties":{"name":"Väike-Tammiku","fclass":"hamlet","population":0}},
{"type":"Feature","geometry":{"type":"Point","coordinates":[26.34098,59.46958]},"properties":{"name":"Varangu","fclass":"hamlet","population":0}},
{"type":"Feature","geometry":{"type":"Point","coordinates":[26.06019,59.06974]},"properties":{"name":"Aavere","fclass":"hamlet","population":0}},
{"type":"Feature","geometry":{"type":"Point","coordinates":[26.05909,59.08814]},"properties":{"name":"Aavere","fclass":"hamlet","population":0}},
{"type":"Feature","geometry":{"type":"Point","coordinates":[25.26678,59.38841]},"properties":{"name":"Aavere","fclass":"hamlet","population":0}},
{"type":"Feature","geometry":{"type":"Point","coordinates":[26.32713,59.40905]},"properties":{"name":"Aasu","fclass":"hamlet","population":0}},
{"type":"Feature","geometry":{"type":"Point","coordinates":[26.42007,59.05676]},"properties":{"name":"Avanduse","fclass":"hamlet","population":0}},
{"type":"Feature","geometry":{"type":"Point","coordinates":[26.40437,59.11665]},"properties":{"name":"Avispea","fclass":"hamlet","population":0}},
{"type":"Feature","geometry":{"type":"Point","coordinates":[25.74814,59.08527]},"properties":{"name":"Ageri","fclass":"hamlet","population":0}},
{"type":"Feature","geometry":{"type":"Point","coordinates":[25.33137,59.24336]},"properties":{"name":"Alavere","fclass":"hamlet","population":0}},
{"type":"Feature","geometry":{"type":"Point","coordinates":[25.41644,59.46333]},"properties":{"name":"Allika","fclass":"hamlet","population":0}},
{"type":"Feature","geometry":{"type":"Point","coordinates":[25.7117,59.03751]},"properties":{"name":"Allikjärve","fclass":"hamlet","population":0}},
{"type":"Feature","geometry":{"type":"Point","coordinates":[26.41365,59.37219]},"properties":{"name":"Aluvere","fclass":"hamlet","population":0}},
{"type":"Feature","geometry":{"type":"Point","coordinates":[26.07814,59.18178]},"properties":{"name":"Alupere","fclass":"hamlet","population":0}},
{"type":"Feature","geometry":{"type":"Point","coordinates":[26.04518,59.4237]},"properties":{"name":"Ama","fclass":"hamlet","population":0}},
{"type":"Feature","geometry":{"type":"Point","coordinates":[25.84251,59.19325]},"properties":{"name":"Ambla","fclass":"village","population":0}},
{"type":"Feature","geometry":{"type":"Point","coordinates":[25.85716,58.98155]},"properties":{"name":"Ammuta","fclass":"hamlet","population":0}},
{"type":"Feature","geometry":{"type":"Point","coordinates":[26.46809,59.45679]},"properties":{"name":"Andja","fclass":"hamlet","population":0}},
{"type":"Feature","geometry":{"type":"Point","coordinates":[25.30025,59.38192]},"properties":{"name":"Anija","fclass":"hamlet","population":0}},
{"type":"Feature","geometry":{"type":"Point","coordinates":[25.59799,59.00734]},"properties":{"name":"Anna","fclass":"hamlet","population":0}},
{"type":"Feature","geometry":{"type":"Point","coordinates":[26.19599,58.9996]},"properties":{"name":"Ao","fclass":"hamlet","population":0}},
{"type":"Feature","geometry":{"type":"Point","coordinates":[25.40337,59.26861]},"properties":{"name":"Arava","fclass":"hamlet","population":0}},
{"type":"Feature","geometry":{"type":"Point","coordinates":[25.7528,59.14366]},"properties":{"name":"Aravete","fclass":"village","population":744}},
{"type":"Feature","geometry":{"type":"Point","coordinates":[26.09704,59.13847]},"properties":{"name":"Araski","fclass":"hamlet","population":0}},
{"type":"Feature","geometry":{"type":"Point","coordinates":[25.96344,59.43773]},"properties":{"name":"Arbavere","fclass":"hamlet","population":0}},
{"type":"Feature","geometry":{"type":"Point","coordinates":[25.35829,59.09963]},"properties":{"name":"Ardu","fclass":"village","population":471}},
{"type":"Feature","geometry":{"type":"Point","coordinates":[26.38351,59.39414]},"properties":{"name":"Arkna","fclass":"hamlet","population":0}},
{"type":"Feature","geometry":{"type":"Point","coordinates":[25.49629,59.42451]},"properties":{"name":"Aru","fclass":"hamlet","population":0}},
{"type":"Feature","geometry":{"type":"Point","coordinates":[26.41568,59.2569]},"properties":{"name":"Aruvälja","fclass":"hamlet","population":0}},
{"type":"Feature","geometry":{"type":"Point","coordinates":[26.4834,59.18947]},"properties":{"name":"Aruküla","fclass":"hamlet","population":0}},
{"type":"Feature","geometry":{"type":"Point","coordinates":[26.25884,59.23172]},"properties":{"name":"Assamalla","fclass":"hamlet","population":0}},
{"type":"Feature","geometry":{"type":"Point","coordinates":[26.19325,59.41009]},"properties":{"name":"Auküla","fclass":"hamlet","population":0}},
{"type":"Feature","geometry":{"type":"Point","coordinates":[25.73182,59.11331]},"properties":{"name":"Ahula","fclass":"hamlet","population":0}},
{"type":"Feature","geometry":{"type":"Point","coordinates":[25.2888,59.01768]},"properties":{"name":"Aela","fclass":"hamlet","population":0}},
{"type":"Feature","geometry":{"type":"Point","coordinates":[26.24108,59.21918]},"properties":{"name":"Vadiküla","fclass":"hamlet","population":0}},
{"type":"Feature","geometry":{"type":"Point","coordinates":[26.01014,59.36454]},"properties":{"name":"Vaiatu","fclass":"hamlet","population":0}},
{"type":"Feature","geometry":{"type":"Point","coordinates":[25.77177,59.05183]},"properties":{"name":"Valasti","fclass":"hamlet","population":0}},
{"type":"Feature","geometry":{"type":"Point","coordinates":[25.45834,59.08625]},"properties":{"name":"Vanamõisa","fclass":"hamlet","population":0}},
{"type":"Feature","geometry":{"type":"Point","coordinates":[26.21452,59.44225]},"properties":{"name":"Vanamõisa","fclass":"hamlet","population":0}},
{"type":"Feature","geometry":{"type":"Point","coordinates":[26.20609,59.31472]},"properties":{"name":"Vandu","fclass":"hamlet","population":0}},
{"type":"Feature","geometry":{"type":"Point","coordinates":[26.19041,59.10177]},"properties":{"name":"Vao","fclass":"hamlet","population":0}},
{"type":"Feature","geometry":{"type":"Point","coordinates":[26.09621,59.03254]},"properties":{"name":"Varangu","fclass":"hamlet","population":0}},
{"type":"Feature","geometry":{"type":"Point","coordinates":[25.21113,59.17257]},"properties":{"name":"Vardja","fclass":"hamlet","population":0}},
{"type":"Feature","geometry":{"type":"Point","coordinates":[26.05732,59.24228]},"properties":{"name":"Vahakulmu","fclass":"hamlet","population":0}},
{"type":"Feature","geometry":{"type":"Point","coordinates":[25.60234,59.46636]},"properties":{"name":"Vahastu","fclass":"hamlet","population":0}},
{"type":"Feature","geometry":{"type":"Point","coordinates":[25.22936,59.07275]},"properties":{"name":"Vahetüki","fclass":"hamlet","population":0}},
{"type":"Feature","geometry":{"type":"Point","coordinates":[26.09943,58.97533]},"properties":{"name":"Vahuküla","fclass":"hamlet","population":0}},
{"type":"Feature","geometry":{"type":"Point","coordinates":[26.51255,59.34159]},"properties":{"name":"Vaeküla","fclass":"hamlet","population":0}},
{"type":"Feature","geometry":{"type":"Point","coordinates":[26.00279,59.10787]},"properties":{"name":"Vajangu","fclass":"hamlet","population":0}},
{"type":"Feature","geometry":{"type":"Point","coordinates":[25.72643,58.97836]},"properties":{"name":"Vedruka","fclass":"hamlet","population":0}},
{"type":"Feature","geometry":{"type":"Point","coordinates":[26.27252,59.39637]},"properties":{"name":"Veltsi","fclass":"hamlet","population":0}},
{"type":"Feature","geometry":{"type":"Point","coordinates":[25.61082,59.12806]},"properties":{"name":"Vetepere","fclass":"hamlet","population":0}},
{"type":"Feature","geometry":{"type":"Point","coordinates":[26.45077,59.3294]},"properties":{"name":"Vetiku","fclass":"hamlet","population":0}},
{"type":"Feature","geometry":{"type":"Point","coordinates":[25.4625,59.22243]},"properties":{"name":"Vetla","fclass":"hamlet","population":0}},
{"type":"Feature","geometry":{"type":"Point","coordinates":[25.98319,58.98404]},"properties":{"name":"Visusti","fclass":"hamlet","population":0}},
{"type":"Feature","geometry":{"type":"Point","coordinates":[25.41446,59.32142]},"properties":{"name":"Vikipalu","fclass":"hamlet","population":0}},
{"type":"Feature","geometry":{"type":"Point","coordinates":[25.29123,59.2006]},"properties":{"name":"Vilama","fclass":"hamlet","population":0}},
{"type":"Feature","geometry":{"type":"Point","coordinates":[25.25918,59.05007]},"properties":{"name":"Virla","fclass":"hamlet","population":0}},
{"type":"Feature","geometry":{"type":"Point","coordinates":[26.47441,59.24502]},"properties":{"name":"Viru-Jaagupi","fclass":"village","population":404}},
{"type":"Feature","geometry":{"type":"Point","coordinates":[26.17188,59.18345]},"properties":{"name":"Vistla","fclass":"hamlet","population":0}},
{"type":"Feature","geometry":{"type":"Point","coordinates":[25.4373,59.19568]},"properties":{"name":"Voose","fclass":"hamlet","population":0}},
{"type":"Feature","geometry":{"type":"Point","coordinates":[26.50799,59.24062]},"properties":{"name":"Voore","fclass":"hamlet","population":0}},
{"type":"Feature","geometry":{"type":"Point","coordinates":[26.1672,59.07054]},"properties":{"name":"Vorsti","fclass":"hamlet","population":0}},
{"type":"Feature","geometry":{"type":"Point","coordinates":[26.04301,59.37832]},"properties":{"name":"Vohnja","fclass":"hamlet","population":0}},
{"type":"Feature","geometry":{"type":"Point","coordinates":[25.96357,58.97618]},"properties":{"name":"Vuti","fclass":"hamlet","population":0}},
{"type":"Feature","geometry":{"type":"Point","coordinates":[26.12399,59.32288]},"properties":{"name":"Võduvere","fclass":"hamlet","population":0}},
{"type":"Feature","geometry":{"type":"Point","coordinates":[26.35172,59.05484]},"properties":{"name":"Võivere","fclass":"hamlet","population":0}},
{"type":"Feature","geometry":{"type":"Point","coordinates":[26.11109,59.40735]},"properties":{"name":"Võipere","fclass":"hamlet","population":0}},
{"type":"Feature","geometry":{"type":"Point","coordinates":[26.23307,59.46437]},"properties":{"name":"Võle","fclass":"hamlet","population":0}},
{"type":"Feature","geometry":{"type":"Point","coordinates":[25.22981,59.1914]},"properties":{"name":"Võlle","fclass":"hamlet","population":0}},
{"type":"Feature","geometry":{"type":"Point","coordinates":[26.20982,59.21576]},"properties":{"name":"Võhmetu","fclass":"hamlet","population":0}},
{"type":"Feature","geometry":{"type":"Point","coordinates":[25.96771,59.07825]},"properties":{"name":"Võhmuta","fclass":"hamlet","population":0}},
{"type":"Feature","geometry":{"type":"Point","coordinates":[25.47112,59.03062]},"properties":{"name":"Võõbu","fclass":"hamlet","population":0}},
{"type":"Feature","geometry":{"type":"Point","coordinates":[26.29804,59.43129]},"properties":{"name":"Idavere","fclass":"hamlet","population":0}},
{"type":"Feature","geometry":{"type":"Point","coordinates":[25.47512,59.43962]},"properties":{"name":"Ilmastalu","fclass":"hamlet","population":0}},
{"type":"Feature","geometry":{"type":"Point","coordinates":[26.01304,59.27436]},"properties":{"name":"Imastu","fclass":"hamlet","population":0}},
{"type":"Feature","geometry":{"type":"Point","coordinates":[26.36626,59.26673]},"properties":{"name":"Inju","fclass":"hamlet","population":0}},
{"type":"Feature","geometry":{"type":"Point","coordinates":[25.89647,59.22062]},"properties":{"name":"Jootme","fclass":"hamlet","population":0}},
{"type":"Feature","geometry":{"type":"Point","coordinates":[25.86604,59.16468]},"properties":{"name":"Jõgisoo","fclass":"hamlet","population":0}},
{"type":"Feature","geometry":{"type":"Point","coordinates":[26.18993,59.29014]},"properties":{"name":"Jõepere","fclass":"hamlet","population":0}},
{"type":"Feature","geometry":{"type":"Point","coordinates":[26.16942,59.32418]},"properties":{"name":"Jõetaguse","fclass":"hamlet","population":0}},
{"type":"Feature","geometry":{"type":"Point","coordinates":[26.46652,59.35884]},"properties":{"name":"Kaarli","fclass":"hamlet","population":0}},
{"type":"Feature","geometry":{"type":"Point","coordinates":[25.75076,59.01382]},"properties":{"name":"Kaaruka","fclass":"hamlet","population":0}},
{"type":"Feature","geometry":{"type":"Point","coordinates":[26.14419,59.47239]},"properties":{"name":"Kavastu","fclass":"hamlet","population":0}},
{"type":"Feature","geometry":{"type":"Point","coordinates":[25.81774,59.02974]},"properties":{"name":"Kagavere","fclass":"hamlet","population":0}},
{"type":"Feature","geometry":{"type":"Point","coordinates":[26.14053,59.21786]},"properties":{"name":"Kadapiku","fclass":"hamlet","population":0}},
{"type":"Feature","geometry":{"type":"Point","coordinates":[26.13568,59.34958]},"properties":{"name":"Kadapiku","fclass":"hamlet","population":0}},
{"type":"Feature","geometry":{"type":"Point","coordinates":[26.33619,59.22922]},"properties":{"name":"Kadila","fclass":"hamlet","population":0}},
{"type":"Feature","geometry":{"type":"Point","coordinates":[25.22339,59.04156]},"properties":{"name":"Kadja","fclass":"hamlet","population":0}},
{"type":"Feature","geometry":{"type":"Point","coordinates":[26.44349,59.2705]},"properties":{"name":"Kakumäe","fclass":"hamlet","population":0}},
{"type":"Feature","geometry":{"type":"Point","coordinates":[26.06014,59.36242]},"properties":{"name":"Kallukse","fclass":"hamlet","population":0}},
{"type":"Feature","geometry":{"type":"Point","coordinates":[26.25982,59.0176]},"properties":{"name":"Kamariku","fclass":"hamlet","population":0}},
{"type":"Feature","geometry":{"type":"Point","coordinates":[26.45113,59.22744]},"properties":{"name":"Kannastiku","fclass":"hamlet","population":0}},
{"type":"Feature","geometry":{"type":"Point","coordinates":[25.24488,59.12348]},"properties":{"name":"Kantküla","fclass":"hamlet","population":0}},
{"type":"Feature","geometry":{"type":"Point","coordinates":[26.04181,58.9821]},"properties":{"name":"Kapu","fclass":"hamlet","population":0}},
{"type":"Feature","geometry":{"type":"Point","coordinates":[26.26904,59.35384]},"properties":{"name":"Karivärava","fclass":"hamlet","population":0}},
{"type":"Feature","geometry":{"type":"Point","coordinates":[25.96137,59.03958]},"properties":{"name":"Karinu","fclass":"hamlet","population":0}},
{"type":"Feature","geometry":{"type":"Point","coordinates":[25.98414,59.20126]},"properties":{"name":"Karkuse","fclass":"hamlet","population":0}},
{"type":"Feature","geometry":{"type":"Point","coordinates":[26.40419,59.31127]},"properties":{"name":"Karkuse","fclass":"hamlet","population":0}},
{"type":"Feature","geometry":{"type":"Point","coordinates":[26.24132,59.2657]},"properties":{"name":"Karunga","fclass":"hamlet","population":0}},
{"type":"Feature","geometry":{"type":"Point","coordinates":[26.39947,59.455]},"properties":{"name":"Katela","fclass":"hamlet","population":0}},
{"type":"Feature","geometry":{"type":"Point","coordinates":[26.51158,59.3745]},"properties":{"name":"Katku","fclass":"hamlet","population":0}},
{"type":"Feature","geometry":{"type":"Point","coordinates":[25.28957,59.08895]},"properties":{"name":"Katsina","fclass":"hamlet","population":0}},
{"type":"Feature","geometry":{"type":"Point","coordinates":[25.35726,59.30699]},"properties":{"name":"Kaunissaare","fclass":"hamlet","population":0}},
{"type":"Feature","geometry":{"type":"Point","coordinates":[26.08408,59.153]},"properties":{"name":"Kaeva","fclass":"hamlet","population":0}},
{"type":"Feature","geometry":{"type":"Point","coordinates":[26.52136,59.08083]},"properties":{"name":"Kellavere","fclass":"hamlet","population":0}},
{"type":"Feature","geometry":{"type":"Point","coordinates":[26.2232,58.9799]},"properties":{"name":"Kellamäe","fclass":"hamlet","population":0}},
{"type":"Feature","geometry":{"type":"Point","coordinates":[26.01672,59.12411]},"properties":{"name":"Kerguta","fclass":"hamlet","population":0}},
{"type":"Feature","geometry":{"type":"Point","coordinates":[26.47442,59.26751]},"properties":{"name":"Kehala","fclass":"hamlet","population":0}},
{"type":"Feature","geometry":{"type":"Point","coordinates":[25.32772,59.3507]},"properties":{"name":"Kehra","fclass":"hamlet","population":0}},
{"type":"Feature","geometry":{"type":"Point","coordinates":[25.24842,59.2966]},"properties":{"name":"Kiviloo","fclass":"hamlet","population":0}},
{"type":"Feature","geometry":{"type":"Point","coordinates":[26.29606,59.4108]},"properties":{"name":"Kisuvere","fclass":"hamlet","population":0}},
{"type":"Feature","geometry":{"type":"Point","coordinates":[26.089,59.30255]},"properties":{"name":"Kiku","fclass":"hamlet","population":0}},
{"type":"Feature","geometry":{"type":"Point","coordinates":[26.17692,59.08874]},"properties":{"name":"Kiltsi","fclass":"hamlet","population":0}},
{"type":"Feature","geometry":{"type":"Point","coordinates":[25.66812,58.98113]},"properties":{"name":"Kirisaare","fclass":"hamlet","population":0}},
{"type":"Feature","geometry":{"type":"Point","coordinates":[25.36596,59.12649]},"properties":{"name":"Kiruvere","fclass":"hamlet","population":0}},
{"type":"Feature","geometry":{"type":"Point","coordinates":[26.13261,59.38055]},"properties":{"name":"Kihlevere","fclass":"hamlet","population":0}},
{"type":"Feature","geometry":{"type":"Point","coordinates":[25.70098,59.07254]},"properties":{"name":"Kihme","fclass":"hamlet","population":0}},
{"type":"Feature","geometry":{"type":"Point","coordinates":[25.2526,59.36443]},"properties":{"name":"Kihmla","fclass":"hamlet","population":0}},
{"type":"Feature","geometry":{"type":"Point","coordinates":[26.27886,59.38]},"properties":{"name":"Kloodi","fclass":"hamlet","population":0}},
{"type":"Feature","geometry":{"type":"Point","coordinates":[25.77512,58.99573]},"properties":{"name":"Kodasema","fclass":"hamlet","population":0}},
{"type":"Feature","geometry":{"type":"Point","coordinates":[25.27323,59.44704]},"properties":{"name":"Kodasoo","fclass":"hamlet","population":0}},
{"type":"Feature","geometry":{"type":"Point","coordinates":[25.48201,59.40914]},"properties":{"name":"Kosu","fclass":"hamlet","population":0}},
{"type":"Feature","geometry":{"type":"Point","coordinates":[26.30281,59.22498]},"properties":{"name":"Koiduküla","fclass":"hamlet","population":0}},
{"type":"Feature","geometry":{"type":"Point","coordinates":[25.86441,59.30899]},"properties":{"name":"Kolgu","fclass":"hamlet","population":0}},
{"type":"Feature","geometry":{"type":"Point","coordinates":[26.28053,59.24056]},"properties":{"name":"Koplitaguse","fclass":"hamlet","population":0}},
{"type":"Feature","geometry":{"type":"Point","coordinates":[25.61714,58.97534]},"properties":{"name":"Korba","fclass":"hamlet","population":0}},
{"type":"Feature","geometry":{"type":"Point","coordinates":[26.37138,59.24266]},"properties":{"name":"Koeravere","fclass":"hamlet","population":0}},
{"type":"Feature","geometry":{"type":"Point","coordinates":[26.06199,59.11254]},"properties":{"name":"Kuie","fclass":"hamlet","population":0}},
{"type":"Feature","geometry":{"type":"Point","coordinates":[25.73067,59.2042]},"properties":{"name":"Kukevere","fclass":"hamlet","population":0}},
{"type":"Feature","geometry":{"type":"Point","coordinates":[25.31954,59.0767]},"properties":{"name":"Kukepala","fclass":"hamlet","population":0}},
{"type":"Feature","geometry":{"type":"Point","coordinates":[25.87761,59.01659]},"properties":{"name":"Kuksema","fclass":"hamlet","population":0}},
{"type":"Feature","geometry":{"type":"Point","coordinates":[26.30952,59.35744]},"properties":{"name":"Kullaaru","fclass":"hamlet","population":0}},
{"type":"Feature","geometry":{"type":"Point","coordinates":[26.27596,59.2098]},"properties":{"name":"Kullenga","fclass":"hamlet","population":0}},
{"type":"Feature","geometry":{"type":"Point","coordinates":[25.46484,59.45837]},"properties":{"name":"Kupu","fclass":"hamlet","population":0}},
{"type":"Feature","geometry":{"type":"Point","coordinates":[25.7681,59.14708]},"properties":{"name":"Kurisoo","fclass":"hamlet","population":0}},
{"type":"Feature","geometry":{"type":"Point","coordinates":[26.03422,59.13815]},"properties":{"name":"Kursi","fclass":"hamlet","population":0}},
{"type":"Feature","geometry":{"type":"Point","coordinates":[26.31968,59.05637]},"properties":{"name":"Kurtna","fclass":"hamlet","population":0}},
{"type":"Feature","geometry":{"type":"Point","coordinates":[25.8954,59.24097]},"properties":{"name":"Kuru","fclass":"hamlet","population":0}},
{"type":"Feature","geometry":{"type":"Point","coordinates":[25.3119,59.36967]},"properties":{"name":"Kuusemäe","fclass":"hamlet","population":0}},
{"type":"Feature","geometry":{"type":"Point","coordinates":[25.43734,59.45643]},"properties":{"name":"Kuusalu","fclass":"hamlet","population":0}},
{"type":"Feature","geometry":{"type":"Point","coordinates":[25.9334,59.00197]},"properties":{"name":"Kuusna","fclass":"hamlet","population":0}},
{"type":"Feature","geometry":{"type":"Point","coordinates":[26.12983,59.45575]},"properties":{"name":"Kõldu","fclass":"hamlet","population":0}},
{"type":"Feature","geometry":{"type":"Point","coordinates":[25.65116,59.22908]},"properties":{"name":"Kõrveküla","fclass":"hamlet","population":0}},
{"type":"Feature","geometry":{"type":"Point","coordinates":[25.99215,59.36927]},"properties":{"name":"Kõrveküla","fclass":"hamlet","population":0}},
{"type":"Feature","geometry":{"type":"Point","coordinates":[25.40511,59.10932]},"properties":{"name":"Kõrvenurga","fclass":"hamlet","population":0}},
{"type":"Feature","geometry":{"type":"Point","coordinates":[26.27155,59.3422]},"properties":{"name":"Kõrgemäe","fclass":"hamlet","population":0}},
{"type":"Feature","geometry":{"type":"Point","coordinates":[25.2434,59.08644]},"properties":{"name":"Kõue","fclass":"hamlet","population":0}},
{"type":"Feature","geometry":{"type":"Point","coordinates":[26.21746,59.18416]},"properties":{"name":"Kännuküla","fclass":"hamlet","population":0}},
{"type":"Feature","geometry":{"type":"Point","coordinates":[26.11386,59.43961]},"properties":{"name":"Kärmu","fclass":"hamlet","population":0}},
{"type":"Feature","geometry":{"type":"Point","coordinates":[26.29246,59.04607]},"properties":{"name":"Kärsa","fclass":"hamlet","population":0}},
{"type":"Feature","geometry":{"type":"Point","coordinates":[26.44716,58.98753]},"properties":{"name":"Käru","fclass":"hamlet","population":0}},
{"type":"Feature","geometry":{"type":"Point","coordinates":[25.37081,59.18647]},"properties":{"name":"Laane","fclass":"hamlet","population":0}},
{"type":"Feature","geometry":{"type":"Point","coordinates":[26.00727,58.97266]},"properties":{"name":"Laaneotsa","fclass":"hamlet","population":15}},
{"type":"Feature","geometry":{"type":"Point","coordinates":[26.21863,59.25061]},"properties":{"name":"Lasila","fclass":"hamlet","population":0}},
{"type":"Feature","geometry":{"type":"Point","coordinates":[26.28019,59.00259]},"properties":{"name":"Lammasküla","fclass":"hamlet","population":0}},
{"type":"Feature","geometry":{"type":"Point","coordinates":[26.15915,59.36499]},"properties":{"name":"Lante","fclass":"hamlet","population":0}},
{"type":"Feature","geometry":{"type":"Point","coordinates":[26.18569,58.97064]},"properties":{"name":"Lahu","fclass":"hamlet","population":0}},
{"type":"Feature","geometry":{"type":"Point","coordinates":[26.2849,59.2694]},"properties":{"name":"Levala","fclass":"hamlet","population":0}},
{"type":"Feature","geometry":{"type":"Point","coordinates":[26.05567,59.34]},"properties":{"name":"Leikude","fclass":"hamlet","population":0}},
{"type":"Feature","geometry":{"type":"Point","coordinates":[25.34488,59.16213]},"properties":{"name":"Leistu","fclass":"hamlet","population":0}},
{"type":"Feature","geometry":{"type":"Point","coordinates":[26.21664,59.23598]},"properties":{"name":"Lemmküla","fclass":"hamlet","population":0}},
{"type":"Feature","geometry":{"type":"Point","coordinates":[25.3457,59.3237]},"properties":{"name":"Lehtmetsa","fclass":"hamlet","population":0}},
{"type":"Feature","geometry":{"type":"Point","coordinates":[26.21378,59.07419]},"properties":{"name":"Liivaküla","fclass":"hamlet","population":0}},
{"type":"Feature","geometry":{"type":"Point","coordinates":[26.13108,59.00782]},"properties":{"name":"Liigvalla","fclass":"hamlet","population":0}},
{"type":"Feature","geometry":{"type":"Point","coordinates":[26.08762,59.45669]},"properties":{"name":"Liiguste","fclass":"hamlet","population":0}},
{"type":"Feature","geometry":{"type":"Point","coordinates":[25.35142,59.37127]},"properties":{"name":"Lilli","fclass":"hamlet","population":0}},
{"type":"Feature","geometry":{"type":"Point","coordinates":[25.19634,59.35392]},"properties":{"name":"Linnakse","fclass":"hamlet","population":0}},
{"type":"Feature","geometry":{"type":"Point","coordinates":[25.81347,59.21622]},"properties":{"name":"Linnape","fclass":"hamlet","population":0}},
{"type":"Feature","geometry":{"type":"Point","coordinates":[26.24502,59.41452]},"properties":{"name":"Lihulõpe","fclass":"hamlet","population":0}},
{"type":"Feature","geometry":{"type":"Point","coordinates":[26.03999,59.26949]},"properties":{"name":"Loksu","fclass":"hamlet","population":0}},
{"type":"Feature","geometry":{"type":"Point","coordinates":[26.04935,59.25499]},"properties":{"name":"Lokuta","fclass":"hamlet","population":0}},
{"type":"Feature","geometry":{"type":"Point","coordinates":[25.38363,59.35862]},"properties":{"name":"Looküla","fclass":"hamlet","population":0}},
{"type":"Feature","geometry":{"type":"Point","coordinates":[25.27317,59.27767]},"properties":{"name":"Lükati","fclass":"hamlet","population":0}},
{"type":"Feature","geometry":{"type":"Point","coordinates":[25.73812,59.24784]},"properties":{"name":"Läpi","fclass":"hamlet","population":0}},
{"type":"Feature","geometry":{"type":"Point","coordinates":[25.80997,59.26868]},"properties":{"name":"Läste","fclass":"hamlet","population":0}},
{"type":"Feature","geometry":{"type":"Point","coordinates":[25.20049,59.14575]},"properties":{"name":"Marguse","fclass":"hamlet","population":0}},
{"type":"Feature","geometry":{"type":"Point","coordinates":[26.41193,59.47378]},"properties":{"name":"Marinu","fclass":"hamlet","population":0}},
{"type":"Feature","geometry":{"type":"Point","coordinates":[26.15356,59.15747]},"properties":{"name":"Metskaevu","fclass":"hamlet","population":0}},
{"type":"Feature","geometry":{"type":"Point","coordinates":[25.99593,59.01405]},"properties":{"name":"Metsla","fclass":"hamlet","population":0}},
{"type":"Feature","geometry":{"type":"Point","coordinates":[25.83962,59.05341]},"properties":{"name":"Metstaguse","fclass":"hamlet","population":0}},
{"type":"Feature","geometry":{"type":"Point","coordinates":[26.5283,59.068]},"properties":{"name":"Moora","fclass":"hamlet","population":0}},
{"type":"Feature","geometry":{"type":"Point","coordinates":[26.00707,59.25494]},"properties":{"name":"Moe","fclass":"hamlet","population":0}},
{"type":"Feature","geometry":{"type":"Point","coordinates":[25.50295,59.29346]},"properties":{"name":"Mustjõe","fclass":"hamlet","population":0}},
{"type":"Feature","geometry":{"type":"Point","coordinates":[25.43168,59.05247]},"properties":{"name":"Mustla","fclass":"hamlet","population":0}},
{"type":"Feature","geometry":{"type":"Point","coordinates":[25.41802,59.08131]},"properties":{"name":"Mustla-Nõmme","fclass":"hamlet","population":0}},
{"type":"Feature","geometry":{"type":"Point","coordinates":[26.47221,59.30491]},"properties":{"name":"Mõdriku","fclass":"hamlet","population":0}},
{"type":"Feature","geometry":{"type":"Point","coordinates":[26.31278,58.97483]},"properties":{"name":"Mõisamaa","fclass":"hamlet","population":0}},
{"type":"Feature","geometry":{"type":"Point","coordinates":[25.58397,59.18079]},"properties":{"name":"Mõnuvere","fclass":"hamlet","population":0}},
{"type":"Feature","geometry":{"type":"Point","coordinates":[26.28001,59.12994]},"properties":{"name":"Müüriku","fclass":"hamlet","population":0}},
{"type":"Feature","geometry":{"type":"Point","coordinates":[25.58106,59.22677]},"properties":{"name":"Mägede","fclass":"hamlet","population":0}},
{"type":"Feature","geometry":{"type":"Point","coordinates":[25.73479,59.14264]},"properties":{"name":"Mägise","fclass":"hamlet","population":0}},
{"type":"Feature","geometry":{"type":"Point","coordinates":[26.25393,59.31709]},"properties":{"name":"Mädapea","fclass":"hamlet","population":0}},
{"type":"Feature","geometry":{"type":"Point","coordinates":[26.07724,59.32625]},"properties":{"name":"Mäo","fclass":"hamlet","population":0}},
{"type":"Feature","geometry":{"type":"Point","coordinates":[25.77079,59.1861]},"properties":{"name":"Märjandi","fclass":"hamlet","population":0}},
{"type":"Feature","geometry":{"type":"Point","coordinates":[26.41334,59.08351]},"properties":{"name":"Määri","fclass":"hamlet","population":0}},
{"type":"Feature","geometry":{"type":"Point","coordinates":[26.36751,59.313]},"properties":{"name":"Mäetaguse","fclass":"hamlet","population":0}},
{"type":"Feature","geometry":{"type":"Point","coordinates":[26.31987,59.07653]},"properties":{"name":"Nadalama","fclass":"hamlet","population":0}},
{"type":"Feature","geometry":{"type":"Point","coordinates":[25.74412,59.10291]},"properties":{"name":"Neitla","fclass":"hamlet","population":0}},
{"type":"Feature","geometry":{"type":"Point","coordinates":[26.14407,59.307]},"properties":{"name":"Neeruti","fclass":"hamlet","population":0}},
{"type":"Feature","geometry":{"type":"Point","coordinates":[25.587,59.02958]},"properties":{"name":"Nurme","fclass":"hamlet","population":0}},
{"type":"Feature","geometry":{"type":"Point","coordinates":[26.32079,59.24532]},"properties":{"name":"Nurmetu","fclass":"hamlet","population":0}},
{"type":"Feature","geometry":{"type":"Point","coordinates":[25.20498,59.07104]},"properties":{"name":"Nutu","fclass":"hamlet","population":0}},
{"type":"Feature","geometry":{"type":"Point","coordinates":[25.2594,59.22819]},"properties":{"name":"Nõmbra","fclass":"hamlet","population":0}},
{"type":"Feature","geometry":{"type":"Point","coordinates":[26.20781,59.04681]},"properties":{"name":"Nõmme","fclass":"hamlet","population":0}},
{"type":"Feature","geometry":{"type":"Point","coordinates":[25.37721,59.08657]},"properties":{"name":"Nõmmeri","fclass":"hamlet","population":0}},
{"type":"Feature","geometry":{"type":"Point","coordinates":[26.15214,58.97174]},"properties":{"name":"Nõmmküla","fclass":"hamlet","population":0}},
{"type":"Feature","geometry":{"type":"Point","coordinates":[26.03204,59.1964]},"properties":{"name":"Nõmmküla","fclass":"hamlet","population":0}},
{"type":"Feature","geometry":{"type":"Point","coordinates":[25.97947,59.22385]},"properties":{"name":"Näo","fclass":"hamlet","population":0}},
{"type":"Feature","geometry":{"type":"Point","coordinates":[25.79094,59.11572]},"properties":{"name":"Orgmetsa","fclass":"hamlet","population":0}},
{"type":"Feature","geometry":{"type":"Point","coordinates":[26.3768,59.06154]},"properties":{"name":"Orguse","fclass":"hamlet","population":0}},
{"type":"Feature","geometry":{"type":"Point","coordinates":[26.20918,59.33287]},"properties":{"name":"Orutaguse","fclass":"hamlet","population":0}},
{"type":"Feature","geometry":{"type":"Point","coordinates":[25.57683,58.99188]},"properties":{"name":"Otiku","fclass":"hamlet","population":0}},
{"type":"Feature","geometry":{"type":"Point","coordinates":[25.96176,59.34886]},"properties":{"name":"Ohepalu","fclass":"hamlet","population":0}},
{"type":"Feature","geometry":{"type":"Point","coordinates":[25.69134,59.05476]},"properties":{"name":"Oeti","fclass":"hamlet","population":0}},
{"type":"Feature","geometry":{"type":"Point","coordinates":[25.57519,59.00946]},"properties":{"name":"Ojaküla","fclass":"hamlet","population":0}},
{"type":"Feature","geometry":{"type":"Point","coordinates":[25.20403,59.12804]},"properties":{"name":"Ojasoo","fclass":"hamlet","population":0}},
{"type":"Feature","geometry":{"type":"Point","coordinates":[25.30406,59.35505]},"properties":{"name":"Paasiku","fclass":"hamlet","population":0}},
{"type":"Feature","geometry":{"type":"Point","coordinates":[26.29394,59.36665]},"properties":{"name":"Paatna","fclass":"hamlet","population":0}},
{"type":"Feature","geometry":{"type":"Point","coordinates":[26.17343,59.03588]},"properties":{"name":"Padaküla","fclass":"hamlet","population":0}},
{"type":"Feature","geometry":{"type":"Point","coordinates":[26.48434,59.06952]},"properties":{"name":"Padu","fclass":"hamlet","population":0}},
{"type":"Feature","geometry":{"type":"Point","coordinates":[25.29495,59.0675]},"properties":{"name":"Pala","fclass":"hamlet","population":0}},
{"type":"Feature","geometry":{"type":"Point","coordinates":[25.24976,59.20487]},"properties":{"name":"Palvere","fclass":"hamlet","population":0}},
{"type":"Feature","geometry":{"type":"Point","coordinates":[26.37105,59.37339]},"properties":{"name":"Papiaru","fclass":"hamlet","population":0}},
{"type":"Feature","geometry":{"type":"Point","coordinates":[25.24309,59.34271]},"properties":{"name":"Parila","fclass":"hamlet","population":0}},
{"type":"Feature","geometry":{"type":"Point","coordinates":[25.30998,59.39603]},"properties":{"name":"Partsaare","fclass":"hamlet","population":0}},
{"type":"Feature","geometry":{"type":"Point","coordinates":[25.76244,59.25766]},"properties":{"name":"Patika","fclass":"hamlet","population":0}},
{"type":"Feature","geometry":{"type":"Point","coordinates":[25.25521,59.0761]},"properties":{"name":"Paunaste","fclass":"hamlet","population":0}},
{"type":"Feature","geometry":{"type":"Point","coordinates":[25.31928,59.14541]},"properties":{"name":"Paunküla","fclass":"hamlet","population":0}},
{"type":"Feature","geometry":{"type":"Point","coordinates":[25.63891,59.19293]},"properties":{"name":"Peedu","fclass":"hamlet","population":0}},
{"type":"Feature","geometry":{"type":"Point","coordinates":[26.16823,59.21568]},"properties":{"name":"Piisupi","fclass":"hamlet","population":0}},
{"type":"Feature","geometry":{"type":"Point","coordinates":[26.02604,59.22869]},"properties":{"name":"Piilu","fclass":"hamlet","population":0}},
{"type":"Feature","geometry":{"type":"Point","coordinates":[26.39006,59.32727]},"properties":{"name":"Piira","fclass":"hamlet","population":0}},
{"type":"Feature","geometry":{"type":"Point","coordinates":[25.37466,59.281]},"properties":{"name":"Pikva","fclass":"hamlet","population":0}},
{"type":"Feature","geometry":{"type":"Point","coordinates":[26.07218,59.0531]},"properties":{"name":"Pikevere","fclass":"hamlet","population":0}},
{"type":"Feature","geometry":{"type":"Point","coordinates":[25.59561,59.35092]},"properties":{"name":"Pillapalu","fclass":"hamlet","population":0}},
{"type":"Feature","geometry":{"type":"Point","coordinates":[26.20487,59.18771]},"properties":{"name":"Porkuni","fclass":"hamlet","population":0}},
{"type":"Feature","geometry":{"type":"Point","coordinates":[25.85162,59.24139]},"properties":{"name":"Pruuna","fclass":"hamlet","population":0}},
{"type":"Feature","geometry":{"type":"Point","coordinates":[26.35451,59.08834]},"properties":{"name":"Pudivere","fclass":"hamlet","population":0}},
{"type":"Feature","geometry":{"type":"Point","coordinates":[25.5623,59.03411]},"properties":{"name":"Puiatu","fclass":"hamlet","population":0}},
{"type":"Feature","geometry":{"type":"Point","coordinates":[25.7019,59.1259]},"properties":{"name":"Pullevere","fclass":"hamlet","population":0}},
{"type":"Feature","geometry":{"type":"Point","coordinates":[25.60979,58.9919]},"properties":{"name":"Purdi","fclass":"hamlet","population":0}},
{"type":"Feature","geometry":{"type":"Point","coordinates":[25.33684,59.14194]},"properties":{"name":"Puusepa","fclass":"hamlet","population":0}},
{"type":"Feature","geometry":{"type":"Point","coordinates":[26.06622,59.00272]},"properties":{"name":"Puhmu","fclass":"hamlet","population":0}},
{"type":"Feature","geometry":{"type":"Point","coordinates":[26.00951,59.32903]},"properties":{"name":"Põima","fclass":"hamlet","population":0}},
{"type":"Feature","geometry":{"type":"Point","coordinates":[25.80485,59.28186]},"properties":{"name":"Rabasaare","fclass":"hamlet","population":0}},
{"type":"Feature","geometry":{"type":"Point","coordinates":[25.28528,59.09889]},"properties":{"name":"Rava","fclass":"hamlet","population":0}},
{"type":"Feature","geometry":{"type":"Point","coordinates":[25.84548,59.12645]},"properties":{"name":"Rava","fclass":"hamlet","population":0}},
{"type":"Feature","geometry":{"type":"Point","coordinates":[25.2473,59.17411]},"properties":{"name":"Raveliku","fclass":"hamlet","population":0}},
{"type":"Feature","geometry":{"type":"Point","coordinates":[25.2218,59.18382]},"properties":{"name":"Ravila","fclass":"village","population":236}},
{"type":"Feature","geometry":{"type":"Point","coordinates":[25.37112,59.21697]},"properties":{"name":"Rasivere","fclass":"hamlet","population":0}},
{"type":"Feature","geometry":{"type":"Point","coordinates":[26.11603,59.06979]},"properties":{"name":"Raigu","fclass":"hamlet","population":0}},
{"type":"Feature","geometry":{"type":"Point","coordinates":[25.8208,59.18188]},"properties":{"name":"Raka","fclass":"hamlet","population":0}},
{"type":"Feature","geometry":{"type":"Point","coordinates":[26.02691,59.03389]},"properties":{"name":"Ramma","fclass":"hamlet","population":0}},
{"type":"Feature","geometry":{"type":"Point","coordinates":[26.29236,59.09977]},"properties":{"name":"Rastla","fclass":"hamlet","population":0}},
{"type":"Feature","geometry":{"type":"Point","coordinates":[26.48112,59.34322]},"properties":{"name":"Raudvere","fclass":"hamlet","population":0}},
{"type":"Feature","geometry":{"type":"Point","coordinates":[25.71485,59.22717]},"properties":{"name":"Raudla","fclass":"hamlet","population":0}},
{"type":"Feature","geometry":{"type":"Point","coordinates":[26.50693,59.35961]},"properties":{"name":"Raudlepa","fclass":"hamlet","population":0}},
{"type":"Feature","geometry":{"type":"Point","coordinates":[25.43666,59.3824]},"properties":{"name":"Raudoja","fclass":"hamlet","population":0}},
{"type":"Feature","geometry":{"type":"Point","coordinates":[26.52733,59.11275]},"properties":{"name":"Rahkla","fclass":"hamlet","population":0}},
{"type":"Feature","geometry":{"type":"Point","coordinates":[26.33599,59.16887]},"properties":{"name":"Raeküla","fclass":"hamlet","population":0}},
{"type":"Feature","geometry":{"type":"Point","coordinates":[25.94618,59.17023]},"properties":{"name":"Reinevere","fclass":"hamlet","population":0}},
{"type":"Feature","geometry":{"type":"Point","coordinates":[25.44036,59.41449]},"properties":{"name":"Rehatse","fclass":"hamlet","population":0}},
{"type":"Feature","geometry":{"type":"Point","coordinates":[25.99851,59.30649]},"properties":{"name":"Ridaküla","fclass":"hamlet","population":0}},
{"type":"Feature","geometry":{"type":"Point","coordinates":[25.22709,59.12153]},"properties":{"name":"Riidamäe","fclass":"hamlet","population":0}},
{"type":"Feature","geometry":{"type":"Point","coordinates":[25.30667,59.2622]},"properties":{"name":"Rooküla","fclass":"hamlet","population":0}},
{"type":"Feature","geometry":{"type":"Point","coordinates":[25.93204,59.13482]},"properties":{"name":"Roosna","fclass":"hamlet","population":0}},
{"type":"Feature","geometry":{"type":"Point","coordinates":[26.47163,59.09877]},"properties":{"name":"Rohu","fclass":"hamlet","population":0}},
{"type":"Feature","geometry":{"type":"Point","coordinates":[25.31745,59.4457]},"properties":{"name":"Rummu","fclass":"hamlet","population":0}},
{"type":"Feature","geometry":{"type":"Point","coordinates":[25.21244,59.45215]},"properties":{"name":"Ruu","fclass":"hamlet","population":0}},
{"type":"Feature","geometry":{"type":"Point","coordinates":[26.04887,59.44906]},"properties":{"name":"Rõmeda","fclass":"hamlet","population":0}},
{"type":"Feature","geometry":{"type":"Point","coordinates":[25.29633,59.13699]},"properties":{"name":"Rõõsa","fclass":"hamlet","population":0}},
{"type":"Feature","geometry":{"type":"Point","coordinates":[26.51669,59.16243]},"properties":{"name":"Rünga","fclass":"hamlet","population":0}},
{"type":"Feature","geometry":{"type":"Point","coordinates":[25.79562,59.23966]},"properties":{"name":"Rägavere","fclass":"hamlet","population":0}},
{"type":"Feature","geometry":{"type":"Point","coordinates":[26.49571,59.3229]},"properties":{"name":"Rägavere","fclass":"hamlet","population":0}},
{"type":"Feature","geometry":{"type":"Point","coordinates":[26.22887,59.00896]},"properties":{"name":"Räitsvere","fclass":"hamlet","population":0}},
{"type":"Feature","geometry":{"type":"Point","coordinates":[25.88024,59.20489]},"properties":{"name":"Räsna","fclass":"hamlet","population":0}},
{"type":"Feature","geometry":{"type":"Point","coordinates":[25.20557,59.31807]},"properties":{"name":"Rätla","fclass":"hamlet","population":0}},
{"type":"Feature","geometry":{"type":"Point","coordinates":[25.38908,59.04711]},"properties":{"name":"Saarnakõrve","fclass":"hamlet","population":0}},
{"type":"Feature","geometry":{"type":"Point","coordinates":[26.05624,59.16737]},"properties":{"name":"Savalduma","fclass":"hamlet","population":0}},
{"type":"Feature","geometry":{"type":"Point","coordinates":[26.068,59.21661]},"properties":{"name":"Saiakopli","fclass":"hamlet","population":0}},
{"type":"Feature","geometry":{"type":"Point","coordinates":[26.10183,59.25113]},"properties":{"name":"Saksi","fclass":"hamlet","population":0}},
{"type":"Feature","geometry":{"type":"Point","coordinates":[26.07833,59.27909]},"properties":{"name":"Salda","fclass":"hamlet","population":0}},
{"type":"Feature","geometry":{"type":"Point","coordinates":[25.27698,59.34477]},"properties":{"name":"Salumetsa","fclass":"hamlet","population":0}},
{"type":"Feature","geometry":{"type":"Point","coordinates":[25.21375,59.36989]},"properties":{"name":"Salumäe","fclass":"hamlet","population":0}},
{"type":"Feature","geometry":{"type":"Point","coordinates":[25.93885,58.9919]},"properties":{"name":"Salutaguse","fclass":"hamlet","population":0}},
{"type":"Feature","geometry":{"type":"Point","coordinates":[25.2167,59.38586]},"properties":{"name":"Sambu","fclass":"hamlet","population":0}},
{"type":"Feature","geometry":{"type":"Point","coordinates":[26.23549,59.33197]},"properties":{"name":"Saukse","fclass":"hamlet","population":0}},
{"type":"Feature","geometry":{"type":"Point","coordinates":[25.31199,59.42422]},"properties":{"name":"Saunja","fclass":"hamlet","population":0}},
{"type":"Feature","geometry":{"type":"Point","coordinates":[26.17547,59.44028]},"properties":{"name":"Sauste","fclass":"hamlet","population":0}},
{"type":"Feature","geometry":{"type":"Point","coordinates":[25.34939,58.98088]},"properties":{"name":"Saueaugu","fclass":"hamlet","population":0}},
{"type":"Feature","geometry":{"type":"Point","coordinates":[25.29208,59.16326]},"properties":{"name":"Sae","fclass":"hamlet","population":0}},
{"type":"Feature","geometry":{"type":"Point","coordinates":[25.70179,59.09851]},"properties":{"name":"Seidla","fclass":"hamlet","population":0}},
{"type":"Feature","geometry":{"type":"Point","coordinates":[25.83012,59.07955]},"properties":{"name":"Seliküla","fclass":"hamlet","population":0}},
{"type":"Feature","geometry":{"type":"Point","coordinates":[25.31599,59.11367]},"properties":{"name":"Silmsi","fclass":"hamlet","population":0}},
{"type":"Feature","geometry":{"type":"Point","coordinates":[26.46866,59.05551]},"properties":{"name":"Sirevere","fclass":"hamlet","population":0}},
{"type":"Feature","geometry":{"type":"Point","coordinates":[26.47717,59.40637]},"properties":{"name":"Sooaluse","fclass":"hamlet","population":0}},
{"type":"Feature","geometry":{"type":"Point","coordinates":[25.36447,59.38631]},"properties":{"name":"Soodla","fclass":"hamlet","population":0}},
{"type":"Feature","geometry":{"type":"Point","coordinates":[25.62178,59.1737]},"properties":{"name":"Soosalu","fclass":"hamlet","population":0}},
{"type":"Feature","geometry":{"type":"Point","coordinates":[26.50101,59.03379]},"properties":{"name":"Sootaguse","fclass":"hamlet","population":0}},
{"type":"Feature","geometry":{"type":"Point","coordinates":[25.59742,59.15643]},"properties":{"name":"Sugalepa","fclass":"hamlet","population":0}},
{"type":"Feature","geometry":{"type":"Point","coordinates":[26.26268,58.98672]},"properties":{"name":"Suure-Rakke","fclass":"hamlet","population":0}},
{"type":"Feature","geometry":{"type":"Point","coordinates":[25.22734,58.97803]},"properties":{"name":"Suurekivi","fclass":"hamlet","population":0}},
{"type":"Feature","geometry":{"type":"Point","coordinates":[25.60204,59.01875]},"properties":{"name":"Sõmeru","fclass":"hamlet","population":0}},
{"type":"Feature","geometry":{"type":"Point","coordinates":[25.24756,59.16046]},"properties":{"name":"Sõmeru","fclass":"hamlet","population":0}},
{"type":"Feature","geometry":{"type":"Point","coordinates":[26.4311,59.3604]},"properties":{"name":"Sõmeru","fclass":"village","population":0}},
{"type":"Feature","geometry":{"type":"Point","coordinates":[25.23381,59.10686]},"properties":{"name":"Sääsküla","fclass":"hamlet","population":0}},
{"type":"Feature","geometry":{"type":"Point","coordinates":[25.70357,59.16298]},"properties":{"name":"Sääsküla","fclass":"hamlet","population":0}},
{"type":"Feature","geometry":{"type":"Point","coordinates":[26.3333,59.33577]},"properties":{"name":"Taaravainu","fclass":"hamlet","population":128}},
{"type":"Feature","geometry":{"type":"Point","coordinates":[26.20049,59.35687]},"properties":{"name":"Tirbiku","fclass":"hamlet","population":0}},
{"type":"Feature","geometry":{"type":"Point","coordinates":[26.31008,59.34145]},"properties":{"name":"Tobia","fclass":"hamlet","population":0}},
{"type":"Feature","geometry":{"type":"Point","coordinates":[26.03544,59.31071]},"properties":{"name":"Tokolopi","fclass":"hamlet","population":0}},
{"type":"Feature","geometry":{"type":"Point","coordinates":[26.41591,59.43769]},"properties":{"name":"Toomla","fclass":"hamlet","population":0}},
{"type":"Feature","geometry":{"type":"Point","coordinates":[25.24953,59.09585]},"properties":{"name":"Triigi","fclass":"hamlet","population":0}},
{"type":"Feature","geometry":{"type":"Point","coordinates":[25.92472,58.97536]},"properties":{"name":"Tudre","fclass":"hamlet","population":0}},
{"type":"Feature","geometry":{"type":"Point","coordinates":[26.3362,59.31846]},"properties":{"name":"Tõrma","fclass":"hamlet","population":181}},
{"type":"Feature","geometry":{"type":"Point","coordinates":[26.3329,59.36524]},"properties":{"name":"Tõrremäe","fclass":"hamlet","population":0}},
{"type":"Feature","geometry":{"type":"Point","coordinates":[25.85475,59.277]},"properties":{"name":"Tõõrakõrve","fclass":"hamlet","population":0}},
{"type":"Feature","geometry":{"type":"Point","coordinates":[25.9326,59.06763]},"properties":{"name":"Türje","fclass":"hamlet","population":0}},
{"type":"Feature","geometry":{"type":"Point","coordinates":[25.75495,58.99379]},"properties":{"name":"Tännapere","fclass":"hamlet","population":0}},
{"type":"Feature","geometry":{"type":"Point","coordinates":[26.05629,59.29915]},"properties":{"name":"Udriku","fclass":"hamlet","population":0}},
{"type":"Feature","geometry":{"type":"Point","coordinates":[26.01167,59.39282]},"properties":{"name":"Uku","fclass":"hamlet","population":0}},
{"type":"Feature","geometry":{"type":"Point","coordinates":[26.09409,59.34487]},"properties":{"name":"Undla","fclass":"hamlet","population":0}},
{"type":"Feature","geometry":{"type":"Point","coordinates":[26.38901,59.34914]},"properties":{"name":"Ussimäe","fclass":"hamlet","population":0}},
{"type":"Feature","geometry":{"type":"Point","coordinates":[25.35195,59.24347]},"properties":{"name":"Uuearu","fclass":"hamlet","population":0}},
{"type":"Feature","geometry":{"type":"Point","coordinates":[26.14824,59.10323]},"properties":{"name":"Uuemõisa","fclass":"hamlet","population":0}},
{"type":"Feature","geometry":{"type":"Point","coordinates":[25.20304,59.11254]},"properties":{"name":"Harmi","fclass":"hamlet","population":0}},
{"type":"Feature","geometry":{"type":"Point","coordinates":[25.54705,59.43782]},"properties":{"name":"Hirvli","fclass":"hamlet","population":0}},
{"type":"Feature","geometry":{"type":"Point","coordinates":[26.35575,59.03103]},"properties":{"name":"Hirla","fclass":"hamlet","population":0}},
{"type":"Feature","geometry":{"type":"Point","coordinates":[26.21788,59.35219]},"properties":{"name":"Hulja","fclass":"village","population":460}},
{"type":"Feature","geometry":{"type":"Point","coordinates":[26.08027,59.38652]},"properties":{"name":"Hõbeda","fclass":"hamlet","population":0}},
{"type":"Feature","geometry":{"type":"Point","coordinates":[26.17699,59.35972]},"properties":{"name":"Härjadi","fclass":"hamlet","population":0}},
{"type":"Feature","geometry":{"type":"Point","coordinates":[25.82644,58.98563]},"properties":{"name":"Õle","fclass":"hamlet","population":0}},
{"type":"Feature","geometry":{"type":"Point","coordinates":[26.24066,59.11428]},"properties":{"name":"Ebavere","fclass":"hamlet","population":0}},
{"type":"Feature","geometry":{"type":"Point","coordinates":[26.33874,59.14272]},"properties":{"name":"Eipri","fclass":"hamlet","population":0}},
{"type":"Feature","geometry":{"type":"Point","coordinates":[26.27093,59.08241]},"properties":{"name":"Äntu","fclass":"hamlet","population":0}},
{"type":"Feature","geometry":{"type":"Point","coordinates":[26.2344,59.14568]},"properties":{"name":"Ärina","fclass":"hamlet","population":0}},
{"type":"Feature","geometry":{"type":"Point","coordinates":[25.77936,58.97078]},"properties":{"name":"Esna","fclass":"hamlet","population":0}},
{"type":"Feature","geometry":{"type":"Point","coordinates":[25.79302,58.98405]},"properties":{"name":"Esna","fclass":"hamlet","population":0}},
{"type":"Feature","geometry":{"type":"Point","coordinates":[26.29955,59.30634]},"properties":{"name":"Eesküla","fclass":"hamlet","population":0}},
{"type":"Feature","geometry":{"type":"Point","coordinates":[25.3518,59.34534]},"properties":{"name":"Ülejõe","fclass":"hamlet","population":0}},
{"type":"Feature","geometry":{"type":"Point","coordinates":[25.2294,59.41851]},"properties":{"name":"Jägala","fclass":"hamlet","population":0}},
{"type":"Feature","geometry":{"type":"Point","coordinates":[25.89634,59.05755]},"properties":{"name":"Jalalõpe","fclass":"hamlet","population":0}},
{"type":"Feature","geometry":{"type":"Point","coordinates":[25.90185,59.09491]},"properties":{"name":"Jalgsema","fclass":"hamlet","population":0}},
{"type":"Feature","geometry":{"type":"Point","coordinates":[26.1519,59.19898]},"properties":{"name":"Järvajõe","fclass":"hamlet","population":0}},
{"type":"Feature","geometry":{"type":"Point","coordinates":[26.00123,59.06673]},"properties":{"name":"Järsi","fclass":"hamlet","population":0}}
]}