{"type":"FeatureCollection", "features": [
{"type":"Feature","geometry":{"type":"LineString","coordinates":[[26.32387,59.35307],[26.28349,59.34844],[26.26744,59.3466],[26.25086,59.34471],[26.24278,59.34378],[26.23525,59.34293],[26.23319,59.34273],[26.231,59.34258],[26.22036,59.34202],[26.20379,59.34116],[26.18992,59.34044],[26.16777,59.33928]]},"properties":{"fclass":"rail"}},
{"type":"Feature","geometry":{"type":"LineString","coordinates":[[25.97796,59.26328],[25.97685,59.26405],[25.97614,59.26442],[25.97525,59.26481],[25.97394,59.26525],[25.97249,59.26561],[25.97056,59.26589],[25.96947,59.26597],[25.96777,59.266]]},"properties":{"fclass":"rail"}},
{"type":"Feature","geometry":{"type":"LineString","coordinates":[[26.3504,59.35611],[26.3425,59.3552],[26.33928,59.35485],[26.32387,59.35307]]},"properties":{"fclass":"rail"}},
{"type":"Feature","geometry":{"type":"LineString","coordinates":[[26.36061,59.35732],[26.36181,59.35751],[26.37904,59.35948],[26.37996,59.35958]]},"properties":{"fclass":"rail"}},
{"type":"Feature","geometry":{"type":"LineString","coordinates":[[26.36164,59.35735],[26.36047,59.35726]]},"properties":{"fclass":"rail"}},
{"type":"Feature","geometry":{"type":"LineString","coordinates":[[26.37646,59.35899],[26.37585,59.35888],[26.37527,59.3588],[26.37055,59.35828]]},"properties":{"fclass":"rail"}},
{"type":"Feature","geometry":{"type":"LineString","coordinates":[[26.37315,59.35849],[26.37087,59.35823]]},"properties":{"fclass":"rail"}},
{"type":"Feature","geometry":{"type":"LineString","coordinates":[[26.37858,59.35933],[26.37745,59.35915]]},"properties":{"fclass":"rail"}},
{"type":"Feature","geometry":{"type":"LineString","coordinates":[[26.38207,59.35973],[26.38028,59.35947],[26.3798,59.35942],[26.37745,59.35915],[26.36958,59.35826],[26.36803,59.35805],[26.36468,59.35767],[26.36164,59.35735]]},"properties":{"fclass":"rail"}},
{"type":"Feature","geometry":{"type":"LineString","coordinates":[[26.38469,59.35971],[26.38331,59.35957],[26.38153,59.35955]]},"properties":{"fclass":"rail"}},
{"type":"Feature","geometry":{"type":"LineString","coordinates":[[26.3798,59.35942],[26.37821,59.35919],[26.37646,59.35899],[26.37149,59.35842],[26.37055,59.35828],[26.36686,59.35785]]},"properties":{"fclass":"rail"}},
{"type":"Feature","geometry":{"type":"LineString","coordinates":[[26.38197,59.35869],[26.38053,59.35909],[26.38006,59.35918],[26.37904,59.35924]]},"properties":{"fclass":"rail"}},
{"type":"Feature","geometry":{"type":"LineString","coordinates":[[26.38122,59.35937],[26.3805,59.3593],[26.37904,59.35924],[26.3788,59.35923]]},"properties":{"fclass":"rail"}},
{"type":"Feature","geometry":{"type":"LineString","coordinates":[[26.38122,59.35968],[26.37996,59.35958]]},"properties":{"fclass":"rail"}},
{"type":"Feature","geometry":{"type":"LineString","coordinates":[[26.41354,59.38697],[26.40373,59.37449],[26.40036,59.3702],[26.39548,59.36398],[26.39477,59.3632],[26.39387,59.3625],[26.39315,59.36206],[26.39189,59.36147],[26.39027,59.36094],[26.38903,59.36064],[26.38827,59.3605]]},"properties":{"fclass":"rail"}},
{"type":"Feature","geometry":{"type":"LineString","coordinates":[[26.39042,59.36053],[26.38983,59.36047],[26.38583,59.3602],[26.38228,59.3598]]},"properties":{"fclass":"rail"}},
{"type":"Feature","geometry":{"type":"LineString","coordinates":[[26.36267,59.35766],[26.36181,59.35751]]},"properties":{"fclass":"rail"}},
{"type":"Feature","geometry":{"type":"LineString","coordinates":[[26.36598,59.3582],[26.365,59.35833],[26.36239,59.35889]]},"properties":{"fclass":"rail"}},
{"type":"Feature","geometry":{"type":"LineString","coordinates":[[26.37707,59.35935],[26.37449,59.35906],[26.37376,59.35897],[26.36513,59.35798]]},"properties":{"fclass":"rail"}},
{"type":"Feature","geometry":{"type":"LineString","coordinates":[[26.37538,59.35921],[26.37449,59.35906]]},"properties":{"fclass":"rail"}},
{"type":"Feature","geometry":{"type":"LineString","coordinates":[[26.37176,59.35879],[26.37051,59.35872],[26.36793,59.35843]]},"properties":{"fclass":"rail"}},
{"type":"Feature","geometry":{"type":"LineString","coordinates":[[26.37376,59.35897],[26.37287,59.35892]]},"properties":{"fclass":"rail"}},
{"type":"Feature","geometry":{"type":"LineString","coordinates":[[26.37904,59.35948],[26.37803,59.35941],[26.37707,59.35935],[26.376,59.35928],[26.37538,59.35921],[26.37287,59.35892],[26.37176,59.35879],[26.36679,59.35823],[26.36513,59.35798],[26.36324,59.35772],[26.36267,59.35766]]},"properties":{"fclass":"rail"}},
{"type":"Feature","geometry":{"type":"LineString","coordinates":[[26.38143,59.35988],[26.376,59.35928]]},"properties":{"fclass":"rail"}},
{"type":"Feature","geometry":{"type":"LineString","coordinates":[[26.37803,59.35941],[26.36324,59.35772]]},"properties":{"fclass":"rail"}},
{"type":"Feature","geometry":{"type":"LineString","coordinates":[[26.39042,59.36053],[26.39101,59.36063],[26.39172,59.36085],[26.39237,59.36121],[26.39299,59.3618],[26.39461,59.36299],[26.395,59.36333],[26.39571,59.36414],[26.39624,59.36464],[26.39705,59.36544],[26.39762,59.36616],[26.39877,59.3676]]},"properties":{"fclass":"rail"}},
{"type":"Feature","geometry":{"type":"LineString","coordinates":[[26.38983,59.36047],[26.39054,59.36052],[26.39251,59.36072],[26.3933,59.36076],[26.39813,59.36047]]},"properties":{"fclass":"rail"}},
{"type":"Feature","geometry":{"type":"LineString","coordinates":[[26.39054,59.36052],[26.39174,59.36072]]},"properties":{"fclass":"rail"}},
{"type":"Feature","geometry":{"type":"LineString","coordinates":[[26.39624,59.36464],[26.39708,59.36534],[26.398,59.36653],[26.39905,59.36739],[26.40093,59.36969]]},"properties":{"fclass":"rail"}},
{"type":"Feature","geometry":{"type":"LineString","coordinates":[[26.39762,59.36616],[26.398,59.36653]]},"properties":{"fclass":"rail"}},
{"type":"Feature","geometry":{"type":"LineString","coordinates":[[26.3985,59.36819],[26.39901,59.36915]]},"properties":{"fclass":"rail"}},
{"type":"Feature","geometry":{"type":"LineString","coordinates":[[26.24357,58.98401],[26.24333,58.98505],[26.24284,58.98887],[26.24271,58.9895],[26.24233,58.9925],[26.24233,58.99358]]},"properties":{"fclass":"rail"}},
{"type":"Feature","geometry":{"type":"LineString","coordinates":[[26.24351,58.98444],[26.24351,58.98515],[26.24335,58.98639],[26.24316,58.9877],[26.24274,58.9911],[26.24243,58.99343],[26.24228,58.99398]]},"properties":{"fclass":"rail"}},
{"type":"Feature","geometry":{"type":"LineString","coordinates":[[26.24243,58.99343],[26.24261,58.99283],[26.24337,58.98691],[26.24335,58.98639]]},"properties":{"fclass":"rail"}},
{"type":"Feature","geometry":{"type":"LineString","coordinates":[[26.24416,58.98257],[26.24419,58.983],[26.24464,58.98376],[26.24474,58.98414],[26.24469,58.98454]]},"properties":{"fclass":"rail"}},
{"type":"Feature","geometry":{"type":"LineString","coordinates":[[26.24375,58.98416],[26.24395,58.98359],[26.24407,58.98318],[26.24411,58.98288],[26.24416,58.98257],[26.24423,58.98196]]},"properties":{"fclass":"rail"}},
{"type":"Feature","geometry":{"type":"LineString","coordinates":[[26.24411,58.98288],[26.24423,58.98397],[26.2442,58.98463]]},"properties":{"fclass":"rail"}},
{"type":"Feature","geometry":{"type":"LineString","coordinates":[[26.24407,58.98318],[26.24403,58.9835],[26.24403,58.98434]]},"properties":{"fclass":"rail"}},
{"type":"Feature","geometry":{"type":"LineString","coordinates":[[26.24403,58.9835],[26.24377,58.9856],[26.2437,58.98587]]},"properties":{"fclass":"rail"}},
{"type":"Feature","geometry":{"type":"LineString","coordinates":[[26.24395,58.98359],[26.24371,58.98526],[26.2437,58.98587],[26.24345,58.98672]]},"properties":{"fclass":"rail"}},
{"type":"Feature","geometry":{"type":"LineString","coordinates":[[26.18707,59.07616],[26.18658,59.07682],[26.17784,59.08654],[26.17735,59.08717],[26.17583,59.08886],[26.17477,59.08985]]},"properties":{"fclass":"rail"}},
{"type":"Feature","geometry":{"type":"LineString","coordinates":[[26.18284,59.08086],[26.18215,59.08151],[26.17548,59.08897],[26.1751,59.08948]]},"properties":{"fclass":"rail"}},
{"type":"Feature","geometry":{"type":"LineString","coordinates":[[26.10125,59.16584],[26.10218,59.16538],[26.10377,59.16449],[26.1102,59.16089],[26.1114,59.16027],[26.116,59.15766],[26.11708,59.15698]]},"properties":{"fclass":"rail"}},
{"type":"Feature","geometry":{"type":"LineString","coordinates":[[26.10194,59.16545],[26.10311,59.16472],[26.10932,59.16125],[26.11549,59.1578],[26.11654,59.15728]]},"properties":{"fclass":"rail"}},
{"type":"Feature","geometry":{"type":"LineString","coordinates":[[26.10932,59.16125],[26.10838,59.16168],[26.10558,59.16268],[26.10416,59.16304],[26.10124,59.16351],[26.10015,59.16368]]},"properties":{"fclass":"rail"}},
{"type":"Feature","geometry":{"type":"LineString","coordinates":[[26.0999,59.16372],[26.09939,59.16377],[26.09884,59.16382],[26.09693,59.16388],[26.09602,59.16383],[26.09515,59.16365],[26.09428,59.16327],[26.09366,59.1627],[26.09345,59.16206],[26.09336,59.16173],[26.09304,59.16054]]},"properties":{"fclass":"rail"}},
{"type":"Feature","geometry":{"type":"LineString","coordinates":[[26.09192,59.15645],[26.09202,59.15665]]},"properties":{"fclass":"rail"}},
{"type":"Feature","geometry":{"type":"LineString","coordinates":[[26.09345,59.16206],[26.09309,59.16129],[26.09285,59.1608],[26.09248,59.16],[26.09239,59.15974],[26.09214,59.15919],[26.09203,59.15879]]},"properties":{"fclass":"rail"}},
{"type":"Feature","geometry":{"type":"LineString","coordinates":[[26.09309,59.16129],[26.09298,59.16091],[26.09295,59.16052]]},"properties":{"fclass":"rail"}},
{"type":"Feature","geometry":{"type":"LineString","coordinates":[[26.09336,59.16173],[26.09333,59.16142],[26.09334,59.16121]]},"properties":{"fclass":"rail"}},
{"type":"Feature","geometry":{"type":"LineString","coordinates":[[26.09239,59.15974],[26.09198,59.1591],[26.09174,59.15821]]},"properties":{"fclass":"rail"}},
{"type":"Feature","geometry":{"type":"LineString","coordinates":[[26.09939,59.16377],[26.09777,59.164],[26.09695,59.16408],[26.09544,59.16412]]},"properties":{"fclass":"rail"}},
{"type":"Feature","geometry":{"type":"LineString","coordinates":[[26.09884,59.16382],[26.09736,59.16393]]},"properties":{"fclass":"rail"}},
{"type":"Feature","geometry":{"type":"LineString","coordinates":[[26.09252,59.16111],[26.09258,59.1604]]},"properties":{"fclass":"rail"}},
{"type":"Feature","geometry":{"type":"LineString","coordinates":[[26.04213,59.20889],[26.04273,59.20823],[26.04603,59.20388],[26.0473,59.20236],[26.04878,59.20073],[26.04911,59.20028]]},"properties":{"fclass":"rail"}},
{"type":"Feature","geometry":{"type":"LineString","coordinates":[[25.96524,59.26578],[25.96313,59.26552],[25.95861,59.26513],[25.95709,59.26502],[25.95549,59.26495]]},"properties":{"fclass":"rail"}},
{"type":"Feature","geometry":{"type":"LineString","coordinates":[[25.93537,59.26209],[25.93482,59.26173],[25.93442,59.26112],[25.93441,59.26077],[25.93482,59.25987],[25.93487,59.2592],[25.93475,59.25864],[25.93433,59.25747],[25.93298,59.25387]]},"properties":{"fclass":"rail"}},
{"type":"Feature","geometry":{"type":"LineString","coordinates":[[25.93433,59.25747],[25.93401,59.25691],[25.93288,59.25388]]},"properties":{"fclass":"rail"}},
{"type":"Feature","geometry":{"type":"LineString","coordinates":[[25.94725,59.26387],[25.94574,59.2635],[25.94515,59.26335],[25.94359,59.2628],[25.94281,59.26238]]},"properties":{"fclass":"rail"}},
{"type":"Feature","geometry":{"type":"LineString","coordinates":[[25.94515,59.26335],[25.94381,59.26297],[25.94332,59.26274],[25.94126,59.26156]]},"properties":{"fclass":"rail"}},
{"type":"Feature","geometry":{"type":"LineString","coordinates":[[25.94574,59.2635],[25.94422,59.26319],[25.94337,59.26295],[25.9427,59.26259]]},"properties":{"fclass":"rail"}},
{"type":"Feature","geometry":{"type":"LineString","coordinates":[[25.97278,59.26581],[25.96985,59.26624]]},"properties":{"fclass":"rail"}},
{"type":"Feature","geometry":{"type":"LineString","coordinates":[[25.9675,59.26585],[25.96773,59.26586],[25.96952,59.26582],[25.97121,59.26567]]},"properties":{"fclass":"rail"}},
{"type":"Feature","geometry":{"type":"LineString","coordinates":[[25.96773,59.26586],[25.96857,59.26588],[25.96989,59.26583],[25.97122,59.26571]]},"properties":{"fclass":"rail"}},
{"type":"Feature","geometry":{"type":"LineString","coordinates":[[25.96681,59.26582],[25.96764,59.26589],[25.96882,59.26593],[25.96968,59.26591],[25.97089,59.2658],[25.97222,59.2656]]},"properties":{"fclass":"rail"}},
{"type":"Feature","geometry":{"type":"LineString","coordinates":[[25.96944,59.26614],[25.97217,59.26573],[25.97296,59.26557],[25.97416,59.26523],[25.97434,59.26518],[25.97534,59.2649],[25.97627,59.26459],[25.97677,59.26436],[25.97743,59.26392],[25.97812,59.26333],[25.97928,59.26205]]},"properties":{"fclass":"rail"}},
{"type":"Feature","geometry":{"type":"LineString","coordinates":[[25.97507,59.26501],[25.97611,59.26486],[25.97714,59.26481],[25.97801,59.26479],[25.97894,59.26485],[25.97986,59.265],[25.98062,59.26521],[25.98191,59.26576]]},"properties":{"fclass":"rail"}},
{"type":"Feature","geometry":{"type":"LineString","coordinates":[[25.97611,59.26486],[25.97709,59.26491],[25.97721,59.26492],[25.9779,59.26505],[25.9788,59.2652],[25.97975,59.26527],[25.98031,59.26536],[25.98155,59.2658]]},"properties":{"fclass":"rail"}},
{"type":"Feature","geometry":{"type":"LineString","coordinates":[[25.9788,59.2652],[25.97951,59.26529],[25.98014,59.26545],[25.98149,59.26593]]},"properties":{"fclass":"rail"}},
{"type":"Feature","geometry":{"type":"LineString","coordinates":[[25.9779,59.26505],[25.97925,59.26538],[25.9813,59.26619]]},"properties":{"fclass":"rail"}},
{"type":"Feature","geometry":{"type":"LineString","coordinates":[[25.97416,59.26523],[25.9732,59.26555],[25.97192,59.26584],[25.97062,59.26602],[25.96944,59.26614],[25.96879,59.26619],[25.96781,59.26619]]},"properties":{"fclass":"rail"}},
{"type":"Feature","geometry":{"type":"LineString","coordinates":[[25.96985,59.26624],[25.97112,59.26612],[25.9728,59.26587]]},"properties":{"fclass":"rail"}},
{"type":"Feature","geometry":{"type":"LineString","coordinates":[[25.96751,59.26617],[25.96594,59.26608]]},"properties":{"fclass":"rail"}},
{"type":"Feature","geometry":{"type":"LineString","coordinates":[[25.92387,59.26253],[25.92623,59.26274],[25.92726,59.26278],[25.92851,59.26282],[25.92978,59.26285],[25.93201,59.26293],[25.93661,59.2633],[25.94427,59.26394],[25.94797,59.26425],[25.95014,59.26454],[25.95114,59.26468],[25.95177,59.26478],[25.95238,59.26483],[25.95304,59.26491],[25.95532,59.2652]]},"properties":{"fclass":"rail"}},
{"type":"Feature","geometry":{"type":"LineString","coordinates":[[25.95117,59.26484],[25.95304,59.26491],[25.95376,59.26493],[25.95405,59.26494]]},"properties":{"fclass":"rail"}},
{"type":"Feature","geometry":{"type":"LineString","coordinates":[[25.95177,59.26478],[25.9508,59.26469],[25.94885,59.26442],[25.94786,59.26429],[25.9424,59.26384],[25.94022,59.26365],[25.93303,59.26307],[25.93204,59.26298],[25.93071,59.26291]]},"properties":{"fclass":"rail"}},
{"type":"Feature","geometry":{"type":"LineString","coordinates":[[25.92978,59.26285],[25.93071,59.26291],[25.93273,59.26309],[25.93472,59.26325],[25.94148,59.26381],[25.94308,59.26395],[25.94885,59.26442]]},"properties":{"fclass":"rail"}},
{"type":"Feature","geometry":{"type":"LineString","coordinates":[[25.95405,59.26494],[25.95628,59.26504],[25.96262,59.26555],[25.96524,59.26578],[25.96706,59.26597],[25.96777,59.266]]},"properties":{"fclass":"rail"}},
{"type":"Feature","geometry":{"type":"LineString","coordinates":[[25.95426,59.26524],[25.95312,59.2652],[25.94366,59.26442],[25.93852,59.264],[25.93112,59.26339],[25.92977,59.26322],[25.92879,59.2631],[25.92713,59.26291]]},"properties":{"fclass":"rail"}},
{"type":"Feature","geometry":{"type":"LineString","coordinates":[[25.95635,59.26533],[25.95523,59.26528],[25.95426,59.26524],[25.94172,59.26422],[25.93856,59.26395],[25.92977,59.26322]]},"properties":{"fclass":"rail"}},
{"type":"Feature","geometry":{"type":"LineString","coordinates":[[25.95523,59.26528],[25.94017,59.26405],[25.93858,59.26391],[25.92879,59.2631]]},"properties":{"fclass":"rail"}},
{"type":"Feature","geometry":{"type":"LineString","coordinates":[[25.96519,59.26607],[25.96282,59.26588],[25.95745,59.26543]]},"properties":{"fclass":"rail"}},
{"type":"Feature","geometry":{"type":"LineString","coordinates":[[25.97315,59.26677],[25.97498,59.26721]]},"properties":{"fclass":"rail"}},
{"type":"Feature","geometry":{"type":"LineString","coordinates":[[25.97501,59.26716],[25.97605,59.26741],[25.97682,59.26767],[25.9776,59.26815]]},"properties":{"fclass":"rail"}},
{"type":"Feature","geometry":{"type":"LineString","coordinates":[[25.97039,59.26641],[25.97175,59.26647],[25.97323,59.26661],[25.97409,59.2668]]},"properties":{"fclass":"rail"}},
{"type":"Feature","geometry":{"type":"LineString","coordinates":[[25.97249,59.2665],[25.97382,59.26654],[25.97447,59.26662],[25.97552,59.26688]]},"properties":{"fclass":"rail"}},
{"type":"Feature","geometry":{"type":"LineString","coordinates":[[26.11235,59.33523],[26.11003,59.33436],[26.09885,59.33007],[26.0968,59.3292],[26.09552,59.32858],[26.09252,59.32706],[26.07485,59.31804],[26.04069,59.30062],[26.02821,59.29424],[26.01375,59.28682],[26.00327,59.28146],[25.9945,59.27696],[25.99329,59.27633]]},"properties":{"fclass":"rail"}},
{"type":"Feature","geometry":{"type":"LineString","coordinates":[[25.92713,59.26291],[25.92686,59.26289],[25.92289,59.26257],[25.91819,59.26217]]},"properties":{"fclass":"rail"}},
{"type":"Feature","geometry":{"type":"LineString","coordinates":[[25.18788,59.36449],[25.18889,59.3644],[25.22088,59.36156],[25.24705,59.35922],[25.2584,59.3582],[25.26068,59.35795],[25.26251,59.3577],[25.26375,59.3575],[25.26595,59.35708],[25.26747,59.35675],[25.26945,59.35624],[25.27119,59.35574],[25.29499,59.3487],[25.3118,59.34373],[25.31619,59.34244],[25.31895,59.34167],[25.32058,59.3412],[25.32082,59.34112],[25.32228,59.34069],[25.32449,59.34003],[25.3328,59.33757],[25.33637,59.33646],[25.3394,59.33555],[25.3401,59.33534],[25.34039,59.33526]]},"properties":{"fclass":"rail"}},
{"type":"Feature","geometry":{"type":"LineString","coordinates":[[25.32338,59.34053],[25.32463,59.34021],[25.32992,59.33865]]},"properties":{"fclass":"rail"}},
{"type":"Feature","geometry":{"type":"LineString","coordinates":[[25.34028,59.33518],[25.34097,59.33497]]},"properties":{"fclass":"rail"}},
{"type":"Feature","geometry":{"type":"LineString","coordinates":[[25.34039,59.33526],[25.34107,59.33505]]},"properties":{"fclass":"rail"}},
{"type":"Feature","geometry":{"type":"LineString","coordinates":[[25.61037,59.28622],[25.62593,59.28069],[25.62771,59.28006],[25.62835,59.27983],[25.62917,59.27954]]},"properties":{"fclass":"rail"}},
{"type":"Feature","geometry":{"type":"LineString","coordinates":[[25.50334,59.29245],[25.50375,59.29244]]},"properties":{"fclass":"rail"}},
{"type":"Feature","geometry":{"type":"LineString","coordinates":[[25.34107,59.33505],[25.34186,59.33482],[25.35591,59.33065],[25.38629,59.32163],[25.41077,59.31436],[25.43184,59.3081],[25.44701,59.30358],[25.46535,59.29813],[25.47386,59.2956],[25.47524,59.29521],[25.47662,59.29485],[25.47816,59.2945],[25.48046,59.29406],[25.48276,59.2937],[25.48552,59.29337],[25.48701,59.29324],[25.48837,59.29315],[25.49042,59.29306],[25.50337,59.29254]]},"properties":{"fclass":"rail"}},
{"type":"Feature","geometry":{"type":"LineString","coordinates":[[25.34097,59.33497],[25.34253,59.3345],[25.34379,59.33416],[25.34544,59.33371]]},"properties":{"fclass":"rail"}},
{"type":"Feature","geometry":{"type":"LineString","coordinates":[[25.50375,59.29244],[25.50492,59.29238],[25.50981,59.29224],[25.54299,59.2909],[25.59249,59.28884]]},"properties":{"fclass":"rail"}},
{"type":"Feature","geometry":{"type":"LineString","coordinates":[[25.61116,59.28583],[25.61218,59.28536],[25.61468,59.28446],[25.62397,59.28117],[25.62541,59.28077]]},"properties":{"fclass":"rail"}},
{"type":"Feature","geometry":{"type":"LineString","coordinates":[[25.50337,59.29254],[25.50375,59.29253]]},"properties":{"fclass":"rail"}},
{"type":"Feature","geometry":{"type":"LineString","coordinates":[[25.61039,59.28616],[25.61484,59.28457],[25.61674,59.2839]]},"properties":{"fclass":"rail"}},
{"type":"Feature","geometry":{"type":"LineString","coordinates":[[25.18788,59.36444],[25.18985,59.36426],[25.22087,59.36152],[25.23464,59.36029],[25.25692,59.35829],[25.25838,59.35816],[25.26065,59.35791],[25.26245,59.35766],[25.26492,59.35724],[25.26689,59.35683],[25.26842,59.35647],[25.27115,59.35571],[25.31176,59.3437],[25.31842,59.34173],[25.32422,59.34001],[25.3257,59.33957]]},"properties":{"fclass":"rail"}},
{"type":"Feature","geometry":{"type":"LineString","coordinates":[[25.6145,59.28485],[25.61719,59.28386],[25.62502,59.28108],[25.62593,59.28069]]},"properties":{"fclass":"rail"}},
{"type":"Feature","geometry":{"type":"LineString","coordinates":[[25.62835,59.27983],[25.62913,59.2795]]},"properties":{"fclass":"rail"}},
{"type":"Feature","geometry":{"type":"LineString","coordinates":[[25.8997,59.26028],[25.91519,59.26156],[25.91866,59.26204],[25.91963,59.26215],[25.92204,59.26235],[25.92238,59.26238],[25.92387,59.26253],[25.92511,59.2627]]},"properties":{"fclass":"rail"}},
{"type":"Feature","geometry":{"type":"LineString","coordinates":[[25.62669,59.28036],[25.62771,59.28006]]},"properties":{"fclass":"rail"}},
{"type":"Feature","geometry":{"type":"LineString","coordinates":[[25.94951,59.26472],[25.94801,59.26455],[25.94225,59.26407],[25.9361,59.26355],[25.93062,59.26311],[25.9297,59.26307]]},"properties":{"fclass":"rail"}},
{"type":"Feature","geometry":{"type":"LineString","coordinates":[[25.94991,59.26462],[25.9489,59.26449],[25.9469,59.2643],[25.94427,59.26409],[25.93332,59.26318],[25.9299,59.26291],[25.92891,59.26288]]},"properties":{"fclass":"rail"}},
{"type":"Feature","geometry":{"type":"LineString","coordinates":[[25.93062,59.26311],[25.93209,59.26317],[25.93408,59.26335],[25.93757,59.26363],[25.94115,59.26393],[25.94677,59.26439],[25.94799,59.2645],[25.94991,59.26462],[25.9508,59.26469]]},"properties":{"fclass":"rail"}},
{"type":"Feature","geometry":{"type":"LineString","coordinates":[[25.94677,59.26439],[25.94801,59.26455]]},"properties":{"fclass":"rail"}},
{"type":"Feature","geometry":{"type":"LineString","coordinates":[[25.94638,59.26504],[25.94706,59.26523],[25.9483,59.26537],[25.94982,59.2655]]},"properties":{"fclass":"rail"}},
{"type":"Feature","geometry":{"type":"LineString","coordinates":[[25.94569,59.26484],[25.94655,59.26515],[25.94715,59.26545]]},"properties":{"fclass":"rail"}},
{"type":"Feature","geometry":{"type":"LineString","coordinates":[[25.3394,59.33555],[25.33791,59.33592]]},"properties":{"fclass":"rail"}},
{"type":"Feature","geometry":{"type":"LineString","coordinates":[[25.33065,59.33847],[25.33183,59.33839],[25.33292,59.33848],[25.33371,59.33865],[25.33417,59.3388],[25.33573,59.33928],[25.33646,59.33938],[25.33702,59.33938],[25.33845,59.3392],[25.33954,59.33901],[25.34372,59.33803],[25.34538,59.33766]]},"properties":{"fclass":"rail"}},
{"type":"Feature","geometry":{"type":"LineString","coordinates":[[25.32211,59.3408],[25.32089,59.34116],[25.32021,59.34136],[25.31798,59.3421]]},"properties":{"fclass":"rail"}},
{"type":"Feature","geometry":{"type":"LineString","coordinates":[[25.32089,59.34116],[25.32249,59.34074],[25.32351,59.34044]]},"properties":{"fclass":"rail"}},
{"type":"Feature","geometry":{"type":"LineString","coordinates":[[25.32082,59.34112],[25.32211,59.3408],[25.32243,59.3407],[25.33391,59.33731],[25.33817,59.33604],[25.3401,59.33534]]},"properties":{"fclass":"rail"}},
{"type":"Feature","geometry":{"type":"LineString","coordinates":[[25.32228,59.34069],[25.32422,59.34001]]},"properties":{"fclass":"rail"}},
{"type":"Feature","geometry":{"type":"LineString","coordinates":[[25.32243,59.3407],[25.32351,59.34044],[25.33739,59.33633],[25.33817,59.33604]]},"properties":{"fclass":"rail"}},
{"type":"Feature","geometry":{"type":"LineString","coordinates":[[25.31842,59.34173],[25.32058,59.3412]]},"properties":{"fclass":"rail"}},
{"type":"Feature","geometry":{"type":"LineString","coordinates":[[25.32249,59.34074],[25.32338,59.34053],[25.32878,59.33893],[25.33657,59.33662],[25.33739,59.33633]]},"properties":{"fclass":"rail"}},
{"type":"Feature","geometry":{"type":"LineString","coordinates":[[25.34186,59.33482],[25.34379,59.33416]]},"properties":{"fclass":"rail"}},
{"type":"Feature","geometry":{"type":"LineString","coordinates":[[25.32992,59.33865],[25.32878,59.33893]]},"properties":{"fclass":"rail"}},
{"type":"Feature","geometry":{"type":"LineString","coordinates":[[25.62913,59.2795],[25.64718,59.27311],[25.64862,59.27255],[25.64948,59.27218],[25.6505,59.27168],[25.65199,59.27084],[25.65919,59.26658],[25.66042,59.26592],[25.66148,59.2654],[25.6637,59.26444],[25.66525,59.26384],[25.66743,59.26312],[25.66883,59.26271],[25.68866,59.25723],[25.68979,59.25695],[25.69246,59.25637],[25.69511,59.2559],[25.69651,59.2557],[25.69848,59.25544],[25.7001,59.25527],[25.70195,59.25511],[25.70478,59.25495],[25.70808,59.25487],[25.73602,59.2543],[25.77379,59.25352],[25.80315,59.25291],[25.80477,59.2529],[25.80628,59.25293],[25.80786,59.25299],[25.80963,59.25309],[25.82166,59.25409],[25.84022,59.25565],[25.85122,59.25657]]},"properties":{"fclass":"rail"}},
{"type":"Feature","geometry":{"type":"LineString","coordinates":[[25.9487,59.26417],[25.94803,59.26405],[25.94704,59.26392],[25.94635,59.26382],[25.94551,59.2637],[25.94462,59.26358],[25.94318,59.26344],[25.92979,59.26233],[25.92903,59.26229],[25.92844,59.26225],[25.92656,59.26225],[25.92578,59.26223]]},"properties":{"fclass":"rail"}},
{"type":"Feature","geometry":{"type":"LineString","coordinates":[[25.95515,59.26467],[25.95228,59.26456],[25.95008,59.26437],[25.94887,59.2642]]},"properties":{"fclass":"rail"}},
{"type":"Feature","geometry":{"type":"LineString","coordinates":[[25.95802,59.26491],[25.95515,59.26467],[25.95418,59.26458],[25.95316,59.26452],[25.95202,59.26449],[25.95093,59.26441]]},"properties":{"fclass":"rail"}},
{"type":"Feature","geometry":{"type":"LineString","coordinates":[[25.94955,59.26434],[25.95032,59.2645],[25.95114,59.26468]]},"properties":{"fclass":"rail"}},
{"type":"Feature","geometry":{"type":"LineString","coordinates":[[25.33371,59.33865],[25.33507,59.33895],[25.33619,59.33916]]},"properties":{"fclass":"rail"}},
{"type":"Feature","geometry":{"type":"LineString","coordinates":[[25.33623,59.33911],[25.33507,59.33895]]},"properties":{"fclass":"rail"}},
{"type":"Feature","geometry":{"type":"LineString","coordinates":[[25.33417,59.3388],[25.33458,59.33897],[25.33527,59.33926],[25.34057,59.342]]},"properties":{"fclass":"rail"}},
{"type":"Feature","geometry":{"type":"LineString","coordinates":[[25.34372,59.33803],[25.34219,59.33851],[25.33891,59.34015]]},"properties":{"fclass":"rail"}},
{"type":"Feature","geometry":{"type":"LineString","coordinates":[[25.33845,59.3392],[25.34034,59.33876]]},"properties":{"fclass":"rail"}},
{"type":"Feature","geometry":{"type":"LineString","coordinates":[[26.44168,59.40972],[26.4417,59.40933],[26.44212,59.40792],[26.44235,59.40748]]},"properties":{"fclass":"rail"}},
{"type":"Feature","geometry":{"type":"LineString","coordinates":[[26.43495,59.41423],[26.4347,59.41377],[26.43463,59.41333],[26.43483,59.41282],[26.43517,59.41246],[26.43568,59.41213],[26.43662,59.4118],[26.43758,59.41164],[26.43859,59.4116],[26.43946,59.41148],[26.44034,59.4112],[26.44098,59.41085],[26.44139,59.41045],[26.44168,59.40972],[26.44235,59.40748],[26.44281,59.40592]]},"properties":{"fclass":"rail"}},
{"type":"Feature","geometry":{"type":"LineString","coordinates":[[26.47612,59.45494],[26.47661,59.45556]]},"properties":{"fclass":"rail"}},
{"type":"Feature","geometry":{"type":"LineString","coordinates":[[26.47794,59.45684],[26.47761,59.45644],[26.47612,59.45494],[26.47578,59.45447],[26.47572,59.45394],[26.47583,59.45367],[26.47685,59.45233],[26.47743,59.4516],[26.4781,59.45116],[26.48039,59.45003],[26.48125,59.44964],[26.48283,59.44902],[26.48495,59.44828],[26.48794,59.44715],[26.48995,59.44632],[26.49194,59.44546],[26.4931,59.4449],[26.49532,59.44381],[26.49728,59.44272]]},"properties":{"fclass":"rail"}},
{"type":"Feature","geometry":{"type":"LineString","coordinates":[[26.47685,59.45233],[26.47719,59.45158],[26.47701,59.45111],[26.47376,59.44792],[26.47257,59.44629],[26.47204,59.44566],[26.47082,59.44445],[26.47051,59.44403],[26.46922,59.44153],[26.46913,59.44125],[26.46876,59.4385],[26.4687,59.43826],[26.46826,59.4375],[26.46683,59.43606]]},"properties":{"fclass":"rail"}},
{"type":"Feature","geometry":{"type":"LineString","coordinates":[[26.40065,59.3707],[26.40014,59.37015],[26.39875,59.36838],[26.39842,59.36787]]},"properties":{"fclass":"rail"}},
{"type":"Feature","geometry":{"type":"LineString","coordinates":[[26.40513,59.37639],[26.40373,59.3746]]},"properties":{"fclass":"rail"}},
{"type":"Feature","geometry":{"type":"LineString","coordinates":[[26.40354,59.37438],[26.40373,59.3746],[26.40394,59.37496],[26.40402,59.37541],[26.40376,59.37588],[26.40319,59.37631],[26.40053,59.3778]]},"properties":{"fclass":"rail"}},
{"type":"Feature","geometry":{"type":"LineString","coordinates":[[26.40043,59.37774],[26.40298,59.37629],[26.40334,59.37605],[26.40371,59.37561],[26.40383,59.37514],[26.40375,59.37476],[26.40354,59.37438]]},"properties":{"fclass":"rail"}},
{"type":"Feature","geometry":{"type":"LineString","coordinates":[[26.52198,59.34637],[26.52333,59.34612],[26.52528,59.3457]]},"properties":{"fclass":"rail"}},
{"type":"Feature","geometry":{"type":"LineString","coordinates":[[26.14082,59.33787],[26.14189,59.33796],[26.14619,59.3382],[26.15941,59.33889],[26.15997,59.33891],[26.16106,59.33893]]},"properties":{"fclass":"rail"}},
{"type":"Feature","geometry":{"type":"LineString","coordinates":[[26.15997,59.33891],[26.15858,59.33889],[26.14618,59.33824],[26.14291,59.33806],[26.14189,59.33796]]},"properties":{"fclass":"rail"}},
{"type":"Feature","geometry":{"type":"LineString","coordinates":[[26.13072,59.33733],[26.13041,59.33732]]},"properties":{"fclass":"rail"}},
{"type":"Feature","geometry":{"type":"LineString","coordinates":[[25.97769,59.26381],[25.97714,59.26481],[25.97709,59.26491],[25.97663,59.26595],[25.97652,59.26646],[25.97672,59.26719],[25.97701,59.26759]]},"properties":{"fclass":"rail"}},
{"type":"Feature","geometry":{"type":"LineString","coordinates":[[25.97559,59.2671],[25.97627,59.2673],[25.97704,59.26772],[25.97755,59.26806]]},"properties":{"fclass":"rail"}},
{"type":"Feature","geometry":{"type":"LineString","coordinates":[[25.97476,59.26659],[25.97388,59.26645],[25.97062,59.26639],[25.97002,59.26638]]},"properties":{"fclass":"rail"}},
{"type":"Feature","geometry":{"type":"LineString","coordinates":[[25.97062,59.26639],[25.97116,59.26638],[25.97151,59.26636],[25.97336,59.26624],[25.97459,59.2663],[25.97579,59.26663],[25.97651,59.26708],[25.97701,59.26759]]},"properties":{"fclass":"rail"}},
{"type":"Feature","geometry":{"type":"LineString","coordinates":[[25.97151,59.26636],[25.97207,59.2663],[25.97261,59.26624],[25.97324,59.26619],[25.97481,59.2662]]},"properties":{"fclass":"rail"}},
{"type":"Feature","geometry":{"type":"LineString","coordinates":[[25.97324,59.26619],[25.97467,59.26608],[25.97578,59.26582]]},"properties":{"fclass":"rail"}},
{"type":"Feature","geometry":{"type":"LineString","coordinates":[[25.97572,59.26577],[25.97461,59.26599],[25.97347,59.26614],[25.97261,59.26624]]},"properties":{"fclass":"rail"}},
{"type":"Feature","geometry":{"type":"LineString","coordinates":[[25.97347,59.26614],[25.97567,59.26573]]},"properties":{"fclass":"rail"}},
{"type":"Feature","geometry":{"type":"LineString","coordinates":[[25.97562,59.26568],[25.97473,59.26587],[25.97326,59.26611],[25.97207,59.2663]]},"properties":{"fclass":"rail"}},
{"type":"Feature","geometry":{"type":"LineString","coordinates":[[25.97326,59.26611],[25.97399,59.26594],[25.97558,59.26563]]},"properties":{"fclass":"rail"}},
{"type":"Feature","geometry":{"type":"LineString","coordinates":[[25.97399,59.26594],[25.97553,59.26558]]},"properties":{"fclass":"rail"}},
{"type":"Feature","geometry":{"type":"LineString","coordinates":[[25.9746,59.2657],[25.9731,59.26607],[25.9719,59.26628],[25.97116,59.26638]]},"properties":{"fclass":"rail"}},
{"type":"Feature","geometry":{"type":"LineString","coordinates":[[25.9719,59.26628],[25.97249,59.26615],[25.97305,59.26601],[25.97455,59.26565]]},"properties":{"fclass":"rail"}},
{"type":"Feature","geometry":{"type":"LineString","coordinates":[[25.97603,59.26523],[25.97451,59.26561]]},"properties":{"fclass":"rail"}},
{"type":"Feature","geometry":{"type":"LineString","coordinates":[[25.97249,59.26615],[25.97376,59.26573],[25.97446,59.26555]]},"properties":{"fclass":"rail"}},
{"type":"Feature","geometry":{"type":"LineString","coordinates":[[25.97413,59.26557],[25.97233,59.26602],[25.9713,59.26621],[25.97062,59.26631],[25.97009,59.26636],[25.96955,59.26635]]},"properties":{"fclass":"rail"}},
{"type":"Feature","geometry":{"type":"LineString","coordinates":[[25.9733,59.26583],[25.97262,59.26601],[25.9713,59.26621]]},"properties":{"fclass":"rail"}},
{"type":"Feature","geometry":{"type":"LineString","coordinates":[[25.97279,59.26602],[25.97133,59.26625],[25.97062,59.26631]]},"properties":{"fclass":"rail"}},
{"type":"Feature","geometry":{"type":"LineString","coordinates":[[25.97224,59.26617],[25.97143,59.26628],[25.97009,59.26636]]},"properties":{"fclass":"rail"}},
{"type":"Feature","geometry":{"type":"LineString","coordinates":[[25.91449,59.26004],[25.9154,59.2601],[25.91622,59.26006],[25.91692,59.25994],[25.91785,59.25988],[25.91928,59.25987],[25.92269,59.26017],[25.92614,59.26045]]},"properties":{"fclass":"rail"}},
{"type":"Feature","geometry":{"type":"LineString","coordinates":[[25.91785,59.25988],[25.91932,59.25995],[25.92612,59.26052]]},"properties":{"fclass":"rail"}},
{"type":"Feature","geometry":{"type":"LineString","coordinates":[[25.91599,59.26037],[25.91636,59.26047],[25.91745,59.26075],[25.91875,59.26091],[25.92653,59.26155]]},"properties":{"fclass":"rail"}},
{"type":"Feature","geometry":{"type":"LineString","coordinates":[[25.91636,59.26047],[25.91717,59.26066],[25.91812,59.26078]]},"properties":{"fclass":"rail"}},
{"type":"Feature","geometry":{"type":"LineString","coordinates":[[25.96519,59.26607],[25.96333,59.26599],[25.96,59.26572],[25.95891,59.26561],[25.95745,59.26543]]},"properties":{"fclass":"rail"}},
{"type":"Feature","geometry":{"type":"LineString","coordinates":[[25.96282,59.26588],[25.96393,59.26593]]},"properties":{"fclass":"rail"}},
{"type":"Feature","geometry":{"type":"LineString","coordinates":[[25.94715,59.26545],[25.94813,59.26584],[25.94898,59.26601],[25.94996,59.26609]]},"properties":{"fclass":"rail"}},
{"type":"Feature","geometry":{"type":"LineString","coordinates":[[25.9483,59.26537],[25.94906,59.26548]]},"properties":{"fclass":"rail"}},
{"type":"Feature","geometry":{"type":"LineString","coordinates":[[25.9454,59.26354],[25.94426,59.26331],[25.94354,59.26323],[25.93193,59.26231],[25.9285,59.26205],[25.92729,59.26204],[25.92553,59.2621]]},"properties":{"fclass":"rail"}},
{"type":"Feature","geometry":{"type":"LineString","coordinates":[[25.92729,59.26204],[25.92921,59.26213],[25.93181,59.26235],[25.94373,59.2633],[25.9454,59.26354],[25.94626,59.26371]]},"properties":{"fclass":"rail"}},
{"type":"Feature","geometry":{"type":"LineString","coordinates":[[25.94702,59.26386],[25.94626,59.26371],[25.94407,59.26339],[25.9435,59.26333],[25.92892,59.26217],[25.9267,59.26211],[25.92623,59.26212],[25.92553,59.2621],[25.92429,59.26211]]},"properties":{"fclass":"rail"}},
{"type":"Feature","geometry":{"type":"LineString","coordinates":[[25.92623,59.26212],[25.92839,59.26219],[25.93181,59.26245],[25.9435,59.26338],[25.94405,59.26343],[25.94702,59.26386],[25.9479,59.264]]},"properties":{"fclass":"rail"}},
{"type":"Feature","geometry":{"type":"LineString","coordinates":[[25.95032,59.2645],[25.95114,59.26462],[25.95247,59.26473]]},"properties":{"fclass":"rail"}},
{"type":"Feature","geometry":{"type":"LineString","coordinates":[[25.94704,59.26392],[25.93274,59.26272],[25.92859,59.26239],[25.92731,59.2623]]},"properties":{"fclass":"rail"}},
{"type":"Feature","geometry":{"type":"LineString","coordinates":[[25.92656,59.26225],[25.92731,59.2623],[25.92853,59.26233],[25.9456,59.26374],[25.94635,59.26382]]},"properties":{"fclass":"rail"}},
{"type":"Feature","geometry":{"type":"LineString","coordinates":[[25.94551,59.2637],[25.94446,59.2636],[25.93306,59.26264],[25.92966,59.26237],[25.92903,59.26229]]},"properties":{"fclass":"rail"}},
{"type":"Feature","geometry":{"type":"LineString","coordinates":[[25.94803,59.26405],[25.94734,59.26399],[25.92843,59.26242],[25.92782,59.26239],[25.92693,59.26233],[25.92658,59.26231],[25.92578,59.26223]]},"properties":{"fclass":"rail"}},
{"type":"Feature","geometry":{"type":"LineString","coordinates":[[25.92782,59.26239],[25.92847,59.26247],[25.94582,59.26391],[25.94649,59.26395],[25.94734,59.26399]]},"properties":{"fclass":"rail"}},
{"type":"Feature","geometry":{"type":"LineString","coordinates":[[25.94649,59.26395],[25.9456,59.26393],[25.94473,59.26387],[25.928,59.26248],[25.92693,59.26233]]},"properties":{"fclass":"rail"}},
{"type":"Feature","geometry":{"type":"LineString","coordinates":[[25.928,59.26248],[25.92907,59.26265],[25.93169,59.26284],[25.94436,59.26389],[25.9456,59.26393]]},"properties":{"fclass":"rail"}},
{"type":"Feature","geometry":{"type":"LineString","coordinates":[[25.92658,59.26231],[25.92547,59.26229],[25.92357,59.2624],[25.92238,59.26238]]},"properties":{"fclass":"rail"}},
{"type":"Feature","geometry":{"type":"LineString","coordinates":[[25.92204,59.26235],[25.91999,59.26227]]},"properties":{"fclass":"rail"}},
{"type":"Feature","geometry":{"type":"LineString","coordinates":[[25.91819,59.26217],[25.91963,59.26224]]},"properties":{"fclass":"rail"}},
{"type":"Feature","geometry":{"type":"LineString","coordinates":[[25.91591,59.26162],[25.91519,59.26156]]},"properties":{"fclass":"rail"}},
{"type":"Feature","geometry":{"type":"LineString","coordinates":[[25.92578,59.26223],[25.92429,59.26211],[25.92121,59.262],[25.91934,59.2619],[25.91591,59.26162]]},"properties":{"fclass":"rail"}},
{"type":"Feature","geometry":{"type":"LineString","coordinates":[[25.92437,59.26264],[25.92511,59.2627],[25.92543,59.26273],[25.92622,59.26279],[25.9297,59.26307],[25.93864,59.26381],[25.94951,59.26472],[25.95041,59.26479]]},"properties":{"fclass":"rail"}},
{"type":"Feature","geometry":{"type":"LineString","coordinates":[[25.92289,59.26257],[25.92437,59.26264]]},"properties":{"fclass":"rail"}},
{"type":"Feature","geometry":{"type":"LineString","coordinates":[[25.94725,59.26387],[25.94453,59.2633],[25.9431,59.26315],[25.9416,59.26304],[25.93197,59.26227],[25.92847,59.26199],[25.92454,59.26195],[25.92031,59.26184],[25.91934,59.26176]]},"properties":{"fclass":"rail"}},
{"type":"Feature","geometry":{"type":"LineString","coordinates":[[25.95576,59.26523],[25.96393,59.26593]]},"properties":{"fclass":"rail"}},
{"type":"Feature","geometry":{"type":"LineString","coordinates":[[25.96861,59.26636],[25.96519,59.26607]]},"properties":{"fclass":"rail"}},
{"type":"Feature","geometry":{"type":"LineString","coordinates":[[25.61674,59.2839],[25.62601,59.28061]]},"properties":{"fclass":"rail"}},
{"type":"Feature","geometry":{"type":"LineString","coordinates":[[26.09333,59.16142],[26.09329,59.16089],[26.09307,59.16007]]},"properties":{"fclass":"rail"}},
{"type":"Feature","geometry":{"type":"LineString","coordinates":[[26.09298,59.16091],[26.09245,59.15888]]},"properties":{"fclass":"rail"}},
{"type":"Feature","geometry":{"type":"LineString","coordinates":[[26.09237,59.15908],[26.09285,59.1608]]},"properties":{"fclass":"rail"}},
{"type":"Feature","geometry":{"type":"LineString","coordinates":[[26.09237,59.15908],[26.09179,59.1569],[26.09158,59.15626]]},"properties":{"fclass":"rail"}},
{"type":"Feature","geometry":{"type":"LineString","coordinates":[[26.09179,59.1569],[26.09203,59.15735]]},"properties":{"fclass":"rail"}},
{"type":"Feature","geometry":{"type":"LineString","coordinates":[[26.09274,59.16096],[26.09258,59.1604],[26.09248,59.16]]},"properties":{"fclass":"rail"}},
{"type":"Feature","geometry":{"type":"LineString","coordinates":[[25.97888,59.26892],[25.97695,59.26799],[25.97581,59.26755],[25.97432,59.26711],[25.97327,59.26687],[25.97135,59.26659],[25.96982,59.26646]]},"properties":{"fclass":"rail"}},
{"type":"Feature","geometry":{"type":"LineString","coordinates":[[25.97914,59.26906],[25.97888,59.26892]]},"properties":{"fclass":"rail"}},
{"type":"Feature","geometry":{"type":"LineString","coordinates":[[25.92686,59.26289],[25.92543,59.26273]]},"properties":{"fclass":"rail"}},
{"type":"Feature","geometry":{"type":"LineString","coordinates":[[26.38162,59.35973],[26.38303,59.35984]]},"properties":{"fclass":"rail"}},
{"type":"Feature","geometry":{"type":"LineString","coordinates":[[25.59934,59.28865],[25.60134,59.28859],[25.60315,59.28843],[25.60479,59.28816],[25.60622,59.28778],[25.60773,59.28722],[25.61067,59.28618]]},"properties":{"fclass":"rail"}},
{"type":"Feature","geometry":{"type":"LineString","coordinates":[[25.60762,59.28714],[25.60842,59.28691]]},"properties":{"fclass":"rail"}},
{"type":"Feature","geometry":{"type":"LineString","coordinates":[[25.94898,59.26472],[25.95041,59.26479]]},"properties":{"fclass":"rail"}},
{"type":"Feature","geometry":{"type":"LineString","coordinates":[[25.95405,59.26494],[25.95549,59.26495]]},"properties":{"fclass":"rail"}},
{"type":"Feature","geometry":{"type":"LineString","coordinates":[[25.95576,59.26523],[25.95715,59.2654]]},"properties":{"fclass":"rail"}},
{"type":"Feature","geometry":{"type":"LineString","coordinates":[[26.41354,59.38697],[26.41361,59.38707]]},"properties":{"fclass":"rail"}},
{"type":"Feature","geometry":{"type":"LineString","coordinates":[[26.41361,59.38707],[26.41766,59.39225],[26.42163,59.39722],[26.42484,59.40124],[26.42946,59.40723],[26.43495,59.41423],[26.43679,59.41657],[26.43742,59.4173],[26.43788,59.41777],[26.45728,59.43669],[26.47661,59.45556],[26.47794,59.45684],[26.48038,59.45929],[26.48751,59.46626],[26.48846,59.46708],[26.48944,59.46783],[26.49111,59.46896],[26.50046,59.47454]]},"properties":{"fclass":"rail"}},
{"type":"Feature","geometry":{"type":"LineString","coordinates":[[25.92851,59.26282],[25.92789,59.26283],[25.92725,59.26283]]},"properties":{"fclass":"rail"}},
{"type":"Feature","geometry":{"type":"LineString","coordinates":[[25.92726,59.26278],[25.92789,59.26283],[25.92851,59.26287]]},"properties":{"fclass":"rail"}},
{"type":"Feature","geometry":{"type":"LineString","coordinates":[[25.97721,59.26492],[25.97845,59.26529],[25.97925,59.26576],[25.98101,59.26711]]},"properties":{"fclass":"rail"}},
{"type":"Feature","geometry":{"type":"LineString","coordinates":[[25.9456,59.26481],[25.94458,59.26454],[25.94366,59.26442]]},"properties":{"fclass":"rail"}},
{"type":"Feature","geometry":{"type":"LineString","coordinates":[[26.38711,59.36041],[26.38566,59.36028]]},"properties":{"fclass":"rail"}},
{"type":"Feature","geometry":{"type":"LineString","coordinates":[[26.19174,59.07113],[26.1916,59.07126]]},"properties":{"fclass":"rail"}},
{"type":"Feature","geometry":{"type":"LineString","coordinates":[[26.04864,59.20078],[26.04811,59.20125],[26.04685,59.20265],[26.04591,59.20378],[26.04224,59.20862],[26.04196,59.20911]]},"properties":{"fclass":"rail"}},
{"type":"Feature","geometry":{"type":"LineString","coordinates":[[26.23276,59.04231],[26.23203,59.0429],[26.23103,59.04363],[26.22857,59.04533],[26.20287,59.063],[26.19882,59.06578],[26.19562,59.068],[26.1945,59.06881],[26.19332,59.06974],[26.19174,59.07113]]},"properties":{"fclass":"rail"}},
{"type":"Feature","geometry":{"type":"LineString","coordinates":[[26.09295,59.16052],[26.09281,59.15972]]},"properties":{"fclass":"rail"}},
{"type":"Feature","geometry":{"type":"LineString","coordinates":[[26.09125,59.15634],[26.09171,59.15808]]},"properties":{"fclass":"rail"}},
{"type":"Feature","geometry":{"type":"LineString","coordinates":[[26.09143,59.15653],[26.09195,59.15843]]},"properties":{"fclass":"rail"}},
{"type":"Feature","geometry":{"type":"LineString","coordinates":[[26.09176,59.15636],[26.09203,59.15735],[26.09238,59.15861]]},"properties":{"fclass":"rail"}},
{"type":"Feature","geometry":{"type":"LineString","coordinates":[[26.09243,59.15785],[26.09261,59.15842]]},"properties":{"fclass":"rail"}},
{"type":"Feature","geometry":{"type":"LineString","coordinates":[[26.09243,59.15785],[26.09222,59.15755]]},"properties":{"fclass":"rail"}},
{"type":"Feature","geometry":{"type":"LineString","coordinates":[[26.09222,59.15755],[26.09192,59.15645],[26.09188,59.15623]]},"properties":{"fclass":"rail"}},
{"type":"Feature","geometry":{"type":"LineString","coordinates":[[26.09291,59.16226],[26.09275,59.16196],[26.09252,59.16111],[26.09237,59.16058]]},"properties":{"fclass":"rail"}},
{"type":"Feature","geometry":{"type":"LineString","coordinates":[[26.35079,59.35616],[26.3504,59.35611]]},"properties":{"fclass":"rail"}},
{"type":"Feature","geometry":{"type":"LineString","coordinates":[[26.38727,59.36042],[26.38913,59.36071],[26.39024,59.36098],[26.39124,59.36128],[26.39229,59.3617],[26.39299,59.36204],[26.39407,59.3627],[26.39468,59.3632],[26.39548,59.36409],[26.39807,59.36741],[26.39842,59.36787],[26.40065,59.3707],[26.40354,59.37438]]},"properties":{"fclass":"rail"}},
{"type":"Feature","geometry":{"type":"LineString","coordinates":[[26.51282,59.34791],[26.51108,59.34806],[26.48645,59.34982],[26.46267,59.35152],[26.44383,59.35287],[26.44112,59.3531],[26.43878,59.35339],[26.43752,59.35358],[26.43532,59.35395],[26.40439,59.35934],[26.40226,59.35968],[26.39946,59.36003],[26.39673,59.36025],[26.39508,59.36034]]},"properties":{"fclass":"rail"}},
{"type":"Feature","geometry":{"type":"LineString","coordinates":[[26.38036,59.35958],[26.37537,59.35902],[26.36759,59.35812],[26.36108,59.35738],[26.36061,59.35732]]},"properties":{"fclass":"rail"}},
{"type":"Feature","geometry":{"type":"LineString","coordinates":[[26.24531,58.97039],[26.24357,58.98401]]},"properties":{"fclass":"rail"}},
{"type":"Feature","geometry":{"type":"LineString","coordinates":[[26.23289,59.0422],[26.23276,59.04231]]},"properties":{"fclass":"rail"}},
{"type":"Feature","geometry":{"type":"LineString","coordinates":[[25.62917,59.27954],[25.64722,59.27314],[25.64868,59.27258],[25.64952,59.27222],[25.65129,59.27132],[25.65925,59.26661],[25.66009,59.26615],[25.66152,59.26544],[25.66374,59.26448],[25.66606,59.26361],[25.66747,59.26316],[25.66888,59.26274],[25.68539,59.25817],[25.6889,59.25721],[25.69053,59.25682],[25.69183,59.25654],[25.69396,59.25614],[25.69675,59.2557],[25.69822,59.25551],[25.70077,59.25525],[25.7028,59.25509],[25.7058,59.25496],[25.71881,59.25469],[25.75382,59.25397],[25.78879,59.25325],[25.80316,59.25295],[25.80484,59.25294],[25.80784,59.25303],[25.80963,59.25314],[25.81239,59.25337],[25.84024,59.25569],[25.8512,59.25661]]},"properties":{"fclass":"rail"}},
{"type":"Feature","geometry":{"type":"LineString","coordinates":[[25.3257,59.33957],[25.3303,59.33821],[25.33275,59.33752],[25.33791,59.33592],[25.34028,59.33518]]},"properties":{"fclass":"rail"}},
{"type":"Feature","geometry":{"type":"LineString","coordinates":[[25.90976,59.26142],[25.91107,59.26153],[25.91963,59.26224]]},"properties":{"fclass":"rail"}},
{"type":"Feature","geometry":{"type":"LineString","coordinates":[[25.34544,59.33371],[25.38311,59.32253],[25.41074,59.31433],[25.47382,59.29556],[25.4759,59.29499],[25.47767,59.29457],[25.4787,59.29435],[25.48079,59.29396],[25.48348,59.29356],[25.48552,59.29333],[25.48801,59.29313],[25.48958,59.29305],[25.49704,59.29276],[25.50334,59.29245]]},"properties":{"fclass":"rail"}},
{"type":"Feature","geometry":{"type":"LineString","coordinates":[[25.59249,59.28884],[25.59944,59.28856],[25.60182,59.28844],[25.60265,59.28838],[25.60402,59.28818],[25.60487,59.28801],[25.60625,59.28763],[25.60762,59.28714]]},"properties":{"fclass":"rail"}},
{"type":"Feature","geometry":{"type":"LineString","coordinates":[[25.5925,59.28888],[25.59945,59.2886],[25.60096,59.28854],[25.60267,59.28842],[25.60381,59.28827],[25.60519,59.28798],[25.6065,59.28761],[25.60842,59.28691]]},"properties":{"fclass":"rail"}},
{"type":"Feature","geometry":{"type":"LineString","coordinates":[[25.50375,59.29253],[25.50848,59.29233],[25.54301,59.29093],[25.5645,59.29004],[25.5925,59.28888]]},"properties":{"fclass":"rail"}},
{"type":"Feature","geometry":{"type":"LineString","coordinates":[[25.94898,59.26472],[25.93861,59.26386],[25.92713,59.26291]]},"properties":{"fclass":"rail"}},
{"type":"Feature","geometry":{"type":"LineString","coordinates":[[25.91819,59.26217],[25.90972,59.26147]]},"properties":{"fclass":"rail"}},
{"type":"Feature","geometry":{"type":"LineString","coordinates":[[25.91963,59.26224],[25.91999,59.26227],[25.92437,59.26264]]},"properties":{"fclass":"rail"}},
{"type":"Feature","geometry":{"type":"LineString","coordinates":[[26.1916,59.07126],[26.19015,59.07273],[26.18707,59.07616],[26.18284,59.08086],[26.1751,59.08948],[26.17477,59.08985],[26.17349,59.09127],[26.16484,59.10088],[26.16039,59.10584],[26.15975,59.10661],[26.15875,59.10802],[26.15831,59.10876],[26.15645,59.11218],[26.14737,59.12883],[26.14235,59.13805],[26.14081,59.14086],[26.13979,59.14234],[26.13909,59.14318],[26.1382,59.14412]]},"properties":{"fclass":"rail"}},
{"type":"Feature","geometry":{"type":"LineString","coordinates":[[25.60842,59.28691],[25.609,59.28671]]},"properties":{"fclass":"rail"}},
{"type":"Feature","geometry":{"type":"LineString","coordinates":[[25.61004,59.28629],[25.61039,59.28616]]},"properties":{"fclass":"rail"}},
{"type":"Feature","geometry":{"type":"LineString","coordinates":[[25.609,59.28671],[25.61004,59.28629]]},"properties":{"fclass":"rail"}},
{"type":"Feature","geometry":{"type":"LineString","coordinates":[[25.61039,59.28616],[25.61116,59.28583],[25.6127,59.28525],[25.62454,59.28104],[25.62541,59.28077],[25.62601,59.28061]]},"properties":{"fclass":"rail"}},
{"type":"Feature","geometry":{"type":"LineString","coordinates":[[25.609,59.28671],[25.60973,59.28645]]},"properties":{"fclass":"rail"}},
{"type":"Feature","geometry":{"type":"LineString","coordinates":[[25.60973,59.28645],[25.61037,59.28622]]},"properties":{"fclass":"rail"}},
{"type":"Feature","geometry":{"type":"LineString","coordinates":[[25.60762,59.28714],[25.61004,59.28629]]},"properties":{"fclass":"rail"}},
{"type":"Feature","geometry":{"type":"LineString","coordinates":[[25.99329,59.27633],[25.97914,59.26906]]},"properties":{"fclass":"rail"}},
{"type":"Feature","geometry":{"type":"LineString","coordinates":[[25.92898,59.22962],[25.9294,59.22974]]},"properties":{"fclass":"rail"}},
{"type":"Feature","geometry":{"type":"LineString","coordinates":[[26.37996,59.35958],[26.38346,59.35998]]},"properties":{"fclass":"rail"}},
{"type":"Feature","geometry":{"type":"LineString","coordinates":[[26.3592,59.3573],[26.35764,59.35725],[26.35567,59.35706]]},"properties":{"fclass":"rail"}},
{"type":"Feature","geometry":{"type":"LineString","coordinates":[[26.04035,59.21125],[26.03368,59.22006],[26.0302,59.22467],[26.02919,59.22595],[26.02822,59.22698],[26.02714,59.22798],[26.02613,59.22878],[26.02477,59.22975],[26.02354,59.23051],[26.02227,59.23123],[26.02064,59.23203],[26.01448,59.23482],[26.00921,59.23723],[26.00777,59.23796],[26.00651,59.23864],[26.00551,59.23923],[26.00402,59.24018],[26.00242,59.24138],[25.99112,59.25059],[25.98881,59.25245]]},"properties":{"fclass":"rail"}},
{"type":"Feature","geometry":{"type":"LineString","coordinates":[[26.04864,59.20078],[26.04732,59.20223],[26.04593,59.20386],[26.04213,59.20889],[26.04196,59.20911],[26.04035,59.21125]]},"properties":{"fclass":"rail"}},
{"type":"Feature","geometry":{"type":"LineString","coordinates":[[26.05353,59.19622],[26.05209,59.19735],[26.05144,59.19791],[26.05029,59.19901],[26.04911,59.20028],[26.04864,59.20078]]},"properties":{"fclass":"rail"}},
{"type":"Feature","geometry":{"type":"LineString","coordinates":[[26.09777,59.16778],[26.08727,59.17364],[26.08508,59.17488],[26.08368,59.17574],[26.08019,59.1781],[26.07029,59.18481],[26.06035,59.19153],[26.05556,59.19479],[26.05353,59.19622]]},"properties":{"fclass":"rail"}},
{"type":"Feature","geometry":{"type":"LineString","coordinates":[[25.96982,59.26646],[25.96861,59.26636]]},"properties":{"fclass":"rail"}},
{"type":"Feature","geometry":{"type":"LineString","coordinates":[[25.62601,59.28061],[25.62669,59.28036],[25.62913,59.2795]]},"properties":{"fclass":"rail"}},
{"type":"Feature","geometry":{"type":"LineString","coordinates":[[25.33458,59.33897],[25.33631,59.33987]]},"properties":{"fclass":"rail"}},
{"type":"Feature","geometry":{"type":"LineString","coordinates":[[26.38036,59.35958],[26.37904,59.35939]]},"properties":{"fclass":"rail"}},
{"type":"Feature","geometry":{"type":"LineString","coordinates":[[26.35977,59.35718],[26.36061,59.35732]]},"properties":{"fclass":"rail"}},
{"type":"Feature","geometry":{"type":"LineString","coordinates":[[25.95715,59.2654],[25.95635,59.26533],[25.94898,59.26472]]},"properties":{"fclass":"rail"}},
{"type":"Feature","geometry":{"type":"LineString","coordinates":[[25.95117,59.26484],[25.95532,59.2652],[25.95576,59.26523]]},"properties":{"fclass":"rail"}},
{"type":"Feature","geometry":{"type":"LineString","coordinates":[[25.60973,59.28645],[25.61067,59.28618],[25.61248,59.28557],[25.6145,59.28485]]},"properties":{"fclass":"rail"}},
{"type":"Feature","geometry":{"type":"LineString","coordinates":[[25.95745,59.26543],[25.95715,59.2654]]},"properties":{"fclass":"rail"}},
{"type":"Feature","geometry":{"type":"LineString","coordinates":[[26.36561,59.35785],[26.36047,59.35726],[26.35977,59.35718],[26.35079,59.35616]]},"properties":{"fclass":"rail"}},
{"type":"Feature","geometry":{"type":"LineString","coordinates":[[25.95041,59.26479],[25.95117,59.26484]]},"properties":{"fclass":"rail"}},
{"type":"Feature","geometry":{"type":"LineString","coordinates":[[26.13041,59.33732],[26.12129,59.33683],[26.11931,59.33672],[26.11783,59.33653],[26.11613,59.33625],[26.11494,59.33599],[26.11352,59.33561],[26.11235,59.33523]]},"properties":{"fclass":"rail"}},
{"type":"Feature","geometry":{"type":"LineString","coordinates":[[26.16777,59.33928],[26.16106,59.33893],[26.14082,59.33787],[26.13072,59.33733]]},"properties":{"fclass":"rail"}},
{"type":"Feature","geometry":{"type":"LineString","coordinates":[[26.39508,59.36034],[26.39314,59.36039],[26.39148,59.3604],[26.3894,59.36035],[26.3877,59.36027],[26.38484,59.36004],[26.38303,59.35984],[26.38207,59.35973],[26.37904,59.35939],[26.37858,59.35933],[26.36561,59.35785]]},"properties":{"fclass":"rail"}},
{"type":"Feature","geometry":{"type":"LineString","coordinates":[[26.52528,59.34565],[26.52198,59.34637],[26.51899,59.347],[26.51607,59.34751],[26.51451,59.34772],[26.51282,59.34791]]},"properties":{"fclass":"rail"}},
{"type":"Feature","geometry":{"type":"LineString","coordinates":[[25.85147,59.25659],[25.87535,59.25858],[25.87817,59.25878],[25.88183,59.25897],[25.88475,59.25919],[25.89881,59.26036],[25.90488,59.26087],[25.90688,59.26108],[25.90976,59.26142]]},"properties":{"fclass":"rail"}},
{"type":"Feature","geometry":{"type":"LineString","coordinates":[[25.85122,59.25657],[25.85147,59.25659]]},"properties":{"fclass":"rail"}},
{"type":"Feature","geometry":{"type":"LineString","coordinates":[[25.8512,59.25661],[25.85145,59.25663]]},"properties":{"fclass":"rail"}},
{"type":"Feature","geometry":{"type":"LineString","coordinates":[[25.85145,59.25663],[25.87559,59.25864],[25.89875,59.26056],[25.90972,59.26147]]},"properties":{"fclass":"rail"}},
{"type":"Feature","geometry":{"type":"LineString","coordinates":[[26.39889,59.36775],[26.39949,59.36851]]},"properties":{"fclass":"rail"}},
{"type":"Feature","geometry":{"type":"LineString","coordinates":[[26.39877,59.3676],[26.39889,59.36775]]},"properties":{"fclass":"rail"}},
{"type":"Feature","geometry":{"type":"LineString","coordinates":[[25.97175,59.26647],[25.97249,59.2665],[25.97319,59.26655],[25.97414,59.26674]]},"properties":{"fclass":"rail"}},
{"type":"Feature","geometry":{"type":"LineString","coordinates":[[25.97414,59.26674],[25.97559,59.2671]]},"properties":{"fclass":"rail"}},
{"type":"Feature","geometry":{"type":"LineString","coordinates":[[25.97553,59.26716],[25.97627,59.26736],[25.97704,59.26772]]},"properties":{"fclass":"rail"}},
{"type":"Feature","geometry":{"type":"LineString","coordinates":[[25.97409,59.2668],[25.97553,59.26716]]},"properties":{"fclass":"rail"}},
{"type":"Feature","geometry":{"type":"LineString","coordinates":[[26.09297,59.15971],[26.09303,59.16002],[26.09295,59.16052]]},"properties":{"fclass":"rail"}},
{"type":"Feature","geometry":{"type":"LineString","coordinates":[[26.09292,59.15956],[26.09297,59.15971]]},"properties":{"fclass":"rail"}},
{"type":"Feature","geometry":{"type":"LineString","coordinates":[[26.09277,59.15957],[26.09264,59.1591]]},"properties":{"fclass":"rail"}},
{"type":"Feature","geometry":{"type":"LineString","coordinates":[[26.09281,59.15972],[26.09277,59.15957]]},"properties":{"fclass":"rail"}},
{"type":"Feature","geometry":{"type":"LineString","coordinates":[[26.09261,59.15898],[26.09259,59.15888]]},"properties":{"fclass":"rail"}},
{"type":"Feature","geometry":{"type":"LineString","coordinates":[[26.09264,59.1591],[26.09261,59.15898]]},"properties":{"fclass":"rail"}},
{"type":"Feature","geometry":{"type":"LineString","coordinates":[[26.09278,59.15909],[26.09292,59.15956]]},"properties":{"fclass":"rail"}},
{"type":"Feature","geometry":{"type":"LineString","coordinates":[[26.09274,59.15897],[26.09278,59.15909]]},"properties":{"fclass":"rail"}},
{"type":"Feature","geometry":{"type":"LineString","coordinates":[[26.09201,59.15866],[26.09195,59.15843]]},"properties":{"fclass":"rail"}},
{"type":"Feature","geometry":{"type":"LineString","coordinates":[[26.09203,59.15879],[26.09201,59.15866]]},"properties":{"fclass":"rail"}},
{"type":"Feature","geometry":{"type":"LineString","coordinates":[[26.09238,59.15861],[26.09245,59.15888]]},"properties":{"fclass":"rail"}},
{"type":"Feature","geometry":{"type":"LineString","coordinates":[[26.09266,59.15868],[26.09274,59.15897]]},"properties":{"fclass":"rail"}},
{"type":"Feature","geometry":{"type":"LineString","coordinates":[[26.09265,59.15865],[26.09266,59.15868]]},"properties":{"fclass":"rail"}},
{"type":"Feature","geometry":{"type":"LineString","coordinates":[[26.09264,59.15855],[26.09265,59.15865]]},"properties":{"fclass":"rail"}},
{"type":"Feature","geometry":{"type":"LineString","coordinates":[[26.09261,59.15842],[26.09264,59.15855]]},"properties":{"fclass":"rail"}},
{"type":"Feature","geometry":{"type":"LineString","coordinates":[[26.11708,59.15698],[26.11654,59.15728],[26.10676,59.16275],[26.10194,59.16545],[26.10125,59.16584],[26.09777,59.16778]]},"properties":{"fclass":"rail"}},
{"type":"Feature","geometry":{"type":"LineString","coordinates":[[26.0997,59.16361],[26.0985,59.16352],[26.09785,59.16336],[26.09724,59.16312],[26.0966,59.1627]]},"properties":{"fclass":"rail"}},
{"type":"Feature","geometry":{"type":"LineString","coordinates":[[25.96313,59.26552],[25.96681,59.26582]]},"properties":{"fclass":"rail"}},
{"type":"Feature","geometry":{"type":"LineString","coordinates":[[26.36267,59.35766],[26.36022,59.35738],[26.3593,59.35731]]},"properties":{"fclass":"rail"}},
{"type":"Feature","geometry":{"type":"LineString","coordinates":[[26.38346,59.35998],[26.38228,59.3598],[26.38162,59.35973],[26.38122,59.35968],[26.38036,59.35958]]},"properties":{"fclass":"rail"}},
{"type":"Feature","geometry":{"type":"LineString","coordinates":[[25.95549,59.26495],[25.9548,59.26492],[25.9528,59.26473],[25.95029,59.26445],[25.94955,59.26434],[25.94887,59.2642],[25.9487,59.26417],[25.9479,59.264],[25.94725,59.26387]]},"properties":{"fclass":"rail"}},
{"type":"Feature","geometry":{"type":"LineString","coordinates":[[25.18808,59.36454],[25.18787,59.36456]]},"properties":{"fclass":"rail"}},
{"type":"Feature","geometry":{"type":"LineString","coordinates":[[25.18889,59.3644],[25.18985,59.36426]]},"properties":{"fclass":"rail"}},
{"type":"Feature","geometry":{"type":"LineString","coordinates":[[25.96393,59.26593],[25.96445,59.26597],[25.96594,59.26608],[25.96853,59.2663],[25.96982,59.26646]]},"properties":{"fclass":"rail"}},
{"type":"Feature","geometry":{"type":"LineString","coordinates":[[25.9521,59.2642],[25.95342,59.26447],[25.95418,59.26458]]},"properties":{"fclass":"rail"}},
{"type":"Feature","geometry":{"type":"LineString","coordinates":[[25.95014,59.26454],[25.94923,59.26436],[25.9481,59.26421],[25.94514,59.26397],[25.94427,59.26394]]},"properties":{"fclass":"rail"}},
{"type":"Feature","geometry":{"type":"LineString","coordinates":[[25.92622,59.26279],[25.92725,59.26283],[25.92851,59.26287],[25.92891,59.26288]]},"properties":{"fclass":"rail"}},
{"type":"Feature","geometry":{"type":"LineString","coordinates":[[25.95238,59.26483],[25.95376,59.26493]]},"properties":{"fclass":"rail"}},
{"type":"Feature","geometry":{"type":"LineString","coordinates":[[25.96445,59.26597],[25.96673,59.26602],[25.96777,59.266]]},"properties":{"fclass":"rail"}},
{"type":"Feature","geometry":{"type":"LineString","coordinates":[[26.38827,59.3605],[26.38766,59.36041],[26.38602,59.36027],[26.38346,59.35998]]},"properties":{"fclass":"rail"}},
{"type":"Feature","geometry":{"type":"LineString","coordinates":[[26.24351,58.98515],[26.24358,58.98469],[26.24375,58.98416]]},"properties":{"fclass":"rail"}},
{"type":"Feature","geometry":{"type":"LineString","coordinates":[[25.91934,59.26176],[25.91833,59.26153],[25.91776,59.2613],[25.91683,59.26073],[25.91599,59.26037],[25.91521,59.26015],[25.91449,59.26004],[25.91165,59.25964]]},"properties":{"fclass":"rail"}},
{"type":"Feature","geometry":{"type":"LineString","coordinates":[[25.9431,59.26315],[25.94206,59.26302],[25.93747,59.26266],[25.93703,59.2626],[25.93598,59.26233],[25.93537,59.26209]]},"properties":{"fclass":"rail"}},
{"type":"Feature","geometry":{"type":"LineString","coordinates":[[25.94638,59.26504],[25.94569,59.26484],[25.9456,59.26481]]},"properties":{"fclass":"rail"}},
{"type":"Feature","geometry":{"type":"LineString","coordinates":[[25.96855,59.26626],[25.96781,59.26619],[25.96751,59.26617]]},"properties":{"fclass":"rail"}},
{"type":"Feature","geometry":{"type":"LineString","coordinates":[[25.96985,59.26624],[25.96855,59.26626]]},"properties":{"fclass":"rail"}},
{"type":"Feature","geometry":{"type":"LineString","coordinates":[[25.96855,59.26626],[25.96931,59.26634]]},"properties":{"fclass":"rail"}},
{"type":"Feature","geometry":{"type":"LineString","coordinates":[[25.96931,59.26634],[25.96955,59.26635]]},"properties":{"fclass":"rail"}},
{"type":"Feature","geometry":{"type":"LineString","coordinates":[[25.97434,59.26518],[25.97507,59.26501]]},"properties":{"fclass":"rail"}},
{"type":"Feature","geometry":{"type":"LineString","coordinates":[[25.97812,59.26333],[25.97769,59.26381]]},"properties":{"fclass":"rail"}},
{"type":"Feature","geometry":{"type":"LineString","coordinates":[[25.97701,59.26759],[25.97755,59.26806]]},"properties":{"fclass":"rail"}},
{"type":"Feature","geometry":{"type":"LineString","coordinates":[[25.96955,59.26635],[25.97002,59.26638],[25.97039,59.26641],[25.97149,59.26652]]},"properties":{"fclass":"rail"}},
{"type":"Feature","geometry":{"type":"LineString","coordinates":[[25.97794,59.26835],[25.97887,59.26885]]},"properties":{"fclass":"rail"}},
{"type":"Feature","geometry":{"type":"LineString","coordinates":[[25.97755,59.26806],[25.97794,59.26835]]},"properties":{"fclass":"rail"}},
{"type":"Feature","geometry":{"type":"LineString","coordinates":[[25.96681,59.26582],[25.9675,59.26585]]},"properties":{"fclass":"rail"}},
{"type":"Feature","geometry":{"type":"LineString","coordinates":[[25.32992,59.33865],[25.33065,59.33847]]},"properties":{"fclass":"rail"}},
{"type":"Feature","geometry":{"type":"LineString","coordinates":[[26.3593,59.35731],[26.3592,59.3573]]},"properties":{"fclass":"rail"}},
{"type":"Feature","geometry":{"type":"LineString","coordinates":[[26.36679,59.35823],[26.36598,59.3582]]},"properties":{"fclass":"rail"}},
{"type":"Feature","geometry":{"type":"LineString","coordinates":[[26.37489,59.35871],[26.37367,59.35854]]},"properties":{"fclass":"rail"}},
{"type":"Feature","geometry":{"type":"LineString","coordinates":[[26.37367,59.35854],[26.37315,59.35849]]},"properties":{"fclass":"rail"}},
{"type":"Feature","geometry":{"type":"LineString","coordinates":[[26.37585,59.35888],[26.37489,59.35871]]},"properties":{"fclass":"rail"}},
{"type":"Feature","geometry":{"type":"LineString","coordinates":[[26.3788,59.35923],[26.37821,59.35919]]},"properties":{"fclass":"rail"}},
{"type":"Feature","geometry":{"type":"LineString","coordinates":[[26.38153,59.35955],[26.38028,59.35947]]},"properties":{"fclass":"rail"}},
{"type":"Feature","geometry":{"type":"LineString","coordinates":[[26.38602,59.36027],[26.38711,59.36041],[26.38727,59.36042]]},"properties":{"fclass":"rail"}},
{"type":"Feature","geometry":{"type":"LineString","coordinates":[[26.39807,59.36741],[26.39827,59.36778]]},"properties":{"fclass":"rail"}},
{"type":"Feature","geometry":{"type":"LineString","coordinates":[[26.39941,59.36992],[26.39968,59.37043]]},"properties":{"fclass":"rail"}},
{"type":"Feature","geometry":{"type":"LineString","coordinates":[[26.39827,59.36778],[26.3985,59.36819]]},"properties":{"fclass":"rail"}},
{"type":"Feature","geometry":{"type":"LineString","coordinates":[[25.97498,59.26721],[25.97599,59.26746],[25.97657,59.26765],[25.9776,59.26815],[25.97766,59.26818]]},"properties":{"fclass":"rail"}},
{"type":"Feature","geometry":{"type":"LineString","coordinates":[[25.97315,59.26677],[25.97501,59.26716]]},"properties":{"fclass":"rail"}},
{"type":"Feature","geometry":{"type":"LineString","coordinates":[[25.97149,59.26652],[25.97315,59.26677]]},"properties":{"fclass":"rail"}},
{"type":"Feature","geometry":{"type":"LineString","coordinates":[[25.97766,59.26818],[25.97794,59.26835]]},"properties":{"fclass":"rail"}},
{"type":"Feature","geometry":{"type":"LineString","coordinates":[[26.10124,59.16351],[26.0997,59.16361]]},"properties":{"fclass":"rail"}},
{"type":"Feature","geometry":{"type":"LineString","coordinates":[[26.10015,59.16368],[26.0999,59.16372]]},"properties":{"fclass":"rail"}},
{"type":"Feature","geometry":{"type":"LineString","coordinates":[[26.39901,59.36915],[26.39941,59.36992]]},"properties":{"fclass":"rail"}},
{"type":"Feature","geometry":{"type":"LineString","coordinates":[[25.97446,59.26555],[25.97597,59.26518]]},"properties":{"fclass":"rail"}},
{"type":"Feature","geometry":{"type":"LineString","coordinates":[[25.97451,59.26561],[25.97305,59.26601]]},"properties":{"fclass":"rail"}},
{"type":"Feature","geometry":{"type":"LineString","coordinates":[[25.97455,59.26565],[25.97608,59.26528]]},"properties":{"fclass":"rail"}},
{"type":"Feature","geometry":{"type":"LineString","coordinates":[[25.97611,59.26533],[25.9746,59.2657]]},"properties":{"fclass":"rail"}},
{"type":"Feature","geometry":{"type":"LineString","coordinates":[[25.97553,59.26558],[25.97623,59.26542]]},"properties":{"fclass":"rail"}},
{"type":"Feature","geometry":{"type":"LineString","coordinates":[[25.97558,59.26563],[25.97628,59.26547]]},"properties":{"fclass":"rail"}},
{"type":"Feature","geometry":{"type":"LineString","coordinates":[[25.97634,59.26552],[25.97562,59.26568]]},"properties":{"fclass":"rail"}},
{"type":"Feature","geometry":{"type":"LineString","coordinates":[[25.97567,59.26573],[25.97639,59.26556]]},"properties":{"fclass":"rail"}},
{"type":"Feature","geometry":{"type":"LineString","coordinates":[[25.97644,59.26561],[25.97572,59.26577]]},"properties":{"fclass":"rail"}},
{"type":"Feature","geometry":{"type":"LineString","coordinates":[[25.97578,59.26582],[25.97647,59.26566]]},"properties":{"fclass":"rail"}},
{"type":"Feature","geometry":{"type":"LineString","coordinates":[[25.94982,59.2655],[25.95177,59.26566]]},"properties":{"fclass":"rail"}},
{"type":"Feature","geometry":{"type":"LineString","coordinates":[[25.94996,59.26609],[25.95105,59.26618]]},"properties":{"fclass":"rail"}},
{"type":"Feature","geometry":{"type":"LineString","coordinates":[[25.95151,59.26408],[25.9521,59.2642]]},"properties":{"fclass":"rail"}},
{"type":"Feature","geometry":{"type":"LineString","coordinates":[[25.98881,59.25245],[25.98554,59.25514],[25.9846,59.25605],[25.98206,59.25885]]},"properties":{"fclass":"rail"}},
{"type":"Feature","geometry":{"type":"LineString","coordinates":[[25.98206,59.25885],[25.97851,59.26278],[25.97796,59.26328]]},"properties":{"fclass":"rail"}},
{"type":"Feature","geometry":{"type":"LineString","coordinates":[[26.24228,58.99398],[26.23991,59.01259],[26.23825,59.02556],[26.23774,59.02959],[26.23702,59.03518],[26.23687,59.03608],[26.23664,59.03693],[26.23632,59.03775],[26.23589,59.03862],[26.23547,59.03931],[26.23468,59.04039],[26.23391,59.04123],[26.23289,59.0422]]},"properties":{"fclass":"rail"}},
{"type":"Feature","geometry":{"type":"LineString","coordinates":[[26.24357,58.98401],[26.24351,58.98444],[26.24233,58.99358],[26.24228,58.99398]]},"properties":{"fclass":"rail"}},
{"type":"Feature","geometry":{"type":"LineString","coordinates":[[26.13811,59.14421],[26.13728,59.14497],[26.13636,59.14573],[26.13506,59.14668],[26.13334,59.14777],[26.1273,59.1512],[26.12166,59.1544],[26.11708,59.15698]]},"properties":{"fclass":"rail"}},
{"type":"Feature","geometry":{"type":"LineString","coordinates":[[26.1382,59.14412],[26.13811,59.14421]]},"properties":{"fclass":"rail"}}
]}