{"type":"FeatureCollection", "features": [
{"type":"Feature","geometry":{"type":"LineString","coordinates":[[26.36392,59.34799],[26.36471,59.3473]]},"properties":{"ref":"88"}},
{"type":"Feature","geometry":{"type":"LineString","coordinates":[[26.38553,59.3123],[26.3861,59.31198],[26.38839,59.31102],[26.39046,59.31021],[26.39228,59.30953],[26.39536,59.30849],[26.39763,59.30764],[26.3999,59.3067],[26.40199,59.30573],[26.40403,59.30472],[26.4046,59.30436],[26.40507,59.30396],[26.40539,59.30355],[26.40568,59.30303],[26.40658,59.3004],[26.40853,59.29444],[26.40872,59.29364],[26.40889,59.29183]]},"properties":{"ref":"21"}},
{"type":"Feature","geometry":{"type":"LineString","coordinates":[[26.37694,59.34212],[26.37859,59.34153],[26.38009,59.34087],[26.38314,59.33946],[26.38511,59.33859]]},"properties":{"ref":"88"}},
{"type":"Feature","geometry":{"type":"LineString","coordinates":[[26.36028,59.33635],[26.36103,59.3347],[26.36161,59.33378]]},"properties":{"ref":"21"}},
{"type":"Feature","geometry":{"type":"LineString","coordinates":[[25.94302,59.45442],[25.94411,59.45313]]},"properties":{"ref":"24"}},
{"type":"Feature","geometry":{"type":"LineString","coordinates":[[26.36081,59.34829],[26.36148,59.3477]]},"properties":{"ref":"88"}},
{"type":"Feature","geometry":{"type":"LineString","coordinates":[[26.34993,59.34963],[26.34994,59.34939],[26.34968,59.34904],[26.34972,59.34864],[26.35001,59.34832]]},"properties":{"ref":""}},
{"type":"Feature","geometry":{"type":"LineString","coordinates":[[26.35001,59.34832],[26.34989,59.34899],[26.35021,59.34952],[26.35016,59.34966]]},"properties":{"ref":"22"}},
{"type":"Feature","geometry":{"type":"LineString","coordinates":[[26.34858,59.34234],[26.34862,59.34325],[26.34879,59.34433],[26.34893,59.34471],[26.34921,59.34511],[26.35015,59.34606],[26.35041,59.3464],[26.35056,59.34682],[26.35056,59.34715],[26.35034,59.34782],[26.35001,59.34832]]},"properties":{"ref":"22"}},
{"type":"Feature","geometry":{"type":"LineString","coordinates":[[26.34876,59.33682],[26.34784,59.33537],[26.3478,59.33502],[26.34775,59.3328],[26.34801,59.33239],[26.34857,59.33199],[26.34951,59.33156]]},"properties":{"ref":"22"}},
{"type":"Feature","geometry":{"type":"LineString","coordinates":[[26.35002,59.32627],[26.34992,59.3268]]},"properties":{"ref":"22"}},
{"type":"Feature","geometry":{"type":"LineString","coordinates":[[25.63831,59.46303],[25.63812,59.46259],[25.63774,59.46248],[25.6369,59.4624]]},"properties":{"ref":""}},
{"type":"Feature","geometry":{"type":"LineString","coordinates":[[25.64029,59.46247],[25.63884,59.46254],[25.63849,59.46272],[25.63831,59.46303]]},"properties":{"ref":""}},
{"type":"Feature","geometry":{"type":"LineString","coordinates":[[26.25489,59.13238],[26.254,59.13147]]},"properties":{"ref":"22"}},
{"type":"Feature","geometry":{"type":"LineString","coordinates":[[26.23858,59.06547],[26.23813,59.0645],[26.23701,59.06259],[26.23584,59.06051],[26.23547,59.05975],[26.23518,59.059],[26.2348,59.05768],[26.23446,59.05484],[26.23444,59.05404],[26.23456,59.05351],[26.23484,59.05294],[26.23536,59.05225],[26.23817,59.04891],[26.23852,59.04826],[26.23872,59.04749],[26.23892,59.04633],[26.24001,59.0392],[26.23995,59.03857],[26.2395,59.03755],[26.23831,59.03514],[26.23805,59.03426],[26.23788,59.03345],[26.23785,59.0326],[26.23792,59.0313],[26.23814,59.02991],[26.2383,59.0294],[26.23907,59.02847]]},"properties":{"ref":"22"}},
{"type":"Feature","geometry":{"type":"LineString","coordinates":[[26.26368,58.9835],[26.26497,58.98202],[26.26564,58.98122],[26.26628,58.98033],[26.26655,58.97985],[26.26688,58.97889],[26.26703,58.97767],[26.26708,58.97561],[26.26732,58.97442],[26.26779,58.97363],[26.26872,58.97263],[26.26948,58.97203],[26.27035,58.97149],[26.27206,58.97054]]},"properties":{"ref":"22"}},
{"type":"Feature","geometry":{"type":"LineString","coordinates":[[26.34901,59.32534],[26.34949,59.32582]]},"properties":{"ref":"22"}},
{"type":"Feature","geometry":{"type":"LineString","coordinates":[[26.26166,59.22901],[26.2623,59.22812],[26.26366,59.2264]]},"properties":{"ref":"22"}},
{"type":"Feature","geometry":{"type":"LineString","coordinates":[[26.38511,59.33859],[26.38683,59.33784],[26.38853,59.33725],[26.39051,59.33662]]},"properties":{"ref":"88"}},
{"type":"Feature","geometry":{"type":"LineString","coordinates":[[26.35016,59.34966],[26.35153,59.34986],[26.35279,59.35028]]},"properties":{"ref":"22"}},
{"type":"Feature","geometry":{"type":"LineString","coordinates":[[26.36793,59.34568],[26.36813,59.34561]]},"properties":{"ref":""}},
{"type":"Feature","geometry":{"type":"LineString","coordinates":[[26.37247,59.34376],[26.37452,59.34291],[26.37615,59.34235],[26.37665,59.34222]]},"properties":{"ref":"88"}},
{"type":"Feature","geometry":{"type":"LineString","coordinates":[[26.30147,59.28546],[26.29916,59.28395]]},"properties":{"ref":"22"}},
{"type":"Feature","geometry":{"type":"LineString","coordinates":[[26.34085,59.41662],[26.34015,59.41654],[26.33965,59.41642],[26.3396,59.41613]]},"properties":{"ref":"20"}},
{"type":"Feature","geometry":{"type":"LineString","coordinates":[[26.34015,59.41654],[26.33883,59.41644],[26.33774,59.41644],[26.33593,59.41655]]},"properties":{"ref":""}},
{"type":"Feature","geometry":{"type":"LineString","coordinates":[[26.34858,59.34234],[26.34863,59.34173],[26.34897,59.34019],[26.34892,59.33899],[26.34883,59.33839],[26.34876,59.33682]]},"properties":{"ref":"22"}},
{"type":"Feature","geometry":{"type":"LineString","coordinates":[[26.35707,59.35135],[26.35924,59.3496]]},"properties":{"ref":"88"}},
{"type":"Feature","geometry":{"type":"LineString","coordinates":[[26.36352,59.34834],[26.36294,59.34887]]},"properties":{"ref":"88"}},
{"type":"Feature","geometry":{"type":"LineString","coordinates":[[26.35968,59.34041],[26.35956,59.34006],[26.35896,59.33909],[26.35862,59.33831]]},"properties":{"ref":"21"}},
{"type":"Feature","geometry":{"type":"LineString","coordinates":[[26.36161,59.33378],[26.36303,59.33184],[26.36329,59.33142],[26.3638,59.3282]]},"properties":{"ref":"21"}},
{"type":"Feature","geometry":{"type":"LineString","coordinates":[[26.35951,59.34144],[26.35953,59.34129]]},"properties":{"ref":"21"}},
{"type":"Feature","geometry":{"type":"LineString","coordinates":[[26.35576,59.35088],[26.35707,59.35135]]},"properties":{"ref":"88"}},
{"type":"Feature","geometry":{"type":"LineString","coordinates":[[26.35963,59.34356],[26.35956,59.34474],[26.35949,59.34703]]},"properties":{"ref":"21"}},
{"type":"Feature","geometry":{"type":"LineString","coordinates":[[26.35916,59.34697],[26.35949,59.34703]]},"properties":{"ref":""}},
{"type":"Feature","geometry":{"type":"LineString","coordinates":[[25.19108,59.43439],[25.19091,59.43514]]},"properties":{"ref":"13"}},
{"type":"Feature","geometry":{"type":"LineString","coordinates":[[25.94243,59.45512],[25.94302,59.45442]]},"properties":{"ref":"24"}},
{"type":"Feature","geometry":{"type":"LineString","coordinates":[[26.48347,59.47447],[26.47938,59.4691],[26.4789,59.46856],[26.47802,59.46778],[26.47642,59.4668],[26.47322,59.465],[26.47193,59.46419],[26.47069,59.46334],[26.46553,59.45949],[26.46404,59.45866],[26.46258,59.45803],[26.45941,59.45673],[26.45849,59.45639],[26.45748,59.45609],[26.45662,59.4559],[26.45458,59.45564],[26.45076,59.4553],[26.44007,59.45433],[26.43504,59.45374],[26.43265,59.4534],[26.42759,59.45261],[26.42416,59.45204],[26.42246,59.45168],[26.42106,59.45134],[26.41897,59.45077],[26.41685,59.45007],[26.41061,59.44779],[26.40996,59.44751],[26.40573,59.44594],[26.3977,59.44292],[26.39094,59.44045],[26.38797,59.43936],[26.38366,59.43797],[26.38073,59.43705]]},"properties":{"ref":"20"}},
{"type":"Feature","geometry":{"type":"LineString","coordinates":[[25.96279,59.26961],[25.96459,59.26838],[25.96508,59.26686],[25.96544,59.26599],[25.96555,59.26554]]},"properties":{"ref":"24"}},
{"type":"Feature","geometry":{"type":"LineString","coordinates":[[25.18897,59.44192],[25.18753,59.4411]]},"properties":{"ref":""}},
{"type":"Feature","geometry":{"type":"LineString","coordinates":[[25.33269,59.38717],[25.33496,59.38754],[25.33639,59.38772],[25.33727,59.38779],[25.33952,59.38792],[25.34089,59.38795],[25.34234,59.38792],[25.34478,59.38777],[25.35244,59.3872],[25.35711,59.38686],[25.35904,59.38675],[25.36077,59.38669],[25.36407,59.38666],[25.3671,59.38669],[25.3761,59.38681],[25.38225,59.38688],[25.38477,59.3868],[25.38697,59.38663],[25.3887,59.38643],[25.39012,59.38622],[25.39252,59.38575],[25.39418,59.38535],[25.39559,59.38495],[25.39652,59.38465],[25.39789,59.38415],[25.39947,59.38349],[25.40318,59.38172],[25.40545,59.38069],[25.40681,59.38016],[25.40799,59.37977],[25.40932,59.37936],[25.41045,59.37907],[25.41199,59.37871],[25.41359,59.3784],[25.41556,59.37811],[25.41786,59.37786],[25.42001,59.37774],[25.42136,59.37771],[25.42341,59.37772],[25.44454,59.37803],[25.4468,59.37809],[25.44941,59.37821],[25.45175,59.37836],[25.45578,59.37872],[25.46463,59.3797],[25.4679,59.38005],[25.47318,59.38059],[25.47494,59.38075],[25.47776,59.38098],[25.48033,59.38109],[25.48309,59.38111],[25.48469,59.38107],[25.48695,59.38095],[25.48931,59.38075],[25.49208,59.38042],[25.4937,59.38017],[25.49608,59.37971],[25.501,59.37865],[25.50886,59.37691],[25.52605,59.37312],[25.5283,59.37257],[25.5313,59.37176],[25.53458,59.37084],[25.53726,59.37013],[25.54038,59.36942],[25.54294,59.36893],[25.54517,59.36857],[25.54728,59.36828],[25.55317,59.36756],[25.55525,59.36727],[25.55641,59.36704],[25.55898,59.36646],[25.56132,59.36577],[25.56286,59.36524],[25.56401,59.36478],[25.56604,59.36378],[25.56722,59.36312],[25.56798,59.36262],[25.57042,59.36089],[25.57169,59.36013],[25.57293,59.35947],[25.57479,59.35855],[25.57675,59.35773],[25.57863,59.35702],[25.57956,59.3567],[25.58116,59.35621],[25.58348,59.35561],[25.5856,59.35515],[25.58809,59.3547],[25.59333,59.35381],[25.59593,59.35332],[25.59986,59.35255],[25.60952,59.35045],[25.61281,59.34969],[25.61563,59.349],[25.61878,59.34818],[25.62105,59.34755],[25.6233,59.3469],[25.62709,59.34573],[25.62848,59.34528],[25.63065,59.34447],[25.63296,59.34349],[25.6344,59.34282],[25.63564,59.34217],[25.63692,59.34145],[25.6389,59.34019],[25.64024,59.33923],[25.64143,59.33831],[25.64234,59.33746],[25.64407,59.33571],[25.64488,59.33484],[25.64598,59.33351],[25.64658,59.33257],[25.64739,59.33116],[25.64858,59.32876],[25.64951,59.32629],[25.65004,59.32445],[25.65032,59.32334],[25.6506,59.32184],[25.65074,59.32058],[25.65081,59.31951],[25.65078,59.31765],[25.65073,59.31677],[25.65062,59.31566],[25.64982,59.31144],[25.6495,59.30946],[25.64922,59.30853],[25.64882,59.30797],[25.64831,59.30753],[25.64783,59.30724],[25.64557,59.30611],[25.64454,59.30548],[25.64379,59.30486],[25.6429,59.3038],[25.64253,59.30345],[25.6418,59.30303],[25.63878,59.30191],[25.63612,59.30075],[25.63521,59.30041],[25.63375,59.30003],[25.63259,59.29979],[25.63121,59.29973],[25.62684,59.29979],[25.62464,59.29968]]},"properties":{"ref":"13"}},
{"type":"Feature","geometry":{"type":"LineString","coordinates":[[25.60696,59.29116],[25.60668,59.29065],[25.60613,59.28998],[25.60598,59.28966],[25.60602,59.28939],[25.60627,59.28905],[25.60726,59.28806],[25.60733,59.28782]]},"properties":{"ref":"13"}},
{"type":"Feature","geometry":{"type":"LineString","coordinates":[[25.63831,59.46303],[25.63809,59.46407]]},"properties":{"ref":"85"}},
{"type":"Feature","geometry":{"type":"LineString","coordinates":[[25.19054,59.43646],[25.19029,59.43691],[25.18958,59.43755],[25.18773,59.43879],[25.18724,59.43918],[25.18694,59.4396],[25.18687,59.44031]]},"properties":{"ref":""}},
{"type":"Feature","geometry":{"type":"LineString","coordinates":[[25.19108,59.43439],[25.19154,59.43226]]},"properties":{"ref":"13"}},
{"type":"Feature","geometry":{"type":"LineString","coordinates":[[25.19091,59.43514],[25.19072,59.43604],[25.19054,59.43646]]},"properties":{"ref":"13"}},
{"type":"Feature","geometry":{"type":"LineString","coordinates":[[25.1865,59.43842],[25.18669,59.43958],[25.18687,59.44031]]},"properties":{"ref":""}},
{"type":"Feature","geometry":{"type":"LineString","coordinates":[[25.31338,59.34511],[25.31037,59.34247],[25.30995,59.34202],[25.30946,59.34109],[25.30944,59.34067],[25.30963,59.33997],[25.31219,59.3346],[25.31259,59.33387],[25.31322,59.33311],[25.31402,59.33241],[25.31492,59.33174],[25.31596,59.33117],[25.31697,59.33072],[25.31804,59.3303],[25.32053,59.32939],[25.32354,59.32824],[25.33086,59.32519]]},"properties":{"ref":"12"}},
{"type":"Feature","geometry":{"type":"LineString","coordinates":[[25.94281,59.25739],[25.94258,59.25789]]},"properties":{"ref":""}},
{"type":"Feature","geometry":{"type":"LineString","coordinates":[[25.96338,59.26148],[25.96484,59.2605],[25.96776,59.25857],[25.96903,59.2577],[25.97117,59.25631],[25.97187,59.25581]]},"properties":{"ref":"24"}},
{"type":"Feature","geometry":{"type":"LineString","coordinates":[[25.81897,59.09799],[25.81653,59.10037],[25.81469,59.10192],[25.81302,59.1031],[25.81001,59.10469],[25.80735,59.10596],[25.80257,59.10821],[25.79919,59.10984],[25.79773,59.11073],[25.79673,59.11153],[25.79602,59.11219],[25.79476,59.11383],[25.79378,59.11528],[25.79281,59.11657],[25.79201,59.11748],[25.791,59.1185],[25.78944,59.12015],[25.78704,59.12253],[25.78606,59.12355],[25.78509,59.1245],[25.7786,59.13105],[25.77364,59.13622],[25.76994,59.1395]]},"properties":{"ref":"39"}},
{"type":"Feature","geometry":{"type":"LineString","coordinates":[[25.87817,59.04821],[25.87917,59.04886],[25.88014,59.04957],[25.88245,59.05145],[25.8828,59.0518],[25.88307,59.0523]]},"properties":{"ref":"39"}},
{"type":"Feature","geometry":{"type":"LineString","coordinates":[[26.33488,59.35894],[26.33459,59.35964],[26.33449,59.36003],[26.33451,59.36063]]},"properties":{"ref":"23"}},
{"type":"Feature","geometry":{"type":"LineString","coordinates":[[26.3351,59.3578],[26.33511,59.3584],[26.33492,59.35887]]},"properties":{"ref":"23"}},
{"type":"Feature","geometry":{"type":"LineString","coordinates":[[26.33451,59.36063],[26.33458,59.36089]]},"properties":{"ref":"23"}},
{"type":"Feature","geometry":{"type":"LineString","coordinates":[[26.36132,59.35025],[26.36007,59.35131]]},"properties":{"ref":""}},
{"type":"Feature","geometry":{"type":"LineString","coordinates":[[26.34912,59.32595],[26.34901,59.32534]]},"properties":{"ref":"22"}},
{"type":"Feature","geometry":{"type":"LineString","coordinates":[[26.34992,59.3268],[26.34979,59.3265],[26.34956,59.32637]]},"properties":{"ref":"22"}},
{"type":"Feature","geometry":{"type":"LineString","coordinates":[[26.34992,59.3268],[26.34997,59.32709],[26.34981,59.3282],[26.34972,59.33096],[26.34967,59.33139],[26.34951,59.33156]]},"properties":{"ref":"22"}},
{"type":"Feature","geometry":{"type":"LineString","coordinates":[[26.3598,59.34722],[26.3593,59.34713]]},"properties":{"ref":""}},
{"type":"Feature","geometry":{"type":"LineString","coordinates":[[26.36148,59.3477],[26.3598,59.34722]]},"properties":{"ref":""}},
{"type":"Feature","geometry":{"type":"LineString","coordinates":[[26.35923,59.34473],[26.35956,59.34474]]},"properties":{"ref":""}},
{"type":"Feature","geometry":{"type":"LineString","coordinates":[[25.94258,59.25789],[25.94264,59.25883],[25.94277,59.25904],[25.94354,59.25941],[25.94865,59.26118],[25.95143,59.26216],[25.95337,59.26282],[25.95779,59.26439],[25.95952,59.26498],[25.96036,59.26505],[25.96106,59.26488]]},"properties":{"ref":""}},
{"type":"Feature","geometry":{"type":"LineString","coordinates":[[25.94258,59.25789],[25.94253,59.25738]]},"properties":{"ref":""}},
{"type":"Feature","geometry":{"type":"LineString","coordinates":[[25.96172,59.26486],[25.96166,59.26487]]},"properties":{"ref":""}},
{"type":"Feature","geometry":{"type":"LineString","coordinates":[[25.96158,59.26485],[25.96106,59.26488]]},"properties":{"ref":""}},
{"type":"Feature","geometry":{"type":"LineString","coordinates":[[25.96245,59.26435],[25.96327,59.26352],[25.96349,59.26342]]},"properties":{"ref":""}},
{"type":"Feature","geometry":{"type":"LineString","coordinates":[[25.96106,59.26488],[25.96153,59.26473]]},"properties":{"ref":""}},
{"type":"Feature","geometry":{"type":"LineString","coordinates":[[25.96245,59.26435],[25.96185,59.26478]]},"properties":{"ref":""}},
{"type":"Feature","geometry":{"type":"LineString","coordinates":[[25.76181,59.18073],[25.76161,59.18095],[25.76166,59.1812]]},"properties":{"ref":""}},
{"type":"Feature","geometry":{"type":"LineString","coordinates":[[26.33492,59.35887],[26.33501,59.3583],[26.33485,59.3578]]},"properties":{"ref":""}},
{"type":"Feature","geometry":{"type":"LineString","coordinates":[[26.35924,59.3496],[26.35991,59.34909],[26.36081,59.34829]]},"properties":{"ref":"88"}},
{"type":"Feature","geometry":{"type":"LineString","coordinates":[[26.31553,59.38707],[26.31314,59.38989],[26.31246,59.39079],[26.30939,59.39517],[26.30798,59.39715],[26.30604,59.39945],[26.3034,59.40215],[26.30215,59.40335],[26.29893,59.4061],[26.29496,59.40944],[26.29438,59.41009],[26.29401,59.41059],[26.29254,59.41283],[26.29216,59.41327],[26.2913,59.41399],[26.28943,59.41522],[26.2825,59.41968]]},"properties":{"ref":"23"}},
{"type":"Feature","geometry":{"type":"LineString","coordinates":[[25.93771,59.45552],[25.93807,59.4558],[25.93857,59.45606],[25.93913,59.45623],[25.93986,59.45631],[25.9407,59.45625],[25.94135,59.45604],[25.94184,59.45578],[25.94243,59.45512]]},"properties":{"ref":"24"}},
{"type":"Feature","geometry":{"type":"LineString","coordinates":[[26.35916,59.34697],[26.35923,59.34473]]},"properties":{"ref":"21"}},
{"type":"Feature","geometry":{"type":"LineString","coordinates":[[26.35394,59.35053],[26.35576,59.35088]]},"properties":{"ref":"22"}},
{"type":"Feature","geometry":{"type":"LineString","coordinates":[[26.36653,59.43065],[26.36559,59.4299],[26.36019,59.42558],[26.35683,59.423],[26.35495,59.42162],[26.35393,59.4211],[26.3519,59.42033],[26.34785,59.41889]]},"properties":{"ref":"20"}},
{"type":"Feature","geometry":{"type":"LineString","coordinates":[[26.38073,59.43705],[26.3802,59.43688]]},"properties":{"ref":"20"}},
{"type":"Feature","geometry":{"type":"LineString","coordinates":[[26.33458,59.36089],[26.33492,59.36154],[26.33578,59.36287]]},"properties":{"ref":"23"}},
{"type":"Feature","geometry":{"type":"LineString","coordinates":[[26.33438,59.37135],[26.33389,59.37195],[26.33308,59.37265],[26.32839,59.37601],[26.32284,59.37994]]},"properties":{"ref":"23"}},
{"type":"Feature","geometry":{"type":"LineString","coordinates":[[25.1865,59.43842],[25.18572,59.43848],[25.18468,59.43846],[25.18393,59.43838]]},"properties":{"ref":"13"}},
{"type":"Feature","geometry":{"type":"LineString","coordinates":[[25.18753,59.4411],[25.18657,59.44059],[25.18389,59.43909]]},"properties":{"ref":""}},
{"type":"Feature","geometry":{"type":"LineString","coordinates":[[25.19054,59.43646],[25.19009,59.437],[25.18944,59.43749],[25.18845,59.43797],[25.18754,59.43824],[25.1865,59.43842]]},"properties":{"ref":"13"}},
{"type":"Feature","geometry":{"type":"LineString","coordinates":[[25.19154,59.43226],[25.19172,59.4314],[25.19207,59.43046]]},"properties":{"ref":"13"}},
{"type":"Feature","geometry":{"type":"LineString","coordinates":[[25.96167,59.26469],[25.96195,59.26463],[25.96245,59.26435]]},"properties":{"ref":""}},
{"type":"Feature","geometry":{"type":"LineString","coordinates":[[25.61572,59.28057],[25.61639,59.27989],[25.61706,59.27942],[25.61919,59.27806],[25.62003,59.27755],[25.62118,59.27699],[25.62198,59.27669],[25.62478,59.27582],[25.6254,59.27566],[25.62771,59.27527],[25.62859,59.27494],[25.62999,59.27429]]},"properties":{"ref":"13"}},
{"type":"Feature","geometry":{"type":"LineString","coordinates":[[25.62074,59.29922],[25.6184,59.29896],[25.61722,59.29881],[25.61609,59.29855],[25.61236,59.29758],[25.61135,59.2972],[25.61052,59.29672]]},"properties":{"ref":"13"}},
{"type":"Feature","geometry":{"type":"LineString","coordinates":[[26.33627,59.36366],[26.33656,59.36414]]},"properties":{"ref":"23"}},
{"type":"Feature","geometry":{"type":"LineString","coordinates":[[26.33588,59.36321],[26.33578,59.36287]]},"properties":{"ref":"23"}},
{"type":"Feature","geometry":{"type":"LineString","coordinates":[[26.33588,59.36321],[26.33615,59.36313]]},"properties":{"ref":""}},
{"type":"Feature","geometry":{"type":"LineString","coordinates":[[26.33656,59.36414],[26.33694,59.36477],[26.33728,59.36562]]},"properties":{"ref":"23"}},
{"type":"Feature","geometry":{"type":"LineString","coordinates":[[26.33629,59.36328],[26.33627,59.36366]]},"properties":{"ref":"23"}},
{"type":"Feature","geometry":{"type":"LineString","coordinates":[[26.33627,59.36366],[26.33602,59.36334]]},"properties":{"ref":"23"}},
{"type":"Feature","geometry":{"type":"LineString","coordinates":[[26.28109,59.42055],[26.28024,59.42099],[26.27924,59.42139],[26.27818,59.42169],[26.27658,59.42199],[26.27493,59.4222],[26.27327,59.42238],[26.27161,59.42253]]},"properties":{"ref":"23"}},
{"type":"Feature","geometry":{"type":"LineString","coordinates":[[25.60733,59.28782],[25.60721,59.28761],[25.60668,59.2871]]},"properties":{"ref":"13"}},
{"type":"Feature","geometry":{"type":"LineString","coordinates":[[25.61318,59.28365],[25.61337,59.28314],[25.61344,59.28258],[25.6138,59.28206],[25.61517,59.28105]]},"properties":{"ref":"13"}},
{"type":"Feature","geometry":{"type":"LineString","coordinates":[[25.72738,59.21725],[25.72854,59.21627],[25.73009,59.21533],[25.73171,59.21449],[25.73366,59.21361],[25.73576,59.21284],[25.73969,59.21132],[25.74291,59.21002],[25.7462,59.20878],[25.74783,59.20812],[25.74935,59.2074],[25.75029,59.20686],[25.75097,59.20635],[25.75197,59.20532],[25.75283,59.20432],[25.75367,59.20369],[25.75532,59.20281],[25.75633,59.20189],[25.75803,59.20012],[25.75853,59.19941],[25.75888,59.19882],[25.75946,59.19657],[25.75966,59.19599],[25.75999,59.19551],[25.76149,59.1939]]},"properties":{"ref":"13"}},
{"type":"Feature","geometry":{"type":"LineString","coordinates":[[25.60668,59.2871],[25.60672,59.28694],[25.60719,59.28663],[25.60905,59.28608]]},"properties":{"ref":"13"}},
{"type":"Feature","geometry":{"type":"LineString","coordinates":[[26.33578,59.36287],[26.33615,59.36313]]},"properties":{"ref":"23"}},
{"type":"Feature","geometry":{"type":"LineString","coordinates":[[26.35707,59.35135],[26.35817,59.35175]]},"properties":{"ref":""}},
{"type":"Feature","geometry":{"type":"LineString","coordinates":[[26.34462,59.3221],[26.34167,59.32077],[26.33999,59.32009],[26.3371,59.31911],[26.33223,59.31752],[26.33106,59.31709],[26.3301,59.31659],[26.32936,59.31607],[26.32849,59.31517],[26.32504,59.31103],[26.31923,59.30409],[26.31686,59.30121],[26.31364,59.29738],[26.31182,59.29522],[26.30863,59.29137],[26.30702,59.28928],[26.30641,59.28873],[26.30147,59.28546]]},"properties":{"ref":"22"}},
{"type":"Feature","geometry":{"type":"LineString","coordinates":[[26.36536,59.3467],[26.36543,59.34663]]},"properties":{"ref":"88"}},
{"type":"Feature","geometry":{"type":"LineString","coordinates":[[26.52578,59.30976],[26.52299,59.31124],[26.5167,59.31466],[26.51186,59.31725],[26.50744,59.3196],[26.50616,59.32031],[26.50502,59.32091],[26.50407,59.32128],[26.50283,59.32161],[26.5019,59.32178],[26.50082,59.32186],[26.49937,59.32185],[26.49815,59.32172],[26.49715,59.32153],[26.49584,59.32113],[26.48999,59.31921],[26.48799,59.3186],[26.4868,59.31832],[26.48548,59.31808],[26.48304,59.31777],[26.48231,59.3177],[26.48102,59.31766],[26.47963,59.31769],[26.47579,59.31788],[26.47482,59.3179],[26.47361,59.31788],[26.47224,59.3178],[26.47048,59.31763],[26.46914,59.31743],[26.46722,59.31704],[26.46439,59.31631],[26.46132,59.31554],[26.45982,59.31519],[26.45754,59.3148],[26.45611,59.31464],[26.45488,59.31456],[26.45262,59.31449],[26.45061,59.31457],[26.44921,59.31469]]},"properties":{"ref":"88"}},
{"type":"Feature","geometry":{"type":"LineString","coordinates":[[25.33184,59.38702],[25.33269,59.38717]]},"properties":{"ref":"13"}},
{"type":"Feature","geometry":{"type":"LineString","coordinates":[[26.32284,59.37994],[26.32268,59.38006]]},"properties":{"ref":""}},
{"type":"Feature","geometry":{"type":"LineString","coordinates":[[26.32268,59.38006],[26.32172,59.38074]]},"properties":{"ref":"23"}},
{"type":"Feature","geometry":{"type":"LineString","coordinates":[[25.97187,59.25581],[25.97175,59.25552]]},"properties":{"ref":"24"}},
{"type":"Feature","geometry":{"type":"LineString","coordinates":[[25.97202,59.25548],[25.97187,59.25581]]},"properties":{"ref":"24"}},
{"type":"Feature","geometry":{"type":"LineString","coordinates":[[25.32161,59.25371],[25.32093,59.25344],[25.31506,59.25098],[25.30409,59.24632],[25.30158,59.24509],[25.29977,59.24407],[25.29802,59.24295],[25.29374,59.23997]]},"properties":{"ref":"12"}},
{"type":"Feature","geometry":{"type":"LineString","coordinates":[[25.32311,59.25418],[25.32293,59.25413]]},"properties":{"ref":"12"}},
{"type":"Feature","geometry":{"type":"LineString","coordinates":[[26.35279,59.35028],[26.35323,59.35038]]},"properties":{"ref":"22"}},
{"type":"Feature","geometry":{"type":"LineString","coordinates":[[26.37029,59.32111],[26.36837,59.32295]]},"properties":{"ref":"21"}},
{"type":"Feature","geometry":{"type":"LineString","coordinates":[[26.40485,59.33197],[26.40443,59.33218]]},"properties":{"ref":"88"}},
{"type":"Feature","geometry":{"type":"LineString","coordinates":[[26.40401,59.33239],[26.40319,59.3325]]},"properties":{"ref":"88"}},
{"type":"Feature","geometry":{"type":"LineString","coordinates":[[26.4042,59.33206],[26.40485,59.33197]]},"properties":{"ref":"88"}},
{"type":"Feature","geometry":{"type":"LineString","coordinates":[[26.40319,59.3325],[26.40378,59.33226]]},"properties":{"ref":"88"}},
{"type":"Feature","geometry":{"type":"LineString","coordinates":[[26.37421,59.31794],[26.37479,59.31772],[26.38013,59.31599],[26.38128,59.31554],[26.38216,59.31504],[26.38508,59.31263],[26.38553,59.3123]]},"properties":{"ref":"21"}},
{"type":"Feature","geometry":{"type":"LineString","coordinates":[[26.37092,59.3208],[26.37029,59.32111]]},"properties":{"ref":"21"}},
{"type":"Feature","geometry":{"type":"LineString","coordinates":[[26.37073,59.32038],[26.37139,59.32009]]},"properties":{"ref":"21"}},
{"type":"Feature","geometry":{"type":"LineString","coordinates":[[26.37139,59.32009],[26.37116,59.32046]]},"properties":{"ref":"21"}},
{"type":"Feature","geometry":{"type":"LineString","coordinates":[[26.37029,59.32111],[26.37049,59.32072]]},"properties":{"ref":"21"}},
{"type":"Feature","geometry":{"type":"LineString","coordinates":[[26.34901,59.32534],[26.34792,59.32418]]},"properties":{"ref":"22"}},
{"type":"Feature","geometry":{"type":"LineString","coordinates":[[25.96904,59.27207],[25.96883,59.272]]},"properties":{"ref":"24"}},
{"type":"Feature","geometry":{"type":"LineString","coordinates":[[25.96279,59.26961],[25.96801,59.27168]]},"properties":{"ref":"24"}},
{"type":"Feature","geometry":{"type":"LineString","coordinates":[[25.23963,59.41331],[25.24442,59.41252],[25.2469,59.41198],[25.24933,59.41132],[25.25036,59.41101],[25.25236,59.41034],[25.25618,59.40885],[25.25947,59.40759],[25.26095,59.40704],[25.2627,59.40644],[25.27148,59.4037]]},"properties":{"ref":"13"}},
{"type":"Feature","geometry":{"type":"LineString","coordinates":[[25.23373,59.41461],[25.23398,59.41454]]},"properties":{"ref":"13"}},
{"type":"Feature","geometry":{"type":"LineString","coordinates":[[26.26979,59.42247],[26.2707,59.42258]]},"properties":{"ref":"23"}},
{"type":"Feature","geometry":{"type":"LineString","coordinates":[[26.2707,59.42258],[26.26985,59.42266]]},"properties":{"ref":"23"}},
{"type":"Feature","geometry":{"type":"LineString","coordinates":[[26.26927,59.42271],[26.26931,59.42245]]},"properties":{"ref":""}},
{"type":"Feature","geometry":{"type":"LineString","coordinates":[[26.33727,59.36694],[26.33705,59.36755]]},"properties":{"ref":"23"}},
{"type":"Feature","geometry":{"type":"LineString","coordinates":[[25.89079,59.03206],[25.88976,59.03259],[25.88887,59.03276],[25.88703,59.03289],[25.88354,59.03321],[25.88252,59.03326],[25.88048,59.03328]]},"properties":{"ref":"39"}},
{"type":"Feature","geometry":{"type":"LineString","coordinates":[[25.87858,59.03337],[25.87866,59.03408],[25.87799,59.03481],[25.87793,59.03534],[25.87806,59.03616],[25.87833,59.03673],[25.87946,59.03793]]},"properties":{"ref":"39"}},
{"type":"Feature","geometry":{"type":"LineString","coordinates":[[26.33728,59.36562],[26.33735,59.36649]]},"properties":{"ref":"23"}},
{"type":"Feature","geometry":{"type":"LineString","coordinates":[[26.27004,59.42537],[26.2697,59.42542]]},"properties":{"ref":""}},
{"type":"Feature","geometry":{"type":"LineString","coordinates":[[26.26964,59.42354],[26.2697,59.42437]]},"properties":{"ref":"23"}},
{"type":"Feature","geometry":{"type":"LineString","coordinates":[[26.2697,59.42437],[26.26971,59.42466]]},"properties":{"ref":"23"}},
{"type":"Feature","geometry":{"type":"LineString","coordinates":[[26.26959,59.42308],[26.26943,59.42276]]},"properties":{"ref":"23"}},
{"type":"Feature","geometry":{"type":"LineString","coordinates":[[26.26957,59.42519],[26.26971,59.42466]]},"properties":{"ref":"23"}},
{"type":"Feature","geometry":{"type":"LineString","coordinates":[[26.26974,59.4248],[26.26991,59.42513]]},"properties":{"ref":"23"}},
{"type":"Feature","geometry":{"type":"LineString","coordinates":[[26.26985,59.42266],[26.26959,59.42308]]},"properties":{"ref":"23"}},
{"type":"Feature","geometry":{"type":"LineString","coordinates":[[26.26959,59.42308],[26.26964,59.42354]]},"properties":{"ref":"23"}},
{"type":"Feature","geometry":{"type":"LineString","coordinates":[[26.25223,59.12946],[26.25203,59.12838],[26.25177,59.12773],[26.25118,59.12718],[26.24954,59.12635]]},"properties":{"ref":"22"}},
{"type":"Feature","geometry":{"type":"LineString","coordinates":[[26.24954,59.12635],[26.24908,59.12592],[26.24875,59.12537],[26.24711,59.11855]]},"properties":{"ref":"22"}},
{"type":"Feature","geometry":{"type":"LineString","coordinates":[[26.24509,59.11503],[26.24446,59.11465],[26.24365,59.11427],[26.24018,59.11295],[26.23976,59.11275],[26.23892,59.11215],[26.23774,59.1112],[26.23606,59.10971]]},"properties":{"ref":"22"}},
{"type":"Feature","geometry":{"type":"LineString","coordinates":[[26.36543,59.34663],[26.36601,59.34631]]},"properties":{"ref":"88"}},
{"type":"Feature","geometry":{"type":"LineString","coordinates":[[25.31338,59.34511],[25.31412,59.34577],[25.32074,59.35156],[25.32172,59.35256],[25.32226,59.35329],[25.32272,59.35417],[25.32297,59.35493],[25.32313,59.35578],[25.32308,59.35667],[25.32247,59.35925],[25.32162,59.36267],[25.32106,59.36508],[25.32032,59.36799],[25.31995,59.36882],[25.31942,59.36947],[25.31905,59.36982],[25.31423,59.37341],[25.31326,59.37402],[25.31247,59.37447],[25.31163,59.37487],[25.31034,59.37541]]},"properties":{"ref":"12"}},
{"type":"Feature","geometry":{"type":"LineString","coordinates":[[25.33086,59.32519],[25.33987,59.32143],[25.34094,59.32097],[25.34191,59.32041],[25.34277,59.31971],[25.34332,59.31902],[25.34365,59.31824],[25.3437,59.31712],[25.34361,59.31556]]},"properties":{"ref":"12"}},
{"type":"Feature","geometry":{"type":"LineString","coordinates":[[25.20046,59.12667],[25.20051,59.1267]]},"properties":{"ref":"14"}},
{"type":"Feature","geometry":{"type":"LineString","coordinates":[[26.40905,59.28932],[26.40926,59.28652],[26.40954,59.28573],[26.41014,59.28507],[26.41086,59.28457],[26.41187,59.28412],[26.41593,59.28281],[26.41673,59.28259],[26.41958,59.28193],[26.4218,59.28139],[26.42271,59.28113]]},"properties":{"ref":"21"}},
{"type":"Feature","geometry":{"type":"LineString","coordinates":[[26.4355,59.27373],[26.43951,59.26925],[26.44041,59.26842],[26.44137,59.26771],[26.44239,59.26709],[26.44395,59.2663],[26.44936,59.26385],[26.45247,59.26243],[26.45343,59.26191],[26.45436,59.26119],[26.45652,59.2592],[26.45741,59.25843],[26.45916,59.25737],[26.46155,59.25588]]},"properties":{"ref":"21"}},
{"type":"Feature","geometry":{"type":"LineString","coordinates":[[26.03287,58.96898],[26.03304,58.9692]]},"properties":{"ref":"25"}},
{"type":"Feature","geometry":{"type":"LineString","coordinates":[[26.03499,58.97186],[26.03603,58.97312],[26.03661,58.97358],[26.03723,58.97393],[26.03885,58.97478],[26.04111,58.97594],[26.04541,58.97816],[26.04662,58.9788],[26.04702,58.97909],[26.04737,58.97947],[26.04753,58.97994],[26.0476,58.98162]]},"properties":{"ref":"25"}},
{"type":"Feature","geometry":{"type":"LineString","coordinates":[[26.26217,59.23204],[26.26154,59.23084],[26.26139,59.22997],[26.26147,59.22945],[26.26166,59.22901]]},"properties":{"ref":"22"}},
{"type":"Feature","geometry":{"type":"LineString","coordinates":[[26.26662,59.22264],[26.26747,59.22142],[26.26818,59.22002],[26.26913,59.21792],[26.26947,59.21694],[26.26977,59.21536],[26.27019,59.21214],[26.27033,59.21124],[26.27038,59.21045],[26.27022,59.20931],[26.26731,59.19832],[26.26584,59.19301],[26.26549,59.19154],[26.26534,59.19078],[26.26526,59.1899],[26.26527,59.189],[26.26539,59.18781],[26.26631,59.18246],[26.2666,59.18052],[26.26763,59.17427],[26.26796,59.17242],[26.26802,59.17155],[26.26796,59.1708],[26.26741,59.16812],[26.26664,59.16424],[26.26629,59.16294],[26.26603,59.16233],[26.26573,59.16178],[26.26466,59.16041],[26.26434,59.15993],[26.26392,59.15899],[26.26375,59.15835],[26.26365,59.1573],[26.26366,59.15501],[26.26359,59.15123],[26.26361,59.15069],[26.26357,59.14846],[26.26334,59.14713],[26.26309,59.14625],[26.26065,59.14012],[26.25956,59.13745],[26.25917,59.13666],[26.25865,59.13587]]},"properties":{"ref":"22"}},
{"type":"Feature","geometry":{"type":"LineString","coordinates":[[26.39539,59.33503],[26.39794,59.3342]]},"properties":{"ref":"88"}},
{"type":"Feature","geometry":{"type":"LineString","coordinates":[[26.25742,59.13463],[26.25501,59.1325]]},"properties":{"ref":"22"}},
{"type":"Feature","geometry":{"type":"LineString","coordinates":[[26.13552,58.9697],[26.1294,58.97169],[26.12728,58.97234],[26.1257,58.9728],[26.12212,58.97374],[26.1182,58.97464],[26.11353,58.97556],[26.10837,58.97643],[26.09738,58.97789],[26.09496,58.97815],[26.09324,58.9783],[26.08908,58.97854],[26.08582,58.97859],[26.07904,58.97859],[26.07826,58.97856],[26.07666,58.97844],[26.07314,58.97798],[26.07178,58.97783],[26.0704,58.97774],[26.06852,58.97774],[26.06692,58.97787],[26.0649,58.97818],[26.06204,58.9788],[26.05994,58.97927],[26.05839,58.97971],[26.05574,58.98066],[26.05505,58.98084],[26.05364,58.98113],[26.05222,58.98135],[26.04866,58.98178],[26.04774,58.98192]]},"properties":{"ref":"39"}},
{"type":"Feature","geometry":{"type":"LineString","coordinates":[[26.04774,58.98192],[26.04664,58.98214],[26.04226,58.98316],[26.04089,58.9835],[26.03999,58.98377],[26.03855,58.98426],[26.03719,58.98463],[26.03619,58.98479],[26.0348,58.98488],[26.03186,58.9849],[26.03008,58.98498],[26.0263,58.98534],[26.0251,58.98543],[26.02356,58.98548],[26.02199,58.98548],[26.01772,58.98534],[26.01497,58.98531],[26.0136,58.98531],[26.01099,58.98542]]},"properties":{"ref":"39"}},
{"type":"Feature","geometry":{"type":"LineString","coordinates":[[26.3396,59.41613],[26.34001,59.41636]]},"properties":{"ref":"20"}},
{"type":"Feature","geometry":{"type":"LineString","coordinates":[[26.34154,59.41592],[26.34018,59.41613],[26.34001,59.41636]]},"properties":{"ref":""}},
{"type":"Feature","geometry":{"type":"LineString","coordinates":[[25.20914,59.42327],[25.20931,59.42317]]},"properties":{"ref":"13"}},
{"type":"Feature","geometry":{"type":"LineString","coordinates":[[25.2076,59.42408],[25.20774,59.424]]},"properties":{"ref":"13"}},
{"type":"Feature","geometry":{"type":"LineString","coordinates":[[25.76405,59.19032],[25.76414,59.19018]]},"properties":{"ref":"13"}},
{"type":"Feature","geometry":{"type":"LineString","coordinates":[[25.76422,59.18613],[25.76416,59.18555],[25.76387,59.18457],[25.76353,59.18369],[25.76318,59.18322]]},"properties":{"ref":"13"}},
{"type":"Feature","geometry":{"type":"LineString","coordinates":[[26.35953,59.34129],[26.35954,59.34121]]},"properties":{"ref":"21"}},
{"type":"Feature","geometry":{"type":"LineString","coordinates":[[26.35954,59.34121],[26.35968,59.34041]]},"properties":{"ref":"21"}},
{"type":"Feature","geometry":{"type":"LineString","coordinates":[[25.19318,59.42924],[25.19395,59.4288],[25.19499,59.42837],[25.19706,59.42773],[25.20029,59.4269],[25.20169,59.4265],[25.20299,59.42609],[25.20434,59.42562],[25.20569,59.42505],[25.2076,59.42408]]},"properties":{"ref":"13"}},
{"type":"Feature","geometry":{"type":"LineString","coordinates":[[26.46811,59.25311],[26.4695,59.2522]]},"properties":{"ref":"21"}},
{"type":"Feature","geometry":{"type":"LineString","coordinates":[[26.48972,59.23956],[26.49134,59.23882],[26.49774,59.23593],[26.49846,59.23564],[26.50074,59.23485],[26.50975,59.23185],[26.51193,59.2311],[26.51304,59.23077],[26.51532,59.23026],[26.51616,59.23004],[26.51807,59.22942],[26.51928,59.229],[26.52146,59.22817],[26.52384,59.22724],[26.52465,59.22684],[26.52695,59.22521]]},"properties":{"ref":"21"}},
{"type":"Feature","geometry":{"type":"LineString","coordinates":[[25.20317,59.12796],[25.20342,59.12807]]},"properties":{"ref":"14"}},
{"type":"Feature","geometry":{"type":"LineString","coordinates":[[25.20442,59.13063],[25.20352,59.13273],[25.20209,59.13597],[25.20168,59.13696],[25.20157,59.13737],[25.20149,59.13812],[25.2016,59.13911],[25.20227,59.14266],[25.20224,59.14347],[25.20208,59.14411],[25.20174,59.14489],[25.20128,59.14565],[25.20079,59.14619],[25.19936,59.14749]]},"properties":{"ref":"14"}},
{"type":"Feature","geometry":{"type":"LineString","coordinates":[[25.30878,59.39213],[25.32366,59.3875],[25.32468,59.38721],[25.32558,59.387],[25.32681,59.38678],[25.32774,59.38671],[25.32861,59.38669],[25.32992,59.38674],[25.33184,59.38702]]},"properties":{"ref":"13"}},
{"type":"Feature","geometry":{"type":"LineString","coordinates":[[25.27148,59.4037],[25.27522,59.40255],[25.27561,59.40243],[25.27596,59.40232],[25.27784,59.40174],[25.29348,59.39688],[25.30245,59.39409],[25.30878,59.39213]]},"properties":{"ref":"13"}},
{"type":"Feature","geometry":{"type":"LineString","coordinates":[[26.3769,59.34223],[26.37665,59.34222]]},"properties":{"ref":""}},
{"type":"Feature","geometry":{"type":"LineString","coordinates":[[26.35944,59.35184],[26.35919,59.35205]]},"properties":{"ref":""}},
{"type":"Feature","geometry":{"type":"LineString","coordinates":[[26.36856,59.34545],[26.37027,59.34473],[26.37247,59.34376]]},"properties":{"ref":"88"}},
{"type":"Feature","geometry":{"type":"LineString","coordinates":[[26.36819,59.3231],[26.3681,59.32317]]},"properties":{"ref":"21"}},
{"type":"Feature","geometry":{"type":"LineString","coordinates":[[26.3464,59.32292],[26.3453,59.32239]]},"properties":{"ref":"22"}},
{"type":"Feature","geometry":{"type":"LineString","coordinates":[[26.34993,59.34963],[26.35016,59.34966]]},"properties":{"ref":""}},
{"type":"Feature","geometry":{"type":"LineString","coordinates":[[26.344,59.41752],[26.34317,59.41723],[26.34195,59.41685]]},"properties":{"ref":"20"}},
{"type":"Feature","geometry":{"type":"LineString","coordinates":[[26.27161,59.42253],[26.2707,59.42258]]},"properties":{"ref":"23"}},
{"type":"Feature","geometry":{"type":"LineString","coordinates":[[25.88089,59.04101],[25.88166,59.04146],[25.88209,59.04188],[25.88225,59.04231],[25.88219,59.04326],[25.88234,59.04359],[25.88318,59.04458],[25.88317,59.04486],[25.88248,59.04572]]},"properties":{"ref":"39"}},
{"type":"Feature","geometry":{"type":"LineString","coordinates":[[25.88248,59.04572],[25.88176,59.0465]]},"properties":{"ref":"39"}},
{"type":"Feature","geometry":{"type":"LineString","coordinates":[[25.87946,59.03793],[25.88063,59.03919],[25.88064,59.03962]]},"properties":{"ref":"39"}},
{"type":"Feature","geometry":{"type":"LineString","coordinates":[[25.88176,59.0465],[25.88142,59.04678],[25.88058,59.0473]]},"properties":{"ref":"39"}},
{"type":"Feature","geometry":{"type":"LineString","coordinates":[[26.03304,58.9692],[26.03389,58.97029],[26.03449,58.97126]]},"properties":{"ref":"25"}},
{"type":"Feature","geometry":{"type":"LineString","coordinates":[[25.88309,59.05289],[25.88292,59.05389],[25.88255,59.05457],[25.88213,59.05518],[25.88185,59.05546],[25.88102,59.05603],[25.8802,59.05647],[25.87933,59.05702],[25.87857,59.05776],[25.87774,59.05874]]},"properties":{"ref":"39"}},
{"type":"Feature","geometry":{"type":"LineString","coordinates":[[26.01099,58.98542],[26.01059,58.98546]]},"properties":{"ref":"39"}},
{"type":"Feature","geometry":{"type":"LineString","coordinates":[[25.91919,59.01303],[25.91791,59.01372],[25.91274,59.01574],[25.91107,59.01643],[25.90762,59.01815],[25.90442,59.01964],[25.90319,59.02032],[25.90169,59.02137],[25.90033,59.02228],[25.89867,59.02328],[25.89791,59.0239],[25.8975,59.02438],[25.89601,59.02826]]},"properties":{"ref":"39"}},
{"type":"Feature","geometry":{"type":"LineString","coordinates":[[25.87326,59.06132],[25.87127,59.06196],[25.86995,59.06243],[25.86874,59.06298],[25.86763,59.06353],[25.86606,59.0645],[25.86132,59.06768],[25.85816,59.06971],[25.85709,59.07044],[25.85608,59.07119],[25.8548,59.07235],[25.85402,59.0731],[25.8537,59.07349],[25.85183,59.07544],[25.85053,59.07669],[25.84847,59.07832],[25.84733,59.07909],[25.84544,59.08019],[25.84344,59.08126],[25.84282,59.08162],[25.84162,59.08242],[25.84028,59.08338],[25.83896,59.08441],[25.83435,59.08845],[25.83336,59.08926],[25.83231,59.09008],[25.83063,59.09121],[25.829,59.09222],[25.82791,59.09285],[25.82198,59.09586],[25.82013,59.09707],[25.81897,59.09799]]},"properties":{"ref":"39"}},
{"type":"Feature","geometry":{"type":"LineString","coordinates":[[26.01059,58.98546],[26.00932,58.9856],[26.0048,58.98625],[26.00259,58.98658],[25.99895,58.98724],[25.99779,58.9874],[25.99435,58.9878],[25.99231,58.9881],[25.9908,58.98837],[25.98821,58.98887],[25.98699,58.98905],[25.98553,58.98913],[25.98425,58.98904],[25.98267,58.98883],[25.98057,58.98849],[25.97976,58.98839],[25.97824,58.9883],[25.97706,58.98832],[25.97605,58.98842],[25.97511,58.98857],[25.97362,58.98895],[25.97012,58.99018],[25.96878,58.99058],[25.9643,58.99164],[25.96291,58.99202],[25.95705,58.99372],[25.95037,58.99557],[25.94814,58.9961],[25.9453,58.99666],[25.94333,58.99723],[25.94148,58.99814],[25.93996,58.99907],[25.93803,59.0004],[25.93717,59.00083],[25.93365,59.00197],[25.93296,59.0023],[25.93181,59.00311],[25.93039,59.00478],[25.92917,59.00594],[25.92629,59.00846],[25.92527,59.00927],[25.92349,59.01034],[25.92159,59.01129],[25.92081,59.01178],[25.91919,59.01303]]},"properties":{"ref":"39"}},
{"type":"Feature","geometry":{"type":"LineString","coordinates":[[25.61228,59.28477],[25.61283,59.28419],[25.61318,59.28365]]},"properties":{"ref":"13"}},
{"type":"Feature","geometry":{"type":"LineString","coordinates":[[25.61517,59.28105],[25.61572,59.28057]]},"properties":{"ref":"13"}},
{"type":"Feature","geometry":{"type":"LineString","coordinates":[[26.40889,59.29183],[26.40905,59.28932]]},"properties":{"ref":"21"}},
{"type":"Feature","geometry":{"type":"LineString","coordinates":[[26.34785,59.41889],[26.344,59.41752]]},"properties":{"ref":"20"}},
{"type":"Feature","geometry":{"type":"LineString","coordinates":[[26.35949,59.34703],[26.3598,59.34722]]},"properties":{"ref":""}},
{"type":"Feature","geometry":{"type":"LineString","coordinates":[[25.29374,59.23997],[25.29301,59.23946]]},"properties":{"ref":"12"}},
{"type":"Feature","geometry":{"type":"LineString","coordinates":[[25.28415,59.23333],[25.27544,59.2273],[25.27467,59.22683],[25.27357,59.22621],[25.27135,59.22514],[25.2694,59.2244],[25.26719,59.22371],[25.26505,59.22318],[25.26226,59.22264],[25.25959,59.22231],[25.25841,59.22221],[25.24999,59.22156],[25.2467,59.22128],[25.24397,59.22093],[25.24175,59.22046],[25.2394,59.21984],[25.22808,59.21668],[25.22602,59.2162],[25.22428,59.21584],[25.22184,59.21539]]},"properties":{"ref":"12"}},
{"type":"Feature","geometry":{"type":"LineString","coordinates":[[25.60983,59.28585],[25.61125,59.2854],[25.61228,59.28477]]},"properties":{"ref":"13"}},
{"type":"Feature","geometry":{"type":"LineString","coordinates":[[26.26991,59.42513],[26.27002,59.42517]]},"properties":{"ref":""}},
{"type":"Feature","geometry":{"type":"LineString","coordinates":[[26.27002,59.42517],[26.27004,59.42537]]},"properties":{"ref":""}},
{"type":"Feature","geometry":{"type":"LineString","coordinates":[[26.26957,59.42519],[26.26991,59.42513]]},"properties":{"ref":""}},
{"type":"Feature","geometry":{"type":"LineString","coordinates":[[26.2697,59.42542],[26.26957,59.42519]]},"properties":{"ref":""}},
{"type":"Feature","geometry":{"type":"LineString","coordinates":[[26.35911,59.34702],[26.35916,59.34697]]},"properties":{"ref":""}},
{"type":"Feature","geometry":{"type":"LineString","coordinates":[[26.35949,59.34703],[26.3593,59.34713]]},"properties":{"ref":""}},
{"type":"Feature","geometry":{"type":"LineString","coordinates":[[26.35924,59.34713],[26.35911,59.34702]]},"properties":{"ref":""}},
{"type":"Feature","geometry":{"type":"LineString","coordinates":[[26.26931,59.42245],[26.26941,59.42242]]},"properties":{"ref":""}},
{"type":"Feature","geometry":{"type":"LineString","coordinates":[[26.26943,59.42276],[26.26927,59.42271]]},"properties":{"ref":""}},
{"type":"Feature","geometry":{"type":"LineString","coordinates":[[26.26965,59.42242],[26.26979,59.42247]]},"properties":{"ref":""}},
{"type":"Feature","geometry":{"type":"LineString","coordinates":[[26.26941,59.42242],[26.26965,59.42242]]},"properties":{"ref":""}},
{"type":"Feature","geometry":{"type":"LineString","coordinates":[[26.26985,59.42266],[26.26943,59.42276]]},"properties":{"ref":""}},
{"type":"Feature","geometry":{"type":"LineString","coordinates":[[26.26979,59.42247],[26.26985,59.42266]]},"properties":{"ref":""}},
{"type":"Feature","geometry":{"type":"LineString","coordinates":[[25.67988,59.25],[25.6823,59.24818],[25.68297,59.24782],[25.68362,59.24757]]},"properties":{"ref":"13"}},
{"type":"Feature","geometry":{"type":"LineString","coordinates":[[25.69567,59.24238],[25.6966,59.24143],[25.69764,59.24055],[25.70101,59.23842],[25.70184,59.23783],[25.70342,59.23655],[25.70519,59.23494],[25.7062,59.23407],[25.70717,59.23343],[25.7112,59.2315]]},"properties":{"ref":"13"}},
{"type":"Feature","geometry":{"type":"LineString","coordinates":[[25.76149,59.1939],[25.76212,59.193],[25.76316,59.19146]]},"properties":{"ref":"13"}},
{"type":"Feature","geometry":{"type":"LineString","coordinates":[[25.76426,59.18762],[25.76422,59.18613]]},"properties":{"ref":"13"}},
{"type":"Feature","geometry":{"type":"LineString","coordinates":[[25.76316,59.19146],[25.76405,59.19032]]},"properties":{"ref":"13"}},
{"type":"Feature","geometry":{"type":"LineString","coordinates":[[25.69334,59.24384],[25.69427,59.24341],[25.69487,59.24305]]},"properties":{"ref":"13"}},
{"type":"Feature","geometry":{"type":"LineString","coordinates":[[25.65542,59.26419],[25.65537,59.26356],[25.65547,59.26319],[25.65594,59.2626],[25.65629,59.26231],[25.65731,59.26174],[25.66112,59.26006],[25.66186,59.25967],[25.66292,59.25891],[25.6638,59.25814],[25.66459,59.25758],[25.66524,59.25729],[25.66656,59.25677],[25.66717,59.25646],[25.67001,59.25495],[25.67082,59.2545],[25.67198,59.25373],[25.67324,59.25274],[25.67395,59.25228],[25.67464,59.25197],[25.67572,59.25163],[25.67709,59.25127],[25.6783,59.25085],[25.67935,59.25034],[25.67988,59.25]]},"properties":{"ref":"13"}},
{"type":"Feature","geometry":{"type":"LineString","coordinates":[[25.76279,59.18273],[25.76225,59.18203]]},"properties":{"ref":"13"}},
{"type":"Feature","geometry":{"type":"LineString","coordinates":[[25.68728,59.24621],[25.69194,59.24442]]},"properties":{"ref":"13"}},
{"type":"Feature","geometry":{"type":"LineString","coordinates":[[25.76414,59.19018],[25.76433,59.18975],[25.76426,59.18762]]},"properties":{"ref":"13"}},
{"type":"Feature","geometry":{"type":"LineString","coordinates":[[25.71334,59.22996],[25.71467,59.22821],[25.71503,59.22783],[25.71563,59.2274]]},"properties":{"ref":"13"}},
{"type":"Feature","geometry":{"type":"LineString","coordinates":[[25.71906,59.22558],[25.71969,59.22517],[25.72019,59.2247],[25.72048,59.22418],[25.72061,59.2235],[25.7205,59.22208],[25.72062,59.22136],[25.72083,59.22105]]},"properties":{"ref":"13"}},
{"type":"Feature","geometry":{"type":"LineString","coordinates":[[26.40702,59.33126],[26.40622,59.33153]]},"properties":{"ref":"88"}},
{"type":"Feature","geometry":{"type":"LineString","coordinates":[[26.40573,59.3317],[26.40485,59.33197]]},"properties":{"ref":"88"}},
{"type":"Feature","geometry":{"type":"LineString","coordinates":[[26.40294,59.33257],[26.40319,59.3325]]},"properties":{"ref":"88"}},
{"type":"Feature","geometry":{"type":"LineString","coordinates":[[26.39051,59.33662],[26.39104,59.33645]]},"properties":{"ref":"88"}},
{"type":"Feature","geometry":{"type":"LineString","coordinates":[[26.40137,59.33307],[26.40294,59.33257]]},"properties":{"ref":"88"}},
{"type":"Feature","geometry":{"type":"LineString","coordinates":[[26.39794,59.3342],[26.39989,59.33354],[26.40137,59.33307]]},"properties":{"ref":"88"}},
{"type":"Feature","geometry":{"type":"LineString","coordinates":[[26.39137,59.33634],[26.39539,59.33503]]},"properties":{"ref":"88"}},
{"type":"Feature","geometry":{"type":"LineString","coordinates":[[25.76225,59.18203],[25.76166,59.1812],[25.76134,59.18074]]},"properties":{"ref":"13"}},
{"type":"Feature","geometry":{"type":"LineString","coordinates":[[25.99969,59.33905],[25.99962,59.33817],[25.99988,59.33493]]},"properties":{"ref":"24"}},
{"type":"Feature","geometry":{"type":"LineString","coordinates":[[25.99988,59.33493],[26.00026,59.33008],[26.00046,59.32904],[26.00079,59.32824],[26.00354,59.32372],[26.0038,59.32301],[26.00386,59.32264],[26.00441,59.31755],[26.00439,59.31687],[26.00407,59.31601],[26.00292,59.31363],[26.00094,59.30941],[26.00075,59.30885],[26.00062,59.30823],[26.0002,59.30566],[25.99807,59.29299],[25.99726,59.28819],[25.99709,59.28728],[25.99687,59.28659],[25.99656,59.28597],[25.99564,59.28425],[25.99357,59.28048],[25.993,59.27965],[25.99213,59.27869],[25.99148,59.27815],[25.99012,59.27723],[25.989,59.27661],[25.98818,59.27622],[25.98703,59.27577],[25.98545,59.27525],[25.98355,59.27476],[25.98253,59.27457],[25.97309,59.27306],[25.97116,59.27267]]},"properties":{"ref":"24"}},
{"type":"Feature","geometry":{"type":"LineString","coordinates":[[26.36252,59.34927],[26.36132,59.35025]]},"properties":{"ref":""}},
{"type":"Feature","geometry":{"type":"LineString","coordinates":[[26.35323,59.35038],[26.35349,59.35044]]},"properties":{"ref":"22"}},
{"type":"Feature","geometry":{"type":"LineString","coordinates":[[25.30796,59.37643],[25.30353,59.37832],[25.30252,59.37878],[25.3014,59.37947],[25.29975,59.38074],[25.2989,59.38133],[25.29718,59.38231]]},"properties":{"ref":"12"}},
{"type":"Feature","geometry":{"type":"LineString","coordinates":[[25.29395,59.38414],[25.29295,59.38486],[25.29021,59.38719],[25.28926,59.38809],[25.28872,59.38874],[25.28799,59.38983],[25.28665,59.39211],[25.28627,59.39266],[25.28551,59.39348],[25.28494,59.39397],[25.28432,59.39438],[25.28139,59.3961],[25.28081,59.39648],[25.28017,59.39697],[25.27976,59.3974],[25.27941,59.39789],[25.27879,59.39911],[25.27838,59.39971],[25.27798,59.40015],[25.27751,59.40054],[25.27584,59.40176],[25.27557,59.40203]]},"properties":{"ref":"12"}},
{"type":"Feature","geometry":{"type":"LineString","coordinates":[[26.22765,59.0987],[26.22979,59.09335],[26.23016,59.09265],[26.23041,59.09231],[26.23098,59.09173],[26.23225,59.09077],[26.23521,59.08878],[26.23616,59.08795],[26.23766,59.08618],[26.2381,59.0854],[26.23931,59.08167],[26.23971,59.08035],[26.23984,59.07972],[26.23997,59.07837],[26.23984,59.07521],[26.23973,59.0744],[26.23945,59.07357],[26.23851,59.07197],[26.2382,59.07138],[26.23797,59.07078],[26.23782,59.07004],[26.23784,59.06919],[26.23793,59.06879],[26.2386,59.06661],[26.23866,59.06609],[26.23858,59.06547]]},"properties":{"ref":"22"}},
{"type":"Feature","geometry":{"type":"LineString","coordinates":[[26.22774,59.10062],[26.22743,59.10004],[26.22737,59.09957],[26.22765,59.0987]]},"properties":{"ref":"22"}},
{"type":"Feature","geometry":{"type":"LineString","coordinates":[[26.2343,59.1082],[26.23306,59.10699],[26.2327,59.10656],[26.23021,59.10329],[26.22966,59.10263]]},"properties":{"ref":"22"}},
{"type":"Feature","geometry":{"type":"LineString","coordinates":[[26.26577,59.22373],[26.26662,59.22264]]},"properties":{"ref":"22"}},
{"type":"Feature","geometry":{"type":"LineString","coordinates":[[26.26392,59.22607],[26.26577,59.22373]]},"properties":{"ref":"22"}},
{"type":"Feature","geometry":{"type":"LineString","coordinates":[[26.31863,59.38341],[26.31553,59.38707]]},"properties":{"ref":"23"}},
{"type":"Feature","geometry":{"type":"LineString","coordinates":[[26.31984,59.38215],[26.31908,59.38287],[26.31863,59.38341]]},"properties":{"ref":"23"}},
{"type":"Feature","geometry":{"type":"LineString","coordinates":[[25.18687,59.44031],[25.18712,59.44073],[25.18753,59.4411]]},"properties":{"ref":""}},
{"type":"Feature","geometry":{"type":"LineString","coordinates":[[25.87716,59.04763],[25.87806,59.04805],[25.87854,59.04802],[25.87956,59.04769]]},"properties":{"ref":""}},
{"type":"Feature","geometry":{"type":"LineString","coordinates":[[25.87956,59.04769],[25.87862,59.04814],[25.87852,59.04836],[25.87917,59.04886]]},"properties":{"ref":""}},
{"type":"Feature","geometry":{"type":"LineString","coordinates":[[25.29667,59.38259],[25.2942,59.38398],[25.29395,59.38414]]},"properties":{"ref":"12"}},
{"type":"Feature","geometry":{"type":"LineString","coordinates":[[25.31034,59.37541],[25.3089,59.37604]]},"properties":{"ref":"12"}},
{"type":"Feature","geometry":{"type":"LineString","coordinates":[[25.32293,59.25413],[25.32161,59.25371]]},"properties":{"ref":"12"}},
{"type":"Feature","geometry":{"type":"LineString","coordinates":[[25.32914,59.25552],[25.3264,59.25494]]},"properties":{"ref":"12"}},
{"type":"Feature","geometry":{"type":"LineString","coordinates":[[25.35626,59.27048],[25.35455,59.2674],[25.35264,59.26378],[25.35198,59.26297],[25.35107,59.26228],[25.35051,59.26196],[25.34907,59.26137],[25.34829,59.26116],[25.34322,59.2599],[25.34083,59.25928],[25.33821,59.25832],[25.33616,59.25751],[25.33442,59.25686],[25.33294,59.25639],[25.33136,59.25601],[25.32914,59.25552]]},"properties":{"ref":"12"}},
{"type":"Feature","geometry":{"type":"LineString","coordinates":[[25.37429,59.28385],[25.3741,59.28275],[25.37391,59.28217],[25.37359,59.28165],[25.37306,59.28112],[25.37259,59.28074],[25.37198,59.28037],[25.36879,59.27875]]},"properties":{"ref":"12"}},
{"type":"Feature","geometry":{"type":"LineString","coordinates":[[25.20051,59.1267],[25.20252,59.12765]]},"properties":{"ref":"14"}},
{"type":"Feature","geometry":{"type":"LineString","coordinates":[[25.2046,59.12986],[25.20442,59.13063]]},"properties":{"ref":"14"}},
{"type":"Feature","geometry":{"type":"LineString","coordinates":[[25.20408,59.12838],[25.20443,59.1287],[25.20456,59.12901],[25.2046,59.12986]]},"properties":{"ref":"14"}},
{"type":"Feature","geometry":{"type":"LineString","coordinates":[[25.20252,59.12765],[25.20317,59.12796]]},"properties":{"ref":"14"}},
{"type":"Feature","geometry":{"type":"LineString","coordinates":[[25.20342,59.12807],[25.20408,59.12838]]},"properties":{"ref":"14"}},
{"type":"Feature","geometry":{"type":"LineString","coordinates":[[25.89601,59.02826],[25.89577,59.0288],[25.89555,59.02908],[25.89482,59.02969],[25.89376,59.03039]]},"properties":{"ref":"39"}},
{"type":"Feature","geometry":{"type":"LineString","coordinates":[[25.88048,59.03328],[25.87916,59.03332],[25.87858,59.03337]]},"properties":{"ref":"39"}},
{"type":"Feature","geometry":{"type":"LineString","coordinates":[[25.89376,59.03039],[25.89292,59.03093],[25.89079,59.03206]]},"properties":{"ref":"39"}},
{"type":"Feature","geometry":{"type":"LineString","coordinates":[[25.88058,59.0473],[25.87956,59.04769],[25.87817,59.04821]]},"properties":{"ref":"39"}},
{"type":"Feature","geometry":{"type":"LineString","coordinates":[[25.88055,59.03994],[25.88052,59.04068],[25.88089,59.04101]]},"properties":{"ref":"39"}},
{"type":"Feature","geometry":{"type":"LineString","coordinates":[[25.88064,59.03962],[25.88055,59.03994]]},"properties":{"ref":"39"}},
{"type":"Feature","geometry":{"type":"LineString","coordinates":[[25.87774,59.05874],[25.87673,59.05991],[25.87623,59.06032],[25.87522,59.06075],[25.87326,59.06132]]},"properties":{"ref":"39"}},
{"type":"Feature","geometry":{"type":"LineString","coordinates":[[25.88307,59.0523],[25.88309,59.05289]]},"properties":{"ref":"39"}},
{"type":"Feature","geometry":{"type":"LineString","coordinates":[[26.03449,58.97126],[26.03499,58.97186]]},"properties":{"ref":"25"}},
{"type":"Feature","geometry":{"type":"LineString","coordinates":[[25.60709,59.29164],[25.60696,59.29116]]},"properties":{"ref":"13"}},
{"type":"Feature","geometry":{"type":"LineString","coordinates":[[25.62269,59.29948],[25.62074,59.29922]]},"properties":{"ref":"13"}},
{"type":"Feature","geometry":{"type":"LineString","coordinates":[[25.62464,59.29968],[25.62269,59.29948]]},"properties":{"ref":"13"}},
{"type":"Feature","geometry":{"type":"LineString","coordinates":[[25.65586,59.26496],[25.65542,59.26419]]},"properties":{"ref":"13"}},
{"type":"Feature","geometry":{"type":"LineString","coordinates":[[25.6566,59.26585],[25.65586,59.26496]]},"properties":{"ref":"13"}},
{"type":"Feature","geometry":{"type":"LineString","coordinates":[[25.69487,59.24305],[25.69567,59.24238]]},"properties":{"ref":"13"}},
{"type":"Feature","geometry":{"type":"LineString","coordinates":[[25.69194,59.24442],[25.69334,59.24384]]},"properties":{"ref":"13"}},
{"type":"Feature","geometry":{"type":"LineString","coordinates":[[25.68362,59.24757],[25.68562,59.24686],[25.68652,59.24651]]},"properties":{"ref":"13"}},
{"type":"Feature","geometry":{"type":"LineString","coordinates":[[25.68652,59.24651],[25.68728,59.24621]]},"properties":{"ref":"13"}},
{"type":"Feature","geometry":{"type":"LineString","coordinates":[[25.72622,59.21821],[25.72648,59.21806],[25.72738,59.21725]]},"properties":{"ref":"13"}},
{"type":"Feature","geometry":{"type":"LineString","coordinates":[[25.72083,59.22105],[25.72184,59.21985],[25.72256,59.21936],[25.72324,59.2191],[25.72586,59.21837],[25.72622,59.21821]]},"properties":{"ref":"13"}},
{"type":"Feature","geometry":{"type":"LineString","coordinates":[[25.71563,59.2274],[25.71843,59.22597]]},"properties":{"ref":"13"}},
{"type":"Feature","geometry":{"type":"LineString","coordinates":[[25.71843,59.22597],[25.71906,59.22558]]},"properties":{"ref":"13"}},
{"type":"Feature","geometry":{"type":"LineString","coordinates":[[25.7123,59.23085],[25.71294,59.23036],[25.71334,59.22996]]},"properties":{"ref":"13"}},
{"type":"Feature","geometry":{"type":"LineString","coordinates":[[25.7112,59.2315],[25.7123,59.23085]]},"properties":{"ref":"13"}},
{"type":"Feature","geometry":{"type":"LineString","coordinates":[[25.76318,59.18322],[25.76279,59.18273]]},"properties":{"ref":"13"}},
{"type":"Feature","geometry":{"type":"LineString","coordinates":[[26.34195,59.41685],[26.34085,59.41662]]},"properties":{"ref":"20"}},
{"type":"Feature","geometry":{"type":"LineString","coordinates":[[26.26366,59.2264],[26.26392,59.22607]]},"properties":{"ref":"22"}},
{"type":"Feature","geometry":{"type":"LineString","coordinates":[[26.37139,59.43395],[26.37084,59.43369]]},"properties":{"ref":"20"}},
{"type":"Feature","geometry":{"type":"LineString","coordinates":[[26.37084,59.43369],[26.3696,59.43297]]},"properties":{"ref":"20"}},
{"type":"Feature","geometry":{"type":"LineString","coordinates":[[26.3696,59.43297],[26.36821,59.43202],[26.36723,59.43124],[26.36653,59.43065]]},"properties":{"ref":"20"}},
{"type":"Feature","geometry":{"type":"LineString","coordinates":[[26.3802,59.43688],[26.37403,59.43496],[26.37217,59.43428],[26.37139,59.43395]]},"properties":{"ref":"20"}},
{"type":"Feature","geometry":{"type":"LineString","coordinates":[[26.33705,59.36755],[26.33672,59.36804]]},"properties":{"ref":"23"}},
{"type":"Feature","geometry":{"type":"LineString","coordinates":[[26.33672,59.36804],[26.33566,59.36952],[26.33438,59.37135]]},"properties":{"ref":"23"}},
{"type":"Feature","geometry":{"type":"LineString","coordinates":[[26.3453,59.32239],[26.34462,59.3221]]},"properties":{"ref":"22"}},
{"type":"Feature","geometry":{"type":"LineString","coordinates":[[26.34681,59.32314],[26.3464,59.32292]]},"properties":{"ref":"22"}},
{"type":"Feature","geometry":{"type":"LineString","coordinates":[[26.37155,59.31994],[26.37238,59.31916]]},"properties":{"ref":"21"}},
{"type":"Feature","geometry":{"type":"LineString","coordinates":[[26.37139,59.32009],[26.37155,59.31994]]},"properties":{"ref":"21"}},
{"type":"Feature","geometry":{"type":"LineString","coordinates":[[26.40622,59.33153],[26.40573,59.3317]]},"properties":{"ref":"88"}},
{"type":"Feature","geometry":{"type":"LineString","coordinates":[[25.97116,59.27267],[25.97025,59.27245],[25.96904,59.27207]]},"properties":{"ref":"24"}},
{"type":"Feature","geometry":{"type":"LineString","coordinates":[[25.96801,59.27168],[25.96883,59.272]]},"properties":{"ref":"24"}},
{"type":"Feature","geometry":{"type":"LineString","coordinates":[[26.2825,59.41968],[26.28109,59.42055]]},"properties":{"ref":"23"}},
{"type":"Feature","geometry":{"type":"LineString","coordinates":[[26.22966,59.10263],[26.22774,59.10062]]},"properties":{"ref":"22"}},
{"type":"Feature","geometry":{"type":"LineString","coordinates":[[26.24711,59.11855],[26.2468,59.11723],[26.24659,59.11667],[26.24605,59.11587],[26.24566,59.11548],[26.24509,59.11503]]},"properties":{"ref":"22"}},
{"type":"Feature","geometry":{"type":"LineString","coordinates":[[26.23606,59.10971],[26.2343,59.1082]]},"properties":{"ref":"22"}},
{"type":"Feature","geometry":{"type":"LineString","coordinates":[[26.25865,59.13587],[26.2582,59.13536],[26.25742,59.13463]]},"properties":{"ref":"22"}},
{"type":"Feature","geometry":{"type":"LineString","coordinates":[[26.4695,59.2522],[26.47493,59.24861]]},"properties":{"ref":"21"}},
{"type":"Feature","geometry":{"type":"LineString","coordinates":[[26.46585,59.25416],[26.4673,59.2536],[26.46811,59.25311]]},"properties":{"ref":"21"}},
{"type":"Feature","geometry":{"type":"LineString","coordinates":[[26.46155,59.25588],[26.46245,59.2554],[26.463,59.2552]]},"properties":{"ref":"21"}},
{"type":"Feature","geometry":{"type":"LineString","coordinates":[[26.42826,59.27921],[26.4296,59.27837],[26.43259,59.27646],[26.43452,59.27473],[26.4355,59.27373]]},"properties":{"ref":"21"}},
{"type":"Feature","geometry":{"type":"LineString","coordinates":[[26.42271,59.28113],[26.42628,59.28004],[26.42724,59.27973],[26.42826,59.27921]]},"properties":{"ref":"21"}},
{"type":"Feature","geometry":{"type":"LineString","coordinates":[[26.37666,59.34209],[26.37694,59.34212]]},"properties":{"ref":""}},
{"type":"Feature","geometry":{"type":"LineString","coordinates":[[26.37694,59.34212],[26.3769,59.34223]]},"properties":{"ref":""}},
{"type":"Feature","geometry":{"type":"LineString","coordinates":[[26.37665,59.34222],[26.37666,59.34209]]},"properties":{"ref":""}},
{"type":"Feature","geometry":{"type":"LineString","coordinates":[[26.36837,59.32295],[26.36819,59.3231]]},"properties":{"ref":"21"}},
{"type":"Feature","geometry":{"type":"LineString","coordinates":[[26.34774,59.32401],[26.34711,59.32337]]},"properties":{"ref":"22"}},
{"type":"Feature","geometry":{"type":"LineString","coordinates":[[26.34686,59.32318],[26.34681,59.32314]]},"properties":{"ref":"22"}},
{"type":"Feature","geometry":{"type":"LineString","coordinates":[[26.39104,59.33645],[26.39137,59.33634]]},"properties":{"ref":"88"}},
{"type":"Feature","geometry":{"type":"LineString","coordinates":[[26.35946,59.33824],[26.35944,59.33803],[26.36028,59.33635]]},"properties":{"ref":"21"}},
{"type":"Feature","geometry":{"type":"LineString","coordinates":[[26.3638,59.3282],[26.36401,59.32687],[26.36413,59.32644],[26.36454,59.32595],[26.36541,59.32513]]},"properties":{"ref":"21"}},
{"type":"Feature","geometry":{"type":"LineString","coordinates":[[26.36495,59.34704],[26.36536,59.3467]]},"properties":{"ref":"88"}},
{"type":"Feature","geometry":{"type":"LineString","coordinates":[[26.34001,59.41636],[26.34085,59.41662]]},"properties":{"ref":"20"}},
{"type":"Feature","geometry":{"type":"LineString","coordinates":[[25.96555,59.26554],[25.96467,59.26542]]},"properties":{"ref":"24"}},
{"type":"Feature","geometry":{"type":"LineString","coordinates":[[26.44921,59.31469],[26.447,59.31498],[26.44616,59.31517],[26.44495,59.31553],[26.44342,59.31603],[26.44158,59.31677],[26.44037,59.31736],[26.43931,59.31802],[26.43677,59.31975],[26.43496,59.32085],[26.43364,59.32159],[26.43276,59.32205],[26.43073,59.32304],[26.42919,59.32374],[26.42819,59.32416],[26.42632,59.32487],[26.42482,59.32539],[26.41942,59.32719],[26.41754,59.32779],[26.40702,59.33126]]},"properties":{"ref":"88"}},
{"type":"Feature","geometry":{"type":"LineString","coordinates":[[25.20469,59.21226],[25.19604,59.21068]]},"properties":{"ref":"12"}},
{"type":"Feature","geometry":{"type":"LineString","coordinates":[[26.35927,59.34355],[26.35933,59.34209]]},"properties":{"ref":"21"}},
{"type":"Feature","geometry":{"type":"LineString","coordinates":[[26.23907,59.02847],[26.24019,59.02753],[26.24369,59.02484],[26.24502,59.02362],[26.24666,59.02189],[26.24777,59.02065],[26.24866,59.01947],[26.24908,59.01881],[26.2497,59.01767],[26.24988,59.01712],[26.25057,59.0138],[26.25093,59.01296],[26.25163,59.01185],[26.25599,59.00661]]},"properties":{"ref":"22"}},
{"type":"Feature","geometry":{"type":"LineString","coordinates":[[26.25599,59.00661],[26.25652,59.00582],[26.25673,59.0049],[26.25667,59.00404],[26.25628,59.00224],[26.25623,59.00172],[26.25639,59.00091],[26.25668,59.00034],[26.25775,58.99865],[26.25983,58.99531],[26.26048,58.99383],[26.2608,58.99255],[26.26095,58.99163],[26.261,58.98815],[26.2612,58.98724],[26.26145,58.98665]]},"properties":{"ref":"22"}},
{"type":"Feature","geometry":{"type":"LineString","coordinates":[[26.36294,59.34887],[26.36252,59.34927]]},"properties":{"ref":"88"}},
{"type":"Feature","geometry":{"type":"LineString","coordinates":[[26.36007,59.35131],[26.35944,59.35184]]},"properties":{"ref":""}},
{"type":"Feature","geometry":{"type":"LineString","coordinates":[[26.36352,59.34834],[26.36392,59.34799]]},"properties":{"ref":"88"}},
{"type":"Feature","geometry":{"type":"LineString","coordinates":[[26.35817,59.35175],[26.35919,59.35205]]},"properties":{"ref":""}},
{"type":"Feature","geometry":{"type":"LineString","coordinates":[[26.35349,59.35044],[26.35394,59.35053]]},"properties":{"ref":"22"}},
{"type":"Feature","geometry":{"type":"LineString","coordinates":[[26.35923,59.34473],[26.35927,59.34355]]},"properties":{"ref":"21"}},
{"type":"Feature","geometry":{"type":"LineString","coordinates":[[26.35966,59.34189],[26.35963,59.34356]]},"properties":{"ref":"21"}},
{"type":"Feature","geometry":{"type":"LineString","coordinates":[[26.35951,59.34144],[26.35968,59.3418]]},"properties":{"ref":"21"}},
{"type":"Feature","geometry":{"type":"LineString","coordinates":[[26.36733,59.34589],[26.36793,59.34568]]},"properties":{"ref":"88"}},
{"type":"Feature","geometry":{"type":"LineString","coordinates":[[26.36694,59.34601],[26.36733,59.34589]]},"properties":{"ref":"88"}},
{"type":"Feature","geometry":{"type":"LineString","coordinates":[[26.36634,59.34621],[26.36694,59.34601]]},"properties":{"ref":"88"}},
{"type":"Feature","geometry":{"type":"LineString","coordinates":[[26.36813,59.34561],[26.36856,59.34545]]},"properties":{"ref":"88"}},
{"type":"Feature","geometry":{"type":"LineString","coordinates":[[25.35785,59.30451],[25.35838,59.30374],[25.36002,59.30121],[25.36038,59.30076],[25.36119,59.30004],[25.36228,59.29938],[25.36322,59.2989],[25.37149,59.29549],[25.37291,59.29487],[25.37391,59.2943],[25.37476,59.29363],[25.37536,59.29292],[25.37564,59.2922],[25.37572,59.2914],[25.37552,59.28996],[25.37429,59.28385]]},"properties":{"ref":"12"}},
{"type":"Feature","geometry":{"type":"LineString","coordinates":[[25.36879,59.27875],[25.36756,59.27813],[25.35971,59.27408],[25.35839,59.27328],[25.35795,59.2729],[25.3572,59.27214],[25.35666,59.27124],[25.35626,59.27048]]},"properties":{"ref":"12"}},
{"type":"Feature","geometry":{"type":"LineString","coordinates":[[26.40624,59.30053],[26.40658,59.3004]]},"properties":{"ref":""}},
{"type":"Feature","geometry":{"type":"LineString","coordinates":[[26.40675,59.302],[26.40616,59.30213],[26.40577,59.30307],[26.40539,59.30355]]},"properties":{"ref":""}},
{"type":"Feature","geometry":{"type":"LineString","coordinates":[[26.22709,59.09905],[26.22751,59.09892],[26.22765,59.0987]]},"properties":{"ref":""}},
{"type":"Feature","geometry":{"type":"LineString","coordinates":[[25.63755,59.46649],[25.63712,59.46838]]},"properties":{"ref":"85"}},
{"type":"Feature","geometry":{"type":"LineString","coordinates":[[25.61052,59.29672],[25.60951,59.29611],[25.6088,59.29555],[25.60851,59.29524],[25.60811,59.29465],[25.60757,59.29355],[25.60736,59.29292],[25.60709,59.29164]]},"properties":{"ref":"13"}},
{"type":"Feature","geometry":{"type":"LineString","coordinates":[[26.33492,59.35887],[26.33488,59.35894]]},"properties":{"ref":"23"}},
{"type":"Feature","geometry":{"type":"LineString","coordinates":[[26.47493,59.24861],[26.48075,59.24476],[26.48434,59.24241],[26.4855,59.24171],[26.48762,59.24057],[26.48972,59.23956]]},"properties":{"ref":"21"}},
{"type":"Feature","geometry":{"type":"LineString","coordinates":[[26.25501,59.1325],[26.25489,59.13238]]},"properties":{"ref":"22"}},
{"type":"Feature","geometry":{"type":"LineString","coordinates":[[25.76994,59.1395],[25.7695,59.13984],[25.76928,59.13985]]},"properties":{"ref":"39"}},
{"type":"Feature","geometry":{"type":"LineString","coordinates":[[25.76928,59.13985],[25.76994,59.1395]]},"properties":{"ref":"39"}},
{"type":"Feature","geometry":{"type":"LineString","coordinates":[[26.31963,59.38201],[26.31995,59.38194],[26.3206,59.38152]]},"properties":{"ref":""}},
{"type":"Feature","geometry":{"type":"LineString","coordinates":[[26.463,59.2552],[26.46452,59.25465]]},"properties":{"ref":"21"}},
{"type":"Feature","geometry":{"type":"LineString","coordinates":[[26.46452,59.25465],[26.46585,59.25416]]},"properties":{"ref":"21"}},
{"type":"Feature","geometry":{"type":"LineString","coordinates":[[26.46585,59.25416],[26.46452,59.25465]]},"properties":{"ref":"21"}},
{"type":"Feature","geometry":{"type":"LineString","coordinates":[[26.26145,58.98665],[26.26153,58.98648]]},"properties":{"ref":"22"}},
{"type":"Feature","geometry":{"type":"LineString","coordinates":[[26.36723,59.43124],[26.36759,59.43141],[26.36806,59.43176],[26.36821,59.43202]]},"properties":{"ref":""}},
{"type":"Feature","geometry":{"type":"LineString","coordinates":[[26.26153,58.98648],[26.26194,58.98568],[26.26242,58.98496],[26.26368,58.9835]]},"properties":{"ref":"22"}},
{"type":"Feature","geometry":{"type":"LineString","coordinates":[[26.33762,59.36566],[26.33741,59.3658],[26.33746,59.36634],[26.33735,59.36649]]},"properties":{"ref":""}},
{"type":"Feature","geometry":{"type":"LineString","coordinates":[[26.33602,59.36334],[26.33588,59.36321]]},"properties":{"ref":""}},
{"type":"Feature","geometry":{"type":"LineString","coordinates":[[26.33629,59.36328],[26.33602,59.36334]]},"properties":{"ref":""}},
{"type":"Feature","geometry":{"type":"LineString","coordinates":[[26.33615,59.36313],[26.33629,59.36328]]},"properties":{"ref":""}},
{"type":"Feature","geometry":{"type":"LineString","coordinates":[[25.27557,59.40203],[25.27558,59.40227]]},"properties":{"ref":"12"}},
{"type":"Feature","geometry":{"type":"LineString","coordinates":[[25.27558,59.40227],[25.27596,59.40232]]},"properties":{"ref":"12"}},
{"type":"Feature","geometry":{"type":"LineString","coordinates":[[25.27522,59.40255],[25.27542,59.40225]]},"properties":{"ref":"12"}},
{"type":"Feature","geometry":{"type":"LineString","coordinates":[[25.27561,59.40243],[25.27542,59.40225]]},"properties":{"ref":"12"}},
{"type":"Feature","geometry":{"type":"LineString","coordinates":[[25.27558,59.40227],[25.27561,59.40243]]},"properties":{"ref":"12"}},
{"type":"Feature","geometry":{"type":"LineString","coordinates":[[25.27542,59.40225],[25.27557,59.40203]]},"properties":{"ref":"12"}},
{"type":"Feature","geometry":{"type":"LineString","coordinates":[[26.3593,59.34713],[26.35924,59.34713]]},"properties":{"ref":""}},
{"type":"Feature","geometry":{"type":"LineString","coordinates":[[26.35946,59.3418],[26.35951,59.34144]]},"properties":{"ref":"21"}},
{"type":"Feature","geometry":{"type":"LineString","coordinates":[[26.35933,59.34209],[26.35945,59.34187]]},"properties":{"ref":"21"}},
{"type":"Feature","geometry":{"type":"LineString","coordinates":[[26.35946,59.3418],[26.35968,59.3418]]},"properties":{"ref":""}},
{"type":"Feature","geometry":{"type":"LineString","coordinates":[[26.35966,59.34189],[26.35945,59.34187]]},"properties":{"ref":""}},
{"type":"Feature","geometry":{"type":"LineString","coordinates":[[26.35968,59.3418],[26.35966,59.34189]]},"properties":{"ref":""}},
{"type":"Feature","geometry":{"type":"LineString","coordinates":[[26.35945,59.34187],[26.35946,59.3418]]},"properties":{"ref":""}},
{"type":"Feature","geometry":{"type":"LineString","coordinates":[[25.23663,59.41388],[25.23963,59.41331]]},"properties":{"ref":"13"}},
{"type":"Feature","geometry":{"type":"LineString","coordinates":[[25.20774,59.424],[25.20914,59.42327]]},"properties":{"ref":"13"}},
{"type":"Feature","geometry":{"type":"LineString","coordinates":[[25.23555,59.41413],[25.23635,59.41394]]},"properties":{"ref":"13"}},
{"type":"Feature","geometry":{"type":"LineString","coordinates":[[25.23635,59.41394],[25.23663,59.41388]]},"properties":{"ref":"13"}},
{"type":"Feature","geometry":{"type":"LineString","coordinates":[[26.32172,59.38074],[26.3206,59.38152]]},"properties":{"ref":"23"}},
{"type":"Feature","geometry":{"type":"LineString","coordinates":[[26.3206,59.38152],[26.31984,59.38215]]},"properties":{"ref":"23"}},
{"type":"Feature","geometry":{"type":"LineString","coordinates":[[26.33735,59.36649],[26.33727,59.36694]]},"properties":{"ref":"23"}},
{"type":"Feature","geometry":{"type":"LineString","coordinates":[[25.3089,59.37604],[25.30796,59.37643]]},"properties":{"ref":"12"}},
{"type":"Feature","geometry":{"type":"LineString","coordinates":[[25.29718,59.38231],[25.29667,59.38259]]},"properties":{"ref":"12"}},
{"type":"Feature","geometry":{"type":"LineString","coordinates":[[25.32411,59.25444],[25.32311,59.25418]]},"properties":{"ref":"12"}},
{"type":"Feature","geometry":{"type":"LineString","coordinates":[[25.32488,59.25445],[25.32494,59.25462]]},"properties":{"ref":""}},
{"type":"Feature","geometry":{"type":"LineString","coordinates":[[25.32437,59.2545],[25.32434,59.25465]]},"properties":{"ref":""}},
{"type":"Feature","geometry":{"type":"LineString","coordinates":[[25.32466,59.25456],[25.32471,59.25442]]},"properties":{"ref":""}},
{"type":"Feature","geometry":{"type":"LineString","coordinates":[[25.32417,59.2546],[25.32411,59.25444]]},"properties":{"ref":""}},
{"type":"Feature","geometry":{"type":"LineString","coordinates":[[25.34748,59.31047],[25.35314,59.30794],[25.35438,59.30731],[25.35561,59.30656],[25.35642,59.30596],[25.35741,59.30502],[25.35785,59.30451]]},"properties":{"ref":"12"}},
{"type":"Feature","geometry":{"type":"LineString","coordinates":[[25.34358,59.31494],[25.34353,59.31362],[25.34369,59.31279],[25.34406,59.31229]]},"properties":{"ref":"12"}},
{"type":"Feature","geometry":{"type":"LineString","coordinates":[[25.34361,59.31556],[25.34358,59.31494]]},"properties":{"ref":"12"}},
{"type":"Feature","geometry":{"type":"LineString","coordinates":[[25.34406,59.31229],[25.34462,59.31185],[25.3455,59.31136],[25.34748,59.31047]]},"properties":{"ref":"12"}},
{"type":"Feature","geometry":{"type":"LineString","coordinates":[[25.96153,59.26473],[25.96157,59.26471]]},"properties":{"ref":""}},
{"type":"Feature","geometry":{"type":"LineString","coordinates":[[25.96157,59.26471],[25.96167,59.26469]]},"properties":{"ref":""}},
{"type":"Feature","geometry":{"type":"LineString","coordinates":[[25.96167,59.26469],[25.96185,59.26478]]},"properties":{"ref":""}},
{"type":"Feature","geometry":{"type":"LineString","coordinates":[[25.96166,59.26487],[25.96158,59.26485]]},"properties":{"ref":""}},
{"type":"Feature","geometry":{"type":"LineString","coordinates":[[25.96158,59.26485],[25.96153,59.26473]]},"properties":{"ref":""}},
{"type":"Feature","geometry":{"type":"LineString","coordinates":[[25.96185,59.26478],[25.96172,59.26486]]},"properties":{"ref":""}},
{"type":"Feature","geometry":{"type":"LineString","coordinates":[[25.96467,59.26542],[25.9643,59.26514],[25.96417,59.2649]]},"properties":{"ref":"24"}},
{"type":"Feature","geometry":{"type":"LineString","coordinates":[[25.22184,59.21539],[25.21571,59.21427],[25.21278,59.21373],[25.20726,59.21273]]},"properties":{"ref":"12"}},
{"type":"Feature","geometry":{"type":"LineString","coordinates":[[25.20726,59.21273],[25.2062,59.21254]]},"properties":{"ref":"12"}},
{"type":"Feature","geometry":{"type":"LineString","coordinates":[[25.2062,59.21254],[25.2056,59.21243]]},"properties":{"ref":"12"}},
{"type":"Feature","geometry":{"type":"LineString","coordinates":[[25.2056,59.21243],[25.20469,59.21226]]},"properties":{"ref":"12"}},
{"type":"Feature","geometry":{"type":"LineString","coordinates":[[26.37238,59.31916],[26.37325,59.3185],[26.37421,59.31794]]},"properties":{"ref":"21"}},
{"type":"Feature","geometry":{"type":"LineString","coordinates":[[26.36601,59.34631],[26.36634,59.34621]]},"properties":{"ref":"88"}},
{"type":"Feature","geometry":{"type":"LineString","coordinates":[[26.36601,59.34631],[26.36555,59.34669]]},"properties":{"ref":"88"}},
{"type":"Feature","geometry":{"type":"LineString","coordinates":[[26.3651,59.34705],[26.36471,59.3473]]},"properties":{"ref":"88"}},
{"type":"Feature","geometry":{"type":"LineString","coordinates":[[26.36471,59.3473],[26.36495,59.34704]]},"properties":{"ref":"88"}},
{"type":"Feature","geometry":{"type":"LineString","coordinates":[[26.36555,59.34669],[26.3651,59.34705]]},"properties":{"ref":"88"}},
{"type":"Feature","geometry":{"type":"LineString","coordinates":[[26.00069,59.35514],[26.00527,59.34788],[26.00565,59.34706],[26.0057,59.34635],[26.00539,59.34539],[26.00517,59.34501],[26.00462,59.34436],[26.00139,59.34166],[26.00069,59.34099],[26.00024,59.34039],[25.99989,59.33973],[25.99969,59.33905]]},"properties":{"ref":"24"}},
{"type":"Feature","geometry":{"type":"LineString","coordinates":[[26.00009,59.35921],[25.99984,59.35766],[25.99985,59.35671],[26.00001,59.35629],[26.00069,59.35514]]},"properties":{"ref":"24"}},
{"type":"Feature","geometry":{"type":"LineString","coordinates":[[26.00084,59.36365],[26.00009,59.35921]]},"properties":{"ref":"24"}},
{"type":"Feature","geometry":{"type":"LineString","coordinates":[[26.00182,59.37184],[26.00084,59.36365]]},"properties":{"ref":"24"}},
{"type":"Feature","geometry":{"type":"LineString","coordinates":[[26.00906,59.37954],[26.00533,59.37748],[26.00437,59.37688],[26.00353,59.37621],[26.00271,59.37528],[26.00244,59.37483],[26.00224,59.3743],[26.00199,59.3733],[26.00182,59.37184]]},"properties":{"ref":"24"}},
{"type":"Feature","geometry":{"type":"LineString","coordinates":[[26.01451,59.38295],[26.01374,59.38231],[26.01304,59.38184],[26.01027,59.38022],[26.00906,59.37954]]},"properties":{"ref":"24"}},
{"type":"Feature","geometry":{"type":"LineString","coordinates":[[26.01349,59.39479],[26.01351,59.3946]]},"properties":{"ref":"24"}},
{"type":"Feature","geometry":{"type":"LineString","coordinates":[[26.0128,59.39942],[26.01296,59.39901],[26.01305,59.39845],[26.01342,59.39532]]},"properties":{"ref":"24"}},
{"type":"Feature","geometry":{"type":"LineString","coordinates":[[26.00451,59.40495],[26.00517,59.40435],[26.00617,59.40361],[26.00684,59.4032],[26.00826,59.40248],[26.0097,59.40186],[26.01064,59.40141],[26.01114,59.40111],[26.0121,59.40036],[26.01237,59.40007],[26.0128,59.39942]]},"properties":{"ref":"24"}},
{"type":"Feature","geometry":{"type":"LineString","coordinates":[[25.9768,59.42868],[25.97817,59.42797],[25.97892,59.42763],[25.97965,59.4274],[25.98344,59.4263],[25.9849,59.42577],[25.98734,59.4247],[25.98811,59.42433],[25.98875,59.42392],[25.98959,59.42323],[25.98993,59.42283],[25.99045,59.42193],[25.99081,59.42111],[25.9912,59.42047],[25.99156,59.42007],[25.99337,59.41828],[25.99495,59.41695],[25.99893,59.414],[25.99967,59.41333],[26.00013,59.41273],[26.00039,59.41225],[26.00314,59.40672],[26.00349,59.40613],[26.00387,59.40562],[26.00451,59.40495]]},"properties":{"ref":"24"}},
{"type":"Feature","geometry":{"type":"LineString","coordinates":[[25.97585,59.42917],[25.9768,59.42868]]},"properties":{"ref":"24"}},
{"type":"Feature","geometry":{"type":"LineString","coordinates":[[25.96404,59.43539],[25.97486,59.42967],[25.97585,59.42917]]},"properties":{"ref":"24"}},
{"type":"Feature","geometry":{"type":"LineString","coordinates":[[25.95813,59.43945],[25.95954,59.43832],[25.96109,59.43716],[25.96182,59.43665],[25.9627,59.43613],[25.96404,59.43539]]},"properties":{"ref":"24"}},
{"type":"Feature","geometry":{"type":"LineString","coordinates":[[25.95603,59.44112],[25.95813,59.43945]]},"properties":{"ref":"24"}},
{"type":"Feature","geometry":{"type":"LineString","coordinates":[[25.95313,59.44343],[25.95603,59.44112]]},"properties":{"ref":"24"}},
{"type":"Feature","geometry":{"type":"LineString","coordinates":[[25.95175,59.44455],[25.95313,59.44343]]},"properties":{"ref":"24"}},
{"type":"Feature","geometry":{"type":"LineString","coordinates":[[25.95,59.44623],[25.95071,59.44552],[25.95175,59.44455]]},"properties":{"ref":"24"}},
{"type":"Feature","geometry":{"type":"LineString","coordinates":[[25.94824,59.44827],[25.95,59.44623]]},"properties":{"ref":"24"}},
{"type":"Feature","geometry":{"type":"LineString","coordinates":[[25.94533,59.45168],[25.94824,59.44827]]},"properties":{"ref":"24"}},
{"type":"Feature","geometry":{"type":"LineString","coordinates":[[25.94495,59.45214],[25.94533,59.45168]]},"properties":{"ref":"24"}},
{"type":"Feature","geometry":{"type":"LineString","coordinates":[[25.94411,59.45313],[25.94495,59.45214]]},"properties":{"ref":"24"}},
{"type":"Feature","geometry":{"type":"LineString","coordinates":[[26.34711,59.32337],[26.34686,59.32318]]},"properties":{"ref":"22"}},
{"type":"Feature","geometry":{"type":"LineString","coordinates":[[26.34792,59.32418],[26.34774,59.32401]]},"properties":{"ref":"22"}},
{"type":"Feature","geometry":{"type":"LineString","coordinates":[[26.34711,59.32337],[26.34774,59.32401]]},"properties":{"ref":"22"}},
{"type":"Feature","geometry":{"type":"LineString","coordinates":[[25.64105,59.27102],[25.64233,59.2713],[25.64611,59.27204],[25.64696,59.27215],[25.64761,59.27216],[25.64829,59.27208],[25.64907,59.27185],[25.64971,59.27146],[25.65157,59.26973],[25.65226,59.26927],[25.65652,59.26726],[25.65697,59.26684],[25.65696,59.26636],[25.6566,59.26585]]},"properties":{"ref":"13"}},
{"type":"Feature","geometry":{"type":"LineString","coordinates":[[25.64042,59.27088],[25.64105,59.27102]]},"properties":{"ref":"13"}},
{"type":"Feature","geometry":{"type":"LineString","coordinates":[[25.64013,59.27082],[25.64042,59.27088]]},"properties":{"ref":"13"}},
{"type":"Feature","geometry":{"type":"LineString","coordinates":[[25.63936,59.27069],[25.64013,59.27082]]},"properties":{"ref":"13"}},
{"type":"Feature","geometry":{"type":"LineString","coordinates":[[25.63185,59.2736],[25.63241,59.27336],[25.63316,59.27291],[25.63423,59.27219],[25.6354,59.27159],[25.63611,59.2713],[25.63754,59.2709],[25.63851,59.2707],[25.63936,59.27069]]},"properties":{"ref":"13"}},
{"type":"Feature","geometry":{"type":"LineString","coordinates":[[25.63117,59.27385],[25.63185,59.2736]]},"properties":{"ref":"13"}},
{"type":"Feature","geometry":{"type":"LineString","coordinates":[[25.63067,59.27403],[25.63117,59.27385]]},"properties":{"ref":"13"}},
{"type":"Feature","geometry":{"type":"LineString","coordinates":[[25.62999,59.27429],[25.63067,59.27403]]},"properties":{"ref":"13"}},
{"type":"Feature","geometry":{"type":"LineString","coordinates":[[25.60905,59.28608],[25.60983,59.28585]]},"properties":{"ref":"13"}},
{"type":"Feature","geometry":{"type":"LineString","coordinates":[[26.254,59.13147],[26.25314,59.13052]]},"properties":{"ref":"22"}},
{"type":"Feature","geometry":{"type":"LineString","coordinates":[[26.25314,59.13052],[26.25247,59.12979],[26.25223,59.12946]]},"properties":{"ref":"22"}},
{"type":"Feature","geometry":{"type":"LineString","coordinates":[[25.29301,59.23946],[25.28627,59.23482],[25.28536,59.23417]]},"properties":{"ref":"12"}},
{"type":"Feature","geometry":{"type":"LineString","coordinates":[[25.28536,59.23417],[25.28493,59.23387]]},"properties":{"ref":"12"}},
{"type":"Feature","geometry":{"type":"LineString","coordinates":[[25.28493,59.23387],[25.28463,59.23366]]},"properties":{"ref":"12"}},
{"type":"Feature","geometry":{"type":"LineString","coordinates":[[25.28463,59.23366],[25.28415,59.23333]]},"properties":{"ref":"12"}},
{"type":"Feature","geometry":{"type":"LineString","coordinates":[[25.32466,59.25456],[25.32437,59.2545],[25.32411,59.25444]]},"properties":{"ref":"12"}},
{"type":"Feature","geometry":{"type":"LineString","coordinates":[[25.3264,59.25494],[25.32535,59.25471]]},"properties":{"ref":"12"}},
{"type":"Feature","geometry":{"type":"LineString","coordinates":[[25.32535,59.25471],[25.32494,59.25462],[25.32466,59.25456]]},"properties":{"ref":"12"}},
{"type":"Feature","geometry":{"type":"LineString","coordinates":[[26.33694,59.36477],[26.33709,59.36485],[26.33733,59.36544],[26.3375,59.36557]]},"properties":{"ref":""}},
{"type":"Feature","geometry":{"type":"LineString","coordinates":[[25.19207,59.43046],[25.19238,59.43001],[25.19288,59.42946],[25.19318,59.42924]]},"properties":{"ref":"13"}},
{"type":"Feature","geometry":{"type":"LineString","coordinates":[[26.3681,59.32317],[26.3674,59.32375],[26.36622,59.32455]]},"properties":{"ref":"21"}},
{"type":"Feature","geometry":{"type":"LineString","coordinates":[[26.36622,59.32455],[26.36549,59.32506]]},"properties":{"ref":"21"}},
{"type":"Feature","geometry":{"type":"LineString","coordinates":[[26.36549,59.32506],[26.36541,59.32513]]},"properties":{"ref":"21"}},
{"type":"Feature","geometry":{"type":"LineString","coordinates":[[25.23543,59.41416],[25.23555,59.41413]]},"properties":{"ref":"13"}},
{"type":"Feature","geometry":{"type":"LineString","coordinates":[[25.23513,59.41424],[25.23543,59.41416]]},"properties":{"ref":"13"}},
{"type":"Feature","geometry":{"type":"LineString","coordinates":[[25.23398,59.41454],[25.23513,59.41424]]},"properties":{"ref":"13"}},
{"type":"Feature","geometry":{"type":"LineString","coordinates":[[25.21017,59.42274],[25.21076,59.42244],[25.21251,59.42165],[25.21428,59.4209],[25.21577,59.42033],[25.21735,59.41977],[25.21894,59.41926],[25.23169,59.41523],[25.23373,59.41461]]},"properties":{"ref":"13"}},
{"type":"Feature","geometry":{"type":"LineString","coordinates":[[25.20931,59.42317],[25.21017,59.42274]]},"properties":{"ref":"13"}},
{"type":"Feature","geometry":{"type":"LineString","coordinates":[[26.26971,59.42466],[26.26974,59.4248]]},"properties":{"ref":"23"}},
{"type":"Feature","geometry":{"type":"LineString","coordinates":[[26.29916,59.28395],[26.29707,59.28261],[26.295,59.28143]]},"properties":{"ref":"22"}},
{"type":"Feature","geometry":{"type":"LineString","coordinates":[[26.295,59.28143],[26.294,59.28087]]},"properties":{"ref":"22"}},
{"type":"Feature","geometry":{"type":"LineString","coordinates":[[26.294,59.28087],[26.29308,59.28035]]},"properties":{"ref":"22"}},
{"type":"Feature","geometry":{"type":"LineString","coordinates":[[26.29308,59.28035],[26.29025,59.27876],[26.28972,59.27841],[26.28884,59.27765],[26.28723,59.27611]]},"properties":{"ref":"22"}},
{"type":"Feature","geometry":{"type":"LineString","coordinates":[[26.28723,59.27611],[26.28663,59.27551]]},"properties":{"ref":"22"}},
{"type":"Feature","geometry":{"type":"LineString","coordinates":[[26.28663,59.27551],[26.28623,59.27496],[26.28488,59.27284],[26.28468,59.27249],[26.28458,59.27203],[26.28456,59.2715]]},"properties":{"ref":"22"}},
{"type":"Feature","geometry":{"type":"LineString","coordinates":[[26.28456,59.2715],[26.28455,59.27119]]},"properties":{"ref":"22"}},
{"type":"Feature","geometry":{"type":"LineString","coordinates":[[26.28453,59.27056],[26.28452,59.27018]]},"properties":{"ref":"22"}},
{"type":"Feature","geometry":{"type":"LineString","coordinates":[[26.28452,59.27018],[26.28452,59.26999]]},"properties":{"ref":"22"}},
{"type":"Feature","geometry":{"type":"LineString","coordinates":[[26.28452,59.26999],[26.2845,59.26922]]},"properties":{"ref":"22"}},
{"type":"Feature","geometry":{"type":"LineString","coordinates":[[26.2845,59.26922],[26.28449,59.26671],[26.2844,59.26308],[26.28432,59.26196],[26.28421,59.26127]]},"properties":{"ref":"22"}},
{"type":"Feature","geometry":{"type":"LineString","coordinates":[[26.28421,59.26127],[26.284,59.2605]]},"properties":{"ref":"22"}},
{"type":"Feature","geometry":{"type":"LineString","coordinates":[[26.284,59.2605],[26.28376,59.25978]]},"properties":{"ref":"22"}},
{"type":"Feature","geometry":{"type":"LineString","coordinates":[[26.28376,59.25978],[26.28297,59.2574],[26.28165,59.25364],[26.2814,59.25294],[26.28082,59.25182],[26.28011,59.25072]]},"properties":{"ref":"22"}},
{"type":"Feature","geometry":{"type":"LineString","coordinates":[[26.28011,59.25072],[26.27961,59.25005]]},"properties":{"ref":"22"}},
{"type":"Feature","geometry":{"type":"LineString","coordinates":[[26.27961,59.25005],[26.27904,59.24939]]},"properties":{"ref":"22"}},
{"type":"Feature","geometry":{"type":"LineString","coordinates":[[26.27904,59.24939],[26.27871,59.24905]]},"properties":{"ref":"22"}},
{"type":"Feature","geometry":{"type":"LineString","coordinates":[[26.27871,59.24905],[26.27836,59.24868],[26.27723,59.24772],[26.27333,59.245],[26.27225,59.24417]]},"properties":{"ref":"22"}},
{"type":"Feature","geometry":{"type":"LineString","coordinates":[[26.27225,59.24417],[26.27156,59.24357]]},"properties":{"ref":"22"}},
{"type":"Feature","geometry":{"type":"LineString","coordinates":[[26.27156,59.24357],[26.27048,59.24255],[26.26914,59.24108],[26.26729,59.23901],[26.2648,59.23627],[26.26412,59.23541],[26.26306,59.23374],[26.26217,59.23204]]},"properties":{"ref":"22"}},
{"type":"Feature","geometry":{"type":"LineString","coordinates":[[26.28455,59.27119],[26.28454,59.27096]]},"properties":{"ref":"22"}},
{"type":"Feature","geometry":{"type":"LineString","coordinates":[[26.28454,59.27096],[26.28453,59.27056]]},"properties":{"ref":"22"}},
{"type":"Feature","geometry":{"type":"LineString","coordinates":[[26.0476,58.98162],[26.04774,58.98192]]},"properties":{"ref":"25"}},
{"type":"Feature","geometry":{"type":"LineString","coordinates":[[26.04774,58.98192],[26.0476,58.98162]]},"properties":{"ref":"25"}},
{"type":"Feature","geometry":{"type":"LineString","coordinates":[[26.01348,59.39485],[26.01349,59.39479]]},"properties":{"ref":"24"}},
{"type":"Feature","geometry":{"type":"LineString","coordinates":[[26.01342,59.39532],[26.01348,59.39485]]},"properties":{"ref":"24"}},
{"type":"Feature","geometry":{"type":"LineString","coordinates":[[26.01361,59.3939],[26.01385,59.39313],[26.01613,59.38974],[26.01655,59.38874],[26.01668,59.38813],[26.01672,59.38675],[26.0166,59.38611],[26.01615,59.38499],[26.01542,59.38391],[26.01451,59.38295]]},"properties":{"ref":"24"}},
{"type":"Feature","geometry":{"type":"LineString","coordinates":[[26.01351,59.3946],[26.01361,59.3939]]},"properties":{"ref":"24"}},
{"type":"Feature","geometry":{"type":"LineString","coordinates":[[25.96349,59.26342],[25.96294,59.26229],[25.96288,59.26202],[25.96338,59.26148]]},"properties":{"ref":"24"}},
{"type":"Feature","geometry":{"type":"LineString","coordinates":[[25.96417,59.2649],[25.96349,59.26342]]},"properties":{"ref":"24"}},
{"type":"Feature","geometry":{"type":"LineString","coordinates":[[25.63809,59.46407],[25.63781,59.4653]]},"properties":{"ref":"85"}},
{"type":"Feature","geometry":{"type":"LineString","coordinates":[[25.63781,59.4653],[25.63755,59.46649]]},"properties":{"ref":"85"}}
]}