{"type":"FeatureCollection", "features": [
{"type":"Feature","geometry":{"type":"MultiPolygon","coordinates":[[[[26.3334,58.9978],[26.3386,58.9978],[26.356,58.9979],[26.3734,58.998],[26.3908,58.9981],[26.4082,58.9982],[26.4256,58.9983],[26.443,58.9983],[26.4604,58.9984],[26.4778,58.9985],[26.4777,59.0075],[26.4776,59.0164],[26.4774,59.0254],[26.4773,59.0344],[26.4772,59.0434],[26.4771,59.046],[26.4659,59.046],[26.4599,59.0484],[26.4591,59.0488],[26.4549,59.0464],[26.4666,59.0444],[26.4565,59.041],[26.4561,59.0317],[26.4526,59.0283],[26.4407,59.0253],[26.419,59.0329],[26.422,59.0276],[26.4348,59.0124],[26.4439,59.0152],[26.4422,59.0049],[26.4501,59.0011],[26.4456,59.0012],[26.4417,59.0027],[26.4318,59.0056],[26.4368,59.0097],[26.4297,59.0152],[26.4268,59.0199],[26.4146,59.0267],[26.4165,59.0323],[26.4132,59.0391],[26.4091,59.0412],[26.4052,59.0426],[26.4039,59.0351],[26.3981,59.0376],[26.3947,59.0364],[26.3946,59.0353],[26.3951,59.033],[26.3925,59.0322],[26.3911,59.0313],[26.3864,59.0288],[26.3707,59.0265],[26.3673,59.0239],[26.3653,59.0227],[26.364,59.0129],[26.3597,59.0118],[26.3645,59.0066],[26.3589,59.0056],[26.35,59.0153],[26.3522,59.0188],[26.346,59.0262],[26.342,59.0276],[26.3389,59.0309],[26.3258,59.0324],[26.3227,59.0374],[26.3359,59.047],[26.3257,59.0414],[26.3166,59.0445],[26.314,59.0476],[26.298,59.0515],[26.2934,59.0487],[26.3029,59.0398],[26.3101,59.0405],[26.3064,59.0339],[26.2856,59.0314],[26.2782,59.0303],[26.2724,59.0294],[26.2743,59.0259],[26.2752,59.024],[26.287,59.025],[26.2903,59.0216],[26.2795,59.0194],[26.2802,59.0156],[26.2845,59.0128],[26.281,59.0079],[26.2847,59.0047],[26.2919,59.0007],[26.2849,58.9976],[26.2864,58.9976],[26.2946,58.9976],[26.2929,58.9997],[26.3046,59.0005],[26.3108,59.0028],[26.3062,59.0061],[26.3062,59.011],[26.3145,59.0109],[26.3146,59.0166],[26.3161,59.0211],[26.3252,59.0208],[26.3325,59.0122],[26.3329,59.0097],[26.3423,59.007],[26.3479,59.0021],[26.3389,58.9981],[26.3345,59.0022],[26.3334,58.9978]],[[26.4001,59.0262],[26.4086,59.0251],[26.4219,59.0175],[26.4024,59.015],[26.3892,59.0185],[26.3901,59.0261],[26.3957,59.0266],[26.4001,59.0262]],[[26.3251,59.0283],[26.3287,59.0302],[26.3402,59.0273],[26.3473,59.0195],[26.3395,59.0148],[26.3271,59.0188],[26.3251,59.0283]]],[[[26.4761,59.1154],[26.4759,59.1242],[26.4758,59.1332],[26.4757,59.1422],[26.4755,59.1511],[26.4754,59.1601],[26.4752,59.1691],[26.4751,59.1777],[26.4721,59.1762],[26.4664,59.1785],[26.465,59.1797],[26.4633,59.1915],[26.4686,59.1922],[26.465,59.1975],[26.4687,59.2017],[26.4659,59.204],[26.47,59.2083],[26.4702,59.2086],[26.4712,59.2112],[26.4746,59.212],[26.4746,59.2129],[26.4667,59.2117],[26.4644,59.2083],[26.4529,59.2066],[26.4513,59.2033],[26.4552,59.199],[26.4508,59.1971],[26.4437,59.1996],[26.4459,59.2031],[26.4437,59.2059],[26.4493,59.2108],[26.4422,59.218],[26.4549,59.2152],[26.4568,59.2163],[26.4375,59.2222],[26.434,59.2247],[26.4314,59.2255],[26.4297,59.2295],[26.4364,59.2354],[26.4345,59.2372],[26.4338,59.2399],[26.427,59.2343],[26.42,59.2387],[26.4246,59.2403],[26.4266,59.2452],[26.4209,59.2443],[26.4114,59.2549],[26.4131,59.2558],[26.4182,59.2516],[26.4197,59.2539],[26.4306,59.2553],[26.4347,59.2498],[26.4434,59.2501],[26.4566,59.2561],[26.4542,59.2607],[26.4426,59.2669],[26.4417,59.2659],[26.4406,59.2656],[26.4397,59.2664],[26.4295,59.2628],[26.4279,59.2625],[26.4226,59.2619],[26.4209,59.2613],[26.4144,59.2614],[26.4136,59.2612],[26.4128,59.2597],[26.4116,59.2596],[26.4122,59.2569],[26.4019,59.2621],[26.3929,59.259],[26.3893,59.2577],[26.3891,59.2566],[26.3939,59.2532],[26.3991,59.2515],[26.4043,59.2521],[26.4083,59.246],[26.4017,59.2422],[26.4091,59.2416],[26.4107,59.2414],[26.4063,59.2384],[26.4197,59.2337],[26.4126,59.2323],[26.4068,59.2315],[26.4081,59.2212],[26.4131,59.2211],[26.41,59.2161],[26.4031,59.2158],[26.4049,59.2121],[26.3923,59.2098],[26.3714,59.207],[26.3625,59.2072],[26.3557,59.204],[26.3441,59.2027],[26.3314,59.1985],[26.332,59.1956],[26.3195,59.1959],[26.3195,59.1984],[26.3139,59.1984],[26.3093,59.1941],[26.3185,59.1916],[26.3208,59.1842],[26.3302,59.1825],[26.3323,59.1793],[26.3416,59.1759],[26.3463,59.1681],[26.3404,59.1656],[26.3459,59.159],[26.3591,59.1632],[26.366,59.1635],[26.3683,59.1583],[26.3654,59.1553],[26.3611,59.1521],[26.3485,59.1523],[26.3437,59.1496],[26.3336,59.1518],[26.3261,59.1457],[26.3427,59.1411],[26.346,59.1396],[26.3405,59.1391],[26.3398,59.1384],[26.339,59.1373],[26.3371,59.1362],[26.3365,59.1365],[26.3356,59.1358],[26.3341,59.1349],[26.3332,59.1344],[26.3322,59.1345],[26.3328,59.1342],[26.3348,59.1322],[26.3353,59.1271],[26.3399,59.1195],[26.3474,59.1165],[26.3478,59.1166],[26.3403,59.1213],[26.3511,59.125],[26.35,59.1301],[26.3622,59.1357],[26.3698,59.1329],[26.3728,59.1322],[26.3764,59.1315],[26.384,59.1332],[26.3894,59.1443],[26.393,59.145],[26.3976,59.1478],[26.4043,59.1464],[26.4111,59.138],[26.4074,59.1358],[26.4109,59.1316],[26.4124,59.1331],[26.4178,59.1301],[26.4183,59.1269],[26.4281,59.1279],[26.4354,59.1228],[26.4296,59.117],[26.4248,59.1145],[26.4197,59.1073],[26.4103,59.1059],[26.4152,59.1062],[26.4271,59.1029],[26.4235,59.1015],[26.422,59.0937],[26.4354,59.0941],[26.4362,59.0902],[26.4392,59.095],[26.4462,59.093],[26.4503,59.0963],[26.4462,59.0986],[26.4444,59.1044],[26.4604,59.1123],[26.4739,59.1136],[26.4751,59.1147],[26.4761,59.1154]]],[[[26.4745,59.2151],[26.4745,59.2171],[26.4727,59.2167],[26.4745,59.2151]]],[[[25.2588,59.0103],[25.259,59.0058],[25.2595,58.9968],[25.2599,58.9878],[25.2773,58.9881],[25.2947,58.9883],[25.3121,58.9885],[25.3295,58.9888],[25.3469,58.989],[25.3643,58.9892],[25.3817,58.9894],[25.3991,58.9896],[25.4164,58.9899],[25.4338,58.9901],[25.4512,58.9903],[25.4686,58.9905],[25.486,58.9907],[25.5034,58.9909],[25.5208,58.9911],[25.5382,58.9913],[25.5556,58.9915],[25.5603,58.9915],[25.5608,58.9919],[25.5708,58.9942],[25.5689,58.9973],[25.5704,58.9999],[25.5705,59.0008],[25.5689,59.0015],[25.5641,59.0071],[25.5612,59.0088],[25.5585,59.0006],[25.5509,59.0012],[25.5566,59.0121],[25.5451,59.0226],[25.53,59.03],[25.5156,59.0317],[25.5103,59.031],[25.5099,59.0311],[25.4989,59.0272],[25.4979,59.0264],[25.4871,59.0235],[25.4778,59.0268],[25.4711,59.0221],[25.4651,59.0225],[25.4605,59.0231],[25.4643,59.0312],[25.4649,59.0325],[25.447,59.0352],[25.4345,59.0406],[25.4291,59.036],[25.4147,59.0406],[25.4104,59.0355],[25.4052,59.0402],[25.3997,59.0401],[25.4002,59.0337],[25.386,59.0324],[25.3906,59.0389],[25.3893,59.0444],[25.391,59.0509],[25.3929,59.0515],[25.394,59.0491],[25.3938,59.0489],[25.3936,59.0475],[25.3976,59.0468],[25.4075,59.0475],[25.4108,59.048],[25.4115,59.0482],[25.4181,59.0502],[25.4011,59.0578],[25.3751,59.0628],[25.3613,59.0684],[25.3586,59.0694],[25.3492,59.0729],[25.3424,59.0677],[25.3435,59.0667],[25.3434,59.0589],[25.3482,59.0549],[25.3401,59.0528],[25.3442,59.0484],[25.349,59.0462],[25.3478,59.032],[25.3578,59.0236],[25.3587,59.0186],[25.35,59.0151],[25.3416,59.0157],[25.3352,59.0136],[25.3293,59.0092],[25.3242,59.0093],[25.3287,59.0152],[25.3275,59.0187],[25.3183,59.0172],[25.3115,59.0189],[25.3183,59.0113],[25.3016,59.0097],[25.2985,59.0123],[25.3027,59.0185],[25.3014,59.0241],[25.2985,59.0265],[25.3101,59.0319],[25.3105,59.0364],[25.3011,59.0417],[25.3034,59.0482],[25.3166,59.0538],[25.3278,59.0628],[25.3335,59.0633],[25.3424,59.0674],[25.3423,59.0676],[25.3448,59.0746],[25.3289,59.0819],[25.3256,59.0785],[25.3258,59.0784],[25.321,59.0764],[25.3179,59.0753],[25.3198,59.0777],[25.3205,59.0789],[25.3228,59.0786],[25.326,59.0795],[25.3271,59.0832],[25.3195,59.0904],[25.3151,59.1016],[25.306,59.1016],[25.3053,59.0994],[25.2949,59.099],[25.2998,59.0969],[25.2977,59.093],[25.2987,59.0923],[25.2918,59.0882],[25.2896,59.0874],[25.289,59.0874],[25.2887,59.0874],[25.2828,59.0876],[25.2808,59.0879],[25.2803,59.0855],[25.2708,59.0911],[25.2694,59.092],[25.2769,59.0892],[25.2784,59.0892],[25.2756,59.0917],[25.2767,59.098],[25.2635,59.095],[25.2637,59.0942],[25.2607,59.0927],[25.2595,59.0922],[25.2599,59.0915],[25.2571,59.0897],[25.2565,59.0889],[25.2562,59.0847],[25.255,59.0849],[25.2552,59.0811],[25.2567,59.0808],[25.2564,59.0797],[25.2598,59.0783],[25.2649,59.0772],[25.2748,59.0767],[25.2769,59.0758],[25.2722,59.0754],[25.264,59.0739],[25.2604,59.0699],[25.2603,59.069],[25.2601,59.0685],[25.2731,59.0638],[25.2816,59.0609],[25.2836,59.0558],[25.289,59.0521],[25.3002,59.0528],[25.3029,59.0493],[25.2923,59.0477],[25.2869,59.0437],[25.2904,59.0392],[25.2876,59.0337],[25.2644,59.0249],[25.258,59.0264],[25.258,59.0258],[25.2621,59.0247],[25.2615,59.0117],[25.2588,59.0103]]],[[[25.2569,59.047],[25.2572,59.0417],[25.2576,59.0338],[25.2615,59.0338],[25.2671,59.0371],[25.2755,59.0382],[25.2836,59.0432],[25.2735,59.0477],[25.2629,59.0475],[25.2628,59.0471],[25.2593,59.0461],[25.2584,59.0468],[25.2569,59.047]]],[[[25.7501,58.9935],[25.7522,58.9935],[25.7509,58.9947],[25.7501,58.9935]]],[[[26.1391,58.9967],[26.1472,58.9967],[26.1531,58.9968],[26.1462,58.9985],[26.1392,58.9973],[26.1391,58.9967]]],[[[26.1053,59.0256],[26.0999,59.0211],[26.1105,59.0197],[26.1147,59.0137],[26.1255,59.0156],[26.1304,59.0115],[26.1374,59.014],[26.1443,59.0234],[26.1506,59.0254],[26.1568,59.0233],[26.1477,59.0186],[26.1484,59.0134],[26.1581,59.0147],[26.1666,59.0158],[26.1724,59.0128],[26.1838,59.0142],[26.1864,59.0149],[26.1895,59.0179],[26.1825,59.0236],[26.1877,59.0255],[26.1905,59.0266],[26.199,59.0201],[26.2056,59.0167],[26.2161,59.0141],[26.2164,59.01],[26.2266,59.0061],[26.2254,59.0019],[26.2282,58.9992],[26.2391,58.9973],[26.2413,58.9973],[26.2396,59.0104],[26.2289,59.0143],[26.2365,59.0199],[26.2376,59.0249],[26.2438,59.021],[26.2485,59.0217],[26.2438,59.0303],[26.2517,59.0373],[26.2591,59.0359],[26.27,59.0402],[26.2782,59.0433],[26.2828,59.0475],[26.2768,59.0522],[26.2754,59.0539],[26.2686,59.0521],[26.2601,59.0545],[26.262,59.0595],[26.276,59.0603],[26.2764,59.0684],[26.2775,59.0695],[26.2761,59.0707],[26.2626,59.0684],[26.2568,59.0638],[26.254,59.0766],[26.2552,59.083],[26.2575,59.0837],[26.258,59.0857],[26.2563,59.0873],[26.246,59.0856],[26.2387,59.0888],[26.2428,59.0935],[26.232,59.0957],[26.2309,59.0994],[26.2279,59.0986],[26.2273,59.0932],[26.2346,59.0894],[26.226,59.0867],[26.2167,59.0888],[26.2189,59.0962],[26.2231,59.0998],[26.2255,59.0993],[26.2261,59.0997],[26.2286,59.1013],[26.2337,59.1007],[26.2363,59.107],[26.2414,59.1074],[26.2433,59.1011],[26.247,59.1034],[26.2466,59.1074],[26.2441,59.1093],[26.2402,59.1117],[26.2326,59.1062],[26.2258,59.1082],[26.2238,59.1154],[26.2165,59.1124],[26.2116,59.1261],[26.2161,59.1301],[26.2148,59.1311],[26.2074,59.133],[26.2093,59.1396],[26.2072,59.1423],[26.2111,59.1478],[26.204,59.1489],[26.2062,59.1504],[26.2067,59.1551],[26.2047,59.1558],[26.1929,59.1532],[26.1884,59.1503],[26.1777,59.1515],[26.1752,59.1489],[26.1639,59.1521],[26.1692,59.1574],[26.156,59.1593],[26.1523,59.1559],[26.1454,59.1571],[26.1438,59.1531],[26.1351,59.1531],[26.1358,59.1468],[26.1425,59.1421],[26.1437,59.1368],[26.1589,59.1091],[26.1697,59.11],[26.1695,59.111],[26.1575,59.1117],[26.1563,59.1146],[26.1674,59.1163],[26.1774,59.119],[26.1795,59.132],[26.186,59.1342],[26.1956,59.1313],[26.1994,59.1291],[26.202,59.1274],[26.2035,59.126],[26.2048,59.1249],[26.2076,59.125],[26.2095,59.1189],[26.1982,59.1069],[26.185,59.1044],[26.1711,59.1021],[26.169,59.0986],[26.1742,59.1014],[26.1981,59.1052],[26.2089,59.1136],[26.2163,59.1048],[26.2154,59.101],[26.2077,59.0991],[26.2068,59.0974],[26.2095,59.0952],[26.2104,59.0919],[26.2151,59.0879],[26.2148,59.0877],[26.2125,59.0859],[26.2189,59.0799],[26.2216,59.08],[26.2273,59.0739],[26.2254,59.0737],[26.2242,59.0736],[26.2279,59.0713],[26.2267,59.0653],[26.2169,59.0652],[26.2052,59.0699],[26.199,59.0714],[26.1981,59.0719],[26.1971,59.0724],[26.1955,59.0675],[26.1878,59.0612],[26.187,59.0581],[26.1992,59.0567],[26.2037,59.059],[26.2113,59.0514],[26.2199,59.0543],[26.2126,59.0581],[26.2198,59.0595],[26.2229,59.0631],[26.233,59.0605],[26.2276,59.0551],[26.2219,59.0533],[26.2231,59.0525],[26.2333,59.0491],[26.2336,59.0451],[26.2358,59.0425],[26.237,59.0354],[26.2332,59.0364],[26.2355,59.0294],[26.2234,59.0307],[26.2185,59.0332],[26.217,59.0329],[26.2031,59.0296],[26.1993,59.0322],[26.1934,59.0452],[26.1897,59.0565],[26.187,59.0566],[26.1848,59.055],[26.1746,59.0594],[26.169,59.0564],[26.1594,59.0581],[26.1641,59.0647],[26.1621,59.0693],[26.1593,59.0691],[26.16,59.0629],[26.1552,59.0581],[26.1404,59.0658],[26.1524,59.07],[26.161,59.0734],[26.1516,59.0754],[26.1424,59.0765],[26.1448,59.0693],[26.1279,59.0703],[26.1261,59.0707],[26.123,59.07],[26.1229,59.0667],[26.1157,59.0631],[26.1145,59.0627],[26.1181,59.0575],[26.1112,59.054],[26.1182,59.0502],[26.1204,59.0489],[26.1397,59.0497],[26.1468,59.0457],[26.1373,59.0446],[26.1244,59.0435],[26.1227,59.046],[26.1171,59.0432],[26.1087,59.0451],[26.1044,59.0522],[26.1018,59.0581],[26.0976,59.063],[26.0879,59.0623],[26.0856,59.0599],[26.0894,59.0575],[26.087,59.0556],[26.0934,59.0492],[26.0908,59.0479],[26.0913,59.0478],[26.0941,59.039],[26.1044,59.035],[26.1084,59.033],[26.1042,59.0294],[26.1053,59.0256]]],[[[25.7191,59.0547],[25.717,59.0498],[25.7029,59.0481],[25.7018,59.0503],[25.701,59.0521],[25.6911,59.053],[25.6835,59.0507],[25.6732,59.0586],[25.6791,59.0654],[25.6798,59.0737],[25.6752,59.0747],[25.675,59.0809],[25.6733,59.0842],[25.6729,59.0848],[25.6706,59.0853],[25.6673,59.0864],[25.6658,59.0866],[25.6636,59.0883],[25.6591,59.0884],[25.6571,59.0885],[25.6567,59.0884],[25.6557,59.0874],[25.6431,59.081],[25.6347,59.0797],[25.6346,59.0788],[25.6374,59.0776],[25.641,59.0752],[25.6456,59.078],[25.6644,59.071],[25.6653,59.0701],[25.6682,59.0664],[25.6679,59.0635],[25.6669,59.0629],[25.6604,59.0606],[25.657,59.0559],[25.6623,59.0522],[25.6503,59.0482],[25.649,59.0447],[25.6514,59.0429],[25.6535,59.0429],[25.6707,59.0424],[25.6876,59.0392],[25.6902,59.033],[25.6859,59.0279],[25.6842,59.0231],[25.6516,59.0182],[25.6446,59.0126],[25.6575,59.013],[25.6682,59.0168],[25.6714,59.0194],[25.678,59.0202],[25.6927,59.0239],[25.7022,59.0277],[25.7013,59.0292],[25.6997,59.0294],[25.7057,59.0325],[25.7045,59.04],[25.6919,59.0401],[25.7033,59.0434],[25.72,59.0431],[25.7237,59.0394],[25.7285,59.0375],[25.7368,59.0396],[25.7376,59.0389],[25.7306,59.0345],[25.732,59.0303],[25.7393,59.0303],[25.7415,59.027],[25.7542,59.025],[25.7539,59.0353],[25.7485,59.0355],[25.7444,59.042],[25.7567,59.0515],[25.7498,59.0566],[25.738,59.0608],[25.7388,59.0629],[25.7365,59.0659],[25.7388,59.0714],[25.7489,59.0702],[25.7557,59.0669],[25.7633,59.0695],[25.7639,59.0724],[25.7669,59.0672],[25.7684,59.065],[25.7721,59.0657],[25.778,59.0692],[25.7837,59.0689],[25.7854,59.0641],[25.7984,59.0653],[25.7985,59.0685],[25.7931,59.0763],[25.7861,59.077],[25.7836,59.0764],[25.772,59.0759],[25.768,59.0735],[25.7606,59.0762],[25.7445,59.076],[25.74,59.0796],[25.7332,59.0793],[25.7314,59.0806],[25.7167,59.0834],[25.7088,59.0831],[25.705,59.0763],[25.7152,59.0742],[25.719,59.0714],[25.7279,59.0745],[25.7184,59.0653],[25.7129,59.0639],[25.7108,59.0604],[25.7111,59.0598],[25.7191,59.0621],[25.7274,59.0608],[25.7203,59.0564],[25.7191,59.0547]]],[[[25.6429,59.105],[25.6381,59.1016],[25.6276,59.1008],[25.6168,59.1039],[25.607,59.1088],[25.6073,59.1145],[25.6115,59.12],[25.616,59.122],[25.6244,59.1181],[25.6285,59.1212],[25.6259,59.1252],[25.6436,59.1241],[25.6419,59.1138],[25.6467,59.1088],[25.6461,59.1161],[25.6459,59.1236],[25.6383,59.1296],[25.6347,59.1307],[25.6302,59.1285],[25.6211,59.1283],[25.6169,59.1274],[25.6095,59.1302],[25.6049,59.1283],[25.6101,59.1247],[25.6066,59.1195],[25.6023,59.1203],[25.5953,59.1194],[25.5869,59.124],[25.5762,59.1259],[25.5671,59.1213],[25.5713,59.1182],[25.5613,59.1211],[25.5502,59.1222],[25.5407,59.1276],[25.5339,59.137],[25.5283,59.1327],[25.5287,59.1398],[25.5232,59.1424],[25.521,59.1493],[25.5043,59.1522],[25.5038,59.1541],[25.4996,59.1553],[25.4937,59.1593],[25.4704,59.1599],[25.4526,59.1586],[25.4432,59.1576],[25.4389,59.1536],[25.4209,59.1424],[25.4058,59.1431],[25.4015,59.1449],[25.3885,59.1448],[25.3812,59.1425],[25.3759,59.1352],[25.371,59.1319],[25.3541,59.1256],[25.3599,59.1233],[25.3656,59.1228],[25.3729,59.1178],[25.3866,59.1106],[25.3853,59.1075],[25.3905,59.104],[25.3953,59.1032],[25.3993,59.104],[25.3989,59.1059],[25.4029,59.1076],[25.4086,59.1082],[25.4027,59.1031],[25.4007,59.1028],[25.3973,59.1034],[25.3958,59.1031],[25.3909,59.1037],[25.3899,59.1011],[25.3988,59.0974],[25.4011,59.093],[25.3952,59.0908],[25.4211,59.0785],[25.4304,59.069],[25.4371,59.0668],[25.4397,59.0651],[25.4404,59.0651],[25.4502,59.0628],[25.4492,59.0592],[25.4398,59.0578],[25.4394,59.0578],[25.4375,59.0538],[25.4314,59.0515],[25.4523,59.036],[25.467,59.0357],[25.4685,59.0417],[25.4747,59.0448],[25.4743,59.0427],[25.4717,59.0392],[25.471,59.0381],[25.4697,59.0357],[25.4693,59.0346],[25.4693,59.0337],[25.4834,59.0313],[25.4961,59.0313],[25.496,59.0327],[25.4961,59.0334],[25.4983,59.0315],[25.5037,59.0321],[25.5108,59.0333],[25.5196,59.0339],[25.532,59.0371],[25.5485,59.0376],[25.5505,59.0392],[25.5512,59.0396],[25.5537,59.0412],[25.5535,59.0461],[25.5437,59.0499],[25.5396,59.0502],[25.5503,59.0436],[25.5408,59.0385],[25.53,59.0404],[25.518,59.0379],[25.5093,59.0425],[25.5132,59.0493],[25.492,59.0505],[25.495,59.0602],[25.5015,59.0612],[25.4974,59.0659],[25.5064,59.0697],[25.5096,59.0702],[25.5106,59.0672],[25.5155,59.0624],[25.5134,59.0602],[25.5139,59.0584],[25.5218,59.0627],[25.5226,59.0577],[25.5249,59.0559],[25.5436,59.0537],[25.5448,59.054],[25.5479,59.049],[25.561,59.0476],[25.5662,59.0521],[25.5697,59.0605],[25.5748,59.0628],[25.6046,59.0647],[25.6134,59.0752],[25.6202,59.0757],[25.6319,59.0811],[25.6366,59.0841],[25.6359,59.0845],[25.6316,59.0862],[25.6184,59.085],[25.6218,59.0877],[25.635,59.0916],[25.6387,59.0933],[25.6506,59.097],[25.653,59.1],[25.6495,59.0982],[25.6353,59.0952],[25.645,59.1042],[25.6429,59.105]],[[25.5417,59.1015],[25.5289,59.1019],[25.5219,59.0932],[25.5123,59.0929],[25.5114,59.0968],[25.4978,59.1003],[25.4994,59.1096],[25.5056,59.1172],[25.5149,59.1155],[25.516,59.1128],[25.5214,59.1108],[25.5355,59.1181],[25.5384,59.1171],[25.5342,59.1134],[25.522,59.1081],[25.5248,59.1059],[25.5329,59.1063],[25.541,59.109],[25.5453,59.1059],[25.5417,59.1015]],[[25.5112,59.0707],[25.506,59.0715],[25.503,59.0803],[25.5039,59.0834],[25.5093,59.084],[25.5132,59.0795],[25.5299,59.081],[25.5309,59.0768],[25.5273,59.071],[25.5219,59.0683],[25.5112,59.0707]],[[25.4074,59.1301],[25.4053,59.1343],[25.4035,59.141],[25.4171,59.1418],[25.4228,59.1395],[25.4284,59.134],[25.4246,59.128],[25.4126,59.1259],[25.4074,59.1301]],[[25.4499,59.1242],[25.4545,59.1275],[25.4697,59.1315],[25.472,59.1267],[25.472,59.12],[25.4846,59.123],[25.4894,59.1081],[25.4706,59.1049],[25.4557,59.1067],[25.4538,59.11],[25.445,59.113],[25.4499,59.1242]],[[25.453,59.053],[25.4566,59.0575],[25.4687,59.0589],[25.4755,59.0522],[25.4686,59.0438],[25.4569,59.0441],[25.453,59.053]]],[[[25.9458,59.1196],[25.9403,59.1182],[25.9352,59.1089],[25.928,59.1094],[25.919,59.1122],[25.924,59.1028],[25.925,59.0921],[25.9263,59.0905],[25.9334,59.0866],[25.9367,59.0925],[25.9442,59.0898],[25.9586,59.093],[25.9547,59.0957],[25.9493,59.0992],[25.9573,59.1011],[25.9634,59.1084],[25.9649,59.1092],[25.979,59.1124],[25.9796,59.1196],[25.9807,59.1199],[25.9831,59.1228],[25.9751,59.1258],[25.9674,59.1286],[25.9729,59.1299],[25.9824,59.1335],[25.9887,59.1311],[25.9906,59.1276],[25.9919,59.1279],[25.9981,59.1247],[26.0078,59.1197],[26.0082,59.115],[26.0209,59.1148],[26.0209,59.1152],[26.0156,59.1159],[26.0091,59.125],[26.0121,59.1271],[26.0087,59.1306],[26.0042,59.1302],[26.0025,59.133],[26.0077,59.1368],[26.0096,59.1425],[26.0196,59.1437],[26.0216,59.1435],[26.0277,59.141],[26.0328,59.1452],[26.0383,59.1477],[26.0529,59.1491],[26.0551,59.1464],[26.0504,59.1417],[26.0536,59.1364],[26.049,59.1346],[26.0447,59.1305],[26.0375,59.1289],[26.047,59.1244],[26.0569,59.1274],[26.0445,59.121],[26.0314,59.1159],[26.0419,59.1158],[26.0482,59.1152],[26.0517,59.1145],[26.0573,59.1138],[26.069,59.111],[26.0747,59.1119],[26.079,59.1066],[26.0852,59.1063],[26.0869,59.1061],[26.073,59.1023],[26.0646,59.0979],[26.0617,59.0956],[26.0769,59.0925],[26.0791,59.0917],[26.083,59.0939],[26.0877,59.0947],[26.0875,59.0986],[26.0926,59.1057],[26.0865,59.1076],[26.0918,59.1128],[26.0869,59.1167],[26.0973,59.1147],[26.0995,59.1107],[26.1002,59.1049],[26.0986,59.0972],[26.1028,59.0928],[26.112,59.0911],[26.1148,59.0887],[26.1167,59.0857],[26.1194,59.0832],[26.1292,59.0854],[26.1333,59.0869],[26.1347,59.0954],[26.1389,59.0998],[26.1428,59.0979],[26.1481,59.0982],[26.1462,59.1038],[26.1561,59.1078],[26.1531,59.1132],[26.1512,59.1205],[26.1498,59.1232],[26.1374,59.12],[26.1369,59.1242],[26.1315,59.1285],[26.1245,59.1295],[26.1127,59.1372],[26.1093,59.1386],[26.1061,59.1385],[26.102,59.1347],[26.0928,59.1334],[26.0862,59.1347],[26.0892,59.1419],[26.0967,59.1443],[26.0984,59.1395],[26.1061,59.1403],[26.0994,59.1441],[26.1073,59.1482],[26.1099,59.1518],[26.0969,59.1453],[26.0919,59.1474],[26.0869,59.1435],[26.0836,59.1396],[26.0701,59.1461],[26.078,59.1487],[26.0775,59.1502],[26.0671,59.1498],[26.0614,59.1524],[26.0525,59.1524],[26.0617,59.1562],[26.065,59.159],[26.0542,59.1684],[26.045,59.1631],[26.039,59.1675],[26.0323,59.1624],[26.0321,59.1617],[26.02,59.1587],[26.024,59.1573],[26.0177,59.1541],[26.0122,59.1497],[25.9988,59.1518],[25.9935,59.1456],[25.9807,59.1486],[25.9853,59.1518],[25.9906,59.1544],[26.0026,59.1555],[26.0042,59.16],[26.011,59.1591],[26.0172,59.163],[26.0236,59.1635],[26.0214,59.1669],[26.0169,59.1738],[26.0239,59.1786],[26.0112,59.1787],[26.0102,59.1787],[25.9742,59.1813],[25.9744,59.1803],[25.9797,59.1785],[25.9815,59.1697],[25.9788,59.1646],[25.9845,59.1624],[25.9793,59.1555],[25.9689,59.1538],[25.9609,59.1522],[25.9553,59.1554],[25.9508,59.1556],[25.9428,59.1555],[25.9396,59.1522],[25.9324,59.1518],[25.9276,59.1563],[25.9292,59.1593],[25.9239,59.1634],[25.9286,59.1701],[25.9256,59.1712],[25.9114,59.1697],[25.9023,59.1682],[25.8993,59.1595],[25.8945,59.1574],[25.8989,59.1545],[25.9061,59.1548],[25.91,59.1517],[25.9116,59.152],[25.9124,59.1511],[25.9279,59.1487],[25.9334,59.1451],[25.9372,59.1374],[25.933,59.1359],[25.9315,59.1356],[25.9374,59.1307],[25.9452,59.1271],[25.9554,59.1309],[25.959,59.1299],[25.96,59.1234],[25.9554,59.1209],[25.9458,59.1196]]],[[[25.5876,59.1531],[25.583,59.1541],[25.581,59.1607],[25.5819,59.1615],[25.5862,59.1641],[25.5864,59.171],[25.5957,59.1672],[25.5957,59.1723],[25.5914,59.1732],[25.604,59.1856],[25.6144,59.1829],[25.6194,59.1853],[25.6202,59.1943],[25.6322,59.1968],[25.6177,59.1983],[25.6132,59.1963],[25.6118,59.1954],[25.6127,59.1947],[25.611,59.194],[25.61,59.1936],[25.6085,59.1919],[25.6079,59.1913],[25.6064,59.1899],[25.6015,59.1885],[25.6013,59.1885],[25.5943,59.1814],[25.5898,59.179],[25.5895,59.1789],[25.5798,59.1754],[25.582,59.1808],[25.5831,59.1828],[25.5751,59.1812],[25.5773,59.186],[25.5729,59.1924],[25.5595,59.1962],[25.5579,59.1995],[25.5488,59.1999],[25.5425,59.205],[25.5159,59.2067],[25.4841,59.2088],[25.48,59.2064],[25.4781,59.2059],[25.4743,59.2094],[25.4455,59.2101],[25.445,59.2087],[25.4493,59.2064],[25.4561,59.2071],[25.4598,59.2033],[25.4596,59.2017],[25.4432,59.2016],[25.431,59.2033],[25.4272,59.2027],[25.4254,59.201],[25.4235,59.1985],[25.4205,59.1955],[25.4229,59.1934],[25.4221,59.1926],[25.4221,59.1923],[25.4146,59.1839],[25.4009,59.1823],[25.4047,59.1898],[25.3985,59.1904],[25.3913,59.1952],[25.3966,59.1958],[25.3957,59.197],[25.3938,59.2006],[25.3969,59.2025],[25.3974,59.2101],[25.4012,59.2144],[25.3903,59.2166],[25.3846,59.2148],[25.3887,59.2023],[25.3825,59.2035],[25.3789,59.2048],[25.3721,59.2073],[25.3605,59.2079],[25.3575,59.213],[25.3549,59.2157],[25.3545,59.2208],[25.3614,59.2205],[25.3738,59.2233],[25.3652,59.2257],[25.3523,59.2248],[25.3492,59.2239],[25.3507,59.2269],[25.3535,59.2271],[25.3535,59.2282],[25.3536,59.2295],[25.336,59.235],[25.331,59.2306],[25.3296,59.2298],[25.328,59.2308],[25.3264,59.2316],[25.3206,59.2319],[25.3165,59.2375],[25.3078,59.2374],[25.299,59.2297],[25.2917,59.2312],[25.2841,59.229],[25.2866,59.2301],[25.2846,59.2313],[25.284,59.2313],[25.2838,59.2313],[25.2829,59.2322],[25.2782,59.2275],[25.2778,59.2227],[25.285,59.2244],[25.278,59.2217],[25.2835,59.2173],[25.2919,59.2154],[25.2971,59.2186],[25.3086,59.2165],[25.3093,59.2168],[25.3087,59.2113],[25.3,59.2022],[25.297,59.2004],[25.3048,59.196],[25.2995,59.1929],[25.2998,59.1908],[25.2892,59.1895],[25.2838,59.1829],[25.2867,59.1895],[25.287,59.1967],[25.2841,59.1938],[25.267,59.1933],[25.2648,59.1962],[25.2715,59.2019],[25.2689,59.2045],[25.2598,59.2043],[25.2589,59.2037],[25.257,59.2029],[25.255,59.2031],[25.2539,59.2036],[25.25,59.2013],[25.2503,59.2008],[25.254,59.1982],[25.2497,59.1898],[25.2497,59.1891],[25.2531,59.1864],[25.2597,59.1894],[25.2622,59.1911],[25.2739,59.1893],[25.2761,59.1848],[25.2635,59.1853],[25.25,59.184],[25.25,59.1839],[25.2598,59.181],[25.2703,59.1795],[25.2769,59.1806],[25.2785,59.1805],[25.2807,59.1748],[25.2761,59.1702],[25.2753,59.17],[25.2755,59.168],[25.2768,59.1671],[25.2856,59.1679],[25.2867,59.1683],[25.2905,59.1681],[25.2934,59.1689],[25.2942,59.1684],[25.2958,59.1683],[25.2964,59.1678],[25.2954,59.1674],[25.2973,59.1653],[25.2985,59.1647],[25.3086,59.1625],[25.3197,59.1648],[25.3206,59.1608],[25.3282,59.1612],[25.3345,59.1599],[25.3333,59.1545],[25.3255,59.1509],[25.3308,59.1457],[25.3323,59.1461],[25.3357,59.146],[25.3386,59.146],[25.3398,59.1471],[25.3489,59.1452],[25.3498,59.1453],[25.352,59.1456],[25.3519,59.1452],[25.3472,59.14],[25.3479,59.1414],[25.3361,59.1367],[25.335,59.1362],[25.3349,59.132],[25.3297,59.1348],[25.327,59.1318],[25.3267,59.1305],[25.3247,59.1321],[25.3206,59.1255],[25.3294,59.1245],[25.3301,59.126],[25.3408,59.1278],[25.3407,59.128],[25.3468,59.1303],[25.3531,59.1259],[25.3705,59.1323],[25.3809,59.1429],[25.3884,59.1452],[25.3986,59.1465],[25.4117,59.143],[25.4152,59.1447],[25.416,59.1481],[25.4086,59.1592],[25.4046,59.1621],[25.4047,59.1675],[25.3973,59.1683],[25.3999,59.1669],[25.3938,59.1601],[25.3839,59.1615],[25.37,59.1613],[25.3671,59.1618],[25.3644,59.1604],[25.36,59.1563],[25.3524,59.1564],[25.3437,59.1526],[25.3438,59.1541],[25.3517,59.1651],[25.3582,59.1663],[25.3614,59.1696],[25.3681,59.172],[25.3747,59.1733],[25.3793,59.1691],[25.3754,59.1747],[25.383,59.173],[25.3909,59.1733],[25.3959,59.1744],[25.4135,59.1774],[25.4156,59.1689],[25.4223,59.1711],[25.429,59.1747],[25.4319,59.1747],[25.4417,59.1742],[25.4487,59.171],[25.4381,59.1714],[25.4304,59.1698],[25.4307,59.1593],[25.4396,59.1579],[25.4414,59.1576],[25.4702,59.1603],[25.492,59.16],[25.4926,59.1656],[25.4851,59.1712],[25.4852,59.176],[25.4723,59.1854],[25.4702,59.1893],[25.4834,59.1796],[25.4891,59.1783],[25.4967,59.1796],[25.5037,59.1769],[25.5159,59.164],[25.5206,59.1521],[25.5236,59.1445],[25.5287,59.1429],[25.5379,59.1443],[25.5459,59.146],[25.551,59.1496],[25.5504,59.1579],[25.5632,59.1612],[25.573,59.1578],[25.5747,59.1521],[25.5628,59.139],[25.555,59.1421],[25.546,59.1426],[25.5485,59.1383],[25.545,59.133],[25.5502,59.1308],[25.5551,59.1275],[25.5636,59.1264],[25.5728,59.1246],[25.5875,59.1304],[25.5876,59.1347],[25.5854,59.1388],[25.5743,59.1389],[25.574,59.1387],[25.5685,59.1369],[25.5678,59.1364],[25.5626,59.1344],[25.5653,59.1394],[25.5744,59.139],[25.5757,59.1425],[25.5744,59.1485],[25.5811,59.1507],[25.5897,59.1473],[25.6008,59.1474],[25.6085,59.146],[25.6158,59.1512],[25.6077,59.1503],[25.6025,59.1524],[25.6114,59.1586],[25.6061,59.1605],[25.5924,59.1562],[25.5876,59.1531]],[[25.5077,59.1842],[25.5135,59.1879],[25.5186,59.1949],[25.529,59.1968],[25.5475,59.1946],[25.5531,59.1903],[25.5489,59.1758],[25.5398,59.1726],[25.5307,59.1726],[25.5235,59.1701],[25.5138,59.1724],[25.5094,59.1772],[25.5077,59.1842]]],[[[25.9145,59.1888],[25.9141,59.1881],[25.9148,59.1864],[25.9162,59.1859],[25.9335,59.1854],[25.9358,59.1852],[25.9387,59.1902],[25.9484,59.187],[25.9511,59.1862],[25.9639,59.1911],[25.964,59.1918],[25.9626,59.193],[25.9596,59.1949],[25.9517,59.1894],[25.9517,59.1896],[25.9517,59.191],[25.9513,59.1912],[25.9474,59.1911],[25.9444,59.1921],[25.9442,59.1923],[25.9417,59.194],[25.9436,59.1942],[25.9472,59.1949],[25.9518,59.1958],[25.952,59.1958],[25.9559,59.1961],[25.9568,59.1963],[25.9568,59.1964],[25.9576,59.1966],[25.9528,59.1976],[25.9407,59.2034],[25.9375,59.2085],[25.9252,59.2026],[25.9182,59.2055],[25.91,59.2063],[25.9101,59.2061],[25.9062,59.203],[25.9099,59.1983],[25.9177,59.1935],[25.9145,59.1888]]],[[[26.1844,59.2027],[26.1835,59.2016],[26.1814,59.1964],[26.185,59.1933],[26.1951,59.1972],[26.209,59.1971],[26.2387,59.2073],[26.24,59.2098],[26.2412,59.2113],[26.2311,59.2134],[26.2176,59.2054],[26.2081,59.2057],[26.2069,59.2063],[26.2065,59.2068],[26.2062,59.2078],[26.2056,59.2087],[26.2048,59.209],[26.1997,59.2122],[26.1987,59.213],[26.195,59.217],[26.1931,59.222],[26.1941,59.223],[26.2005,59.2255],[26.2004,59.2264],[26.1973,59.2282],[26.1957,59.237],[26.1906,59.2385],[26.1896,59.2386],[26.1882,59.2393],[26.1896,59.2401],[26.1904,59.2404],[26.1847,59.2431],[26.1821,59.2394],[26.1753,59.2395],[26.1746,59.245],[26.1804,59.247],[26.1843,59.2509],[26.1973,59.2488],[26.2052,59.2504],[26.2075,59.2575],[26.209,59.2581],[26.2047,59.2613],[26.2032,59.2626],[26.2018,59.2662],[26.195,59.2661],[26.1961,59.2632],[26.189,59.2597],[26.1828,59.2627],[26.1786,59.2629],[26.1889,59.2697],[26.1886,59.2754],[26.1875,59.277],[26.1869,59.2767],[26.1846,59.2732],[26.1709,59.2714],[26.1696,59.2775],[26.177,59.277],[26.1778,59.2814],[26.1517,59.2753],[26.1455,59.2739],[26.1416,59.2729],[26.1533,59.2713],[26.1542,59.2708],[26.1574,59.2675],[26.1521,59.2679],[26.1416,59.2704],[26.1415,59.2671],[26.135,59.262],[26.1396,59.2594],[26.1522,59.2619],[26.1544,59.2537],[26.153,59.2504],[26.1549,59.2446],[26.1634,59.2446],[26.1649,59.2497],[26.1686,59.2451],[26.1692,59.2366],[26.1623,59.2351],[26.1626,59.2307],[26.1608,59.2276],[26.1511,59.2286],[26.1489,59.2315],[26.147,59.2388],[26.151,59.2447],[26.1449,59.2496],[26.1421,59.2459],[26.1446,59.2417],[26.1381,59.2386],[26.1317,59.2416],[26.1271,59.2396],[26.115,59.2322],[26.1163,59.2313],[26.1262,59.2277],[26.1295,59.2289],[26.136,59.2298],[26.1384,59.2343],[26.1451,59.2342],[26.1435,59.2249],[26.1596,59.2239],[26.1658,59.2278],[26.168,59.2237],[26.1619,59.2236],[26.1403,59.2196],[26.1507,59.2102],[26.164,59.2056],[26.1658,59.2111],[26.1755,59.208],[26.1762,59.2083],[26.1796,59.2132],[26.1892,59.2107],[26.191,59.2107],[26.1933,59.205],[26.1854,59.2052],[26.1844,59.2027]]],[[[26.4737,59.2705],[26.4736,59.2762],[26.4696,59.2778],[26.4728,59.2866],[26.4692,59.288],[26.4396,59.2774],[26.4453,59.2735],[26.4453,59.2717],[26.4456,59.2717],[26.4512,59.2694],[26.4509,59.2689],[26.4457,59.2688],[26.4444,59.2684],[26.4443,59.2673],[26.4449,59.2661],[26.4549,59.2611],[26.4598,59.2646],[26.4606,59.2655],[26.4725,59.2701],[26.4737,59.2705]]],[[[26.0749,59.2104],[26.0758,59.211],[26.0861,59.2081],[26.0707,59.2014],[26.0704,59.2002],[26.0681,59.1989],[26.0675,59.1938],[26.072,59.1886],[26.081,59.1915],[26.0738,59.197],[26.0808,59.2013],[26.0847,59.2032],[26.0953,59.2106],[26.1032,59.2106],[26.1095,59.2117],[26.1331,59.2132],[26.1244,59.2187],[26.1239,59.2243],[26.1139,59.2254],[26.1042,59.2293],[26.1094,59.2312],[26.1025,59.2337],[26.0934,59.2354],[26.0958,59.2306],[26.1086,59.2245],[26.1018,59.2214],[26.0991,59.2223],[26.0976,59.2228],[26.0955,59.2238],[26.0897,59.2205],[26.0788,59.2245],[26.0839,59.2281],[26.092,59.2256],[26.0887,59.2292],[26.0846,59.2295],[26.0719,59.2235],[26.068,59.2215],[26.0615,59.2176],[26.0694,59.2121],[26.0749,59.2104]]],[[[26.2682,59.2403],[26.2713,59.244],[26.2716,59.2469],[26.2674,59.2472],[26.2578,59.2459],[26.2484,59.2478],[26.2386,59.2473],[26.2393,59.2493],[26.2287,59.2582],[26.2174,59.2574],[26.2213,59.254],[26.2228,59.2528],[26.2257,59.25],[26.2214,59.2454],[26.2099,59.2443],[26.1998,59.242],[26.2046,59.2393],[26.2026,59.2348],[26.2239,59.2341],[26.2311,59.2398],[26.2332,59.2414],[26.2461,59.2446],[26.2556,59.2395],[26.2682,59.2403]]],[[[25.8485,59.2698],[25.8403,59.2724],[25.8395,59.2725],[25.8227,59.2779],[25.8262,59.28],[25.838,59.2768],[25.8485,59.2777],[25.8528,59.279],[25.8382,59.2792],[25.8427,59.288],[25.847,59.2907],[25.8565,59.2906],[25.8768,59.2893],[25.8768,59.2892],[25.8761,59.2867],[25.8815,59.2881],[25.8895,59.2844],[25.8916,59.2799],[25.8824,59.2782],[25.8807,59.2779],[25.8821,59.2768],[25.8946,59.2779],[25.8948,59.2779],[25.8947,59.278],[25.8944,59.2797],[25.895,59.286],[25.896,59.2883],[25.8832,59.2959],[25.883,59.3062],[25.8869,59.3048],[25.8864,59.2966],[25.8949,59.2919],[25.9001,59.295],[25.897,59.2982],[25.9045,59.2975],[25.9126,59.296],[25.9015,59.2965],[25.9135,59.2867],[25.913,59.2846],[25.9138,59.2803],[25.9189,59.2736],[25.9298,59.2727],[25.9344,59.2709],[25.9413,59.2691],[25.9531,59.2756],[25.9555,59.2743],[25.9577,59.2744],[25.9498,59.2804],[25.9467,59.2854],[25.9329,59.2891],[25.9212,59.2913],[25.9152,59.2983],[25.9103,59.2998],[25.8953,59.306],[25.8884,59.3093],[25.8845,59.315],[25.8851,59.3175],[25.868,59.319],[25.8623,59.3206],[25.8495,59.3261],[25.8475,59.3332],[25.838,59.3426],[25.8295,59.3439],[25.8219,59.3446],[25.8258,59.3506],[25.8361,59.351],[25.8325,59.3469],[25.8408,59.3446],[25.8456,59.3466],[25.8555,59.3446],[25.8604,59.3501],[25.8614,59.3502],[25.8623,59.3544],[25.8769,59.3545],[25.8859,59.3566],[25.896,59.3561],[25.9036,59.3493],[25.9118,59.3547],[25.922,59.3544],[25.9261,59.3515],[25.9218,59.3376],[25.9341,59.3374],[25.9369,59.3338],[25.9367,59.3239],[25.9255,59.319],[25.9151,59.3181],[25.9135,59.3186],[25.9125,59.3189],[25.9098,59.324],[25.9006,59.3273],[25.905,59.3311],[25.895,59.3396],[25.8873,59.3333],[25.8785,59.3359],[25.8749,59.3378],[25.8658,59.339],[25.8664,59.3369],[25.8628,59.338],[25.8619,59.3387],[25.8555,59.3419],[25.8444,59.3414],[25.8519,59.3341],[25.8602,59.3312],[25.8614,59.3304],[25.8627,59.325],[25.8756,59.3188],[25.8801,59.3198],[25.8872,59.317],[25.8901,59.3114],[25.9072,59.305],[25.9125,59.3029],[25.9191,59.3007],[25.9252,59.2935],[25.9323,59.2935],[25.9323,59.299],[25.9381,59.2942],[25.9484,59.2936],[25.9494,59.2949],[25.953,59.291],[25.9594,59.2902],[25.9655,59.285],[25.9714,59.2873],[25.9699,59.2923],[25.9738,59.2942],[25.9592,59.297],[25.9683,59.303],[25.9615,59.3007],[25.9481,59.302],[25.9457,59.3061],[25.9426,59.3017],[25.938,59.3082],[25.9438,59.3104],[25.9422,59.3182],[25.9517,59.3149],[25.9479,59.3074],[25.9555,59.307],[25.9608,59.3127],[25.954,59.3177],[25.9734,59.3173],[25.9628,59.32],[25.9658,59.3239],[25.9747,59.3272],[25.9808,59.319],[25.9825,59.3193],[25.9832,59.3307],[25.9821,59.3314],[25.9738,59.3334],[25.9706,59.3404],[25.9645,59.3411],[25.9704,59.3386],[25.9716,59.3313],[25.9451,59.3202],[25.9396,59.3211],[25.9388,59.3338],[25.9341,59.34],[25.9442,59.3409],[25.9503,59.3438],[25.9632,59.3414],[25.9617,59.343],[25.957,59.3484],[25.9446,59.3471],[25.9344,59.3423],[25.9349,59.3435],[25.939,59.3498],[25.938,59.3533],[25.9431,59.3572],[25.9484,59.3562],[25.9551,59.3611],[25.9635,59.3595],[25.9619,59.3637],[25.9568,59.3633],[25.9494,59.3596],[25.9406,59.3587],[25.932,59.3557],[25.9289,59.3671],[25.9213,59.3708],[25.9231,59.3748],[25.9179,59.3788],[25.9155,59.388],[25.921,59.3875],[25.9347,59.3902],[25.932,59.3825],[25.94,59.377],[25.9492,59.3782],[25.9514,59.3728],[25.9587,59.3687],[25.9665,59.3751],[25.9602,59.3775],[25.9716,59.3803],[25.9739,59.3798],[25.982,59.3768],[25.9848,59.3754],[25.988,59.3796],[25.982,59.3822],[25.9814,59.386],[25.9863,59.3905],[25.9927,59.3897],[26.0009,59.3894],[26.0009,59.3835],[25.9919,59.3835],[25.9908,59.3796],[25.9978,59.3732],[26.0089,59.3825],[26.0068,59.3866],[26.0139,59.3905],[26.015,59.3912],[26.0137,59.3873],[26.0189,59.3821],[26.0239,59.3844],[26.0322,59.3874],[26.0373,59.3972],[26.035,59.4033],[26.0314,59.4034],[26.0226,59.4033],[26.0183,59.4095],[26.0226,59.4114],[26.0199,59.4155],[26.0225,59.4199],[26.0199,59.4199],[26.0045,59.4287],[26.0007,59.4294],[25.9984,59.429],[25.9976,59.4272],[25.989,59.4316],[25.9818,59.4328],[25.9862,59.4383],[25.9751,59.4389],[25.9722,59.4348],[25.9684,59.4356],[25.9521,59.4368],[25.9528,59.4313],[25.9397,59.4242],[25.9293,59.425],[25.9429,59.4301],[25.9477,59.4318],[25.9511,59.4387],[25.9441,59.4389],[25.9364,59.4384],[25.9406,59.4423],[25.9342,59.4442],[25.9294,59.4442],[25.9244,59.4403],[25.9149,59.4407],[25.9098,59.4333],[25.9068,59.4331],[25.9059,59.4325],[25.8973,59.4343],[25.8921,59.4315],[25.8916,59.4313],[25.8944,59.4294],[25.8851,59.4286],[25.8848,59.4354],[25.8841,59.4374],[25.886,59.4387],[25.8865,59.4389],[25.887,59.4404],[25.8842,59.4418],[25.8849,59.4438],[25.8714,59.4437],[25.8538,59.4435],[25.8362,59.4434],[25.8186,59.4432],[25.8009,59.443],[25.7833,59.4429],[25.7661,59.4427],[25.7586,59.4396],[25.7632,59.4306],[25.7585,59.4286],[25.7541,59.4241],[25.7529,59.424],[25.7511,59.4231],[25.7503,59.423],[25.7504,59.4219],[25.7498,59.4209],[25.747,59.4185],[25.7481,59.4175],[25.7461,59.4135],[25.7573,59.4124],[25.7566,59.406],[25.7477,59.4071],[25.744,59.401],[25.7473,59.3937],[25.7432,59.3955],[25.7426,59.3985],[25.7435,59.4048],[25.7489,59.4093],[25.7462,59.4129],[25.7462,59.4118],[25.7462,59.4113],[25.7453,59.4109],[25.7453,59.4105],[25.7457,59.4098],[25.7447,59.406],[25.7429,59.4061],[25.7434,59.4045],[25.7419,59.402],[25.7418,59.3951],[25.7442,59.3912],[25.7529,59.3889],[25.7585,59.3897],[25.7578,59.3858],[25.7632,59.3796],[25.7722,59.3759],[25.7725,59.3759],[25.7794,59.3751],[25.7846,59.3689],[25.7847,59.3689],[25.7903,59.37],[25.7907,59.3741],[25.7967,59.3717],[25.8025,59.3737],[25.8031,59.379],[25.8034,59.3805],[25.8117,59.3947],[25.8196,59.3932],[25.8279,59.3875],[25.8273,59.3806],[25.8281,59.3797],[25.837,59.38],[25.837,59.3793],[25.8379,59.3761],[25.8383,59.3755],[25.8395,59.3747],[25.8472,59.372],[25.8356,59.3638],[25.823,59.3577],[25.8123,59.3583],[25.8119,59.3556],[25.8058,59.3534],[25.7992,59.3475],[25.7981,59.347],[25.7936,59.3456],[25.7917,59.3446],[25.7949,59.3428],[25.8003,59.341],[25.817,59.3466],[25.8174,59.3434],[25.7975,59.3393],[25.7973,59.3392],[25.8007,59.3371],[25.7948,59.3329],[25.7949,59.332],[25.7946,59.3318],[25.7941,59.3318],[25.7939,59.3317],[25.7754,59.3249],[25.7728,59.3241],[25.7671,59.3221],[25.7759,59.3198],[25.7763,59.3194],[25.78,59.317],[25.7801,59.3169],[25.781,59.3164],[25.7811,59.3163],[25.7842,59.314],[25.7851,59.311],[25.7831,59.3125],[25.7718,59.32],[25.7653,59.3205],[25.7532,59.3216],[25.7439,59.3279],[25.7384,59.3262],[25.7361,59.3206],[25.7379,59.3172],[25.7329,59.312],[25.7328,59.3096],[25.7255,59.304],[25.7258,59.3129],[25.7204,59.3146],[25.7108,59.3138],[25.7046,59.3115],[25.702,59.319],[25.7091,59.3231],[25.713,59.3284],[25.7147,59.3215],[25.7187,59.3207],[25.7223,59.3266],[25.7225,59.3268],[25.7224,59.3274],[25.7249,59.3284],[25.7271,59.324],[25.7238,59.321],[25.7229,59.3189],[25.7288,59.3166],[25.7322,59.3194],[25.7288,59.3199],[25.7307,59.3232],[25.7323,59.3258],[25.7435,59.3293],[25.7452,59.3341],[25.739,59.3363],[25.7321,59.3319],[25.7214,59.3334],[25.724,59.3405],[25.7249,59.3458],[25.7074,59.3466],[25.7022,59.3492],[25.6944,59.3442],[25.6895,59.3424],[25.676,59.3392],[25.6592,59.3421],[25.6586,59.3457],[25.6681,59.3511],[25.6711,59.3549],[25.6808,59.3527],[25.682,59.3586],[25.6902,59.3589],[25.6868,59.3628],[25.6869,59.3677],[25.6783,59.3688],[25.6742,59.3717],[25.6823,59.375],[25.6909,59.375],[25.6789,59.3851],[25.6836,59.387],[25.6716,59.3919],[25.6637,59.3934],[25.6605,59.3963],[25.6581,59.396],[25.654,59.3963],[25.6521,59.3958],[25.6304,59.3972],[25.6285,59.3972],[25.6253,59.3979],[25.6204,59.3956],[25.6283,59.3923],[25.6332,59.3949],[25.6405,59.3938],[25.6466,59.3836],[25.6449,59.3834],[25.6544,59.3746],[25.6484,59.363],[25.6349,59.3566],[25.6309,59.3567],[25.6155,59.3617],[25.606,59.36],[25.5988,59.3633],[25.5866,59.364],[25.5822,59.3666],[25.5733,59.3654],[25.5639,59.3684],[25.5486,59.3713],[25.5481,59.3747],[25.5558,59.3766],[25.5676,59.3768],[25.5757,59.3786],[25.5877,59.3836],[25.6017,59.387],[25.6051,59.3906],[25.592,59.3904],[25.5774,59.3869],[25.5718,59.3912],[25.5913,59.3951],[25.5813,59.3974],[25.555,59.3906],[25.5426,59.3891],[25.5279,59.3885],[25.5239,59.3842],[25.514,59.378],[25.511,59.3771],[25.5105,59.3767],[25.5257,59.3731],[25.4934,59.3801],[25.4721,59.3804],[25.4665,59.3774],[25.4545,59.3784],[25.4209,59.3776],[25.4066,59.3801],[25.3902,59.3861],[25.3536,59.387],[25.3555,59.3857],[25.3695,59.386],[25.3755,59.3836],[25.377,59.3835],[25.3815,59.3786],[25.376,59.3759],[25.3762,59.3709],[25.3817,59.368],[25.3892,59.3664],[25.3905,59.3706],[25.4005,59.3714],[25.4156,59.3681],[25.4157,59.3649],[25.4066,59.3621],[25.408,59.3566],[25.415,59.3507],[25.4221,59.3567],[25.426,59.3555],[25.431,59.3553],[25.4294,59.353],[25.4371,59.3477],[25.4227,59.3451],[25.4182,59.3457],[25.4394,59.3422],[25.4445,59.3424],[25.4459,59.3424],[25.4582,59.3428],[25.4677,59.3528],[25.5151,59.3544],[25.5425,59.3449],[25.5528,59.3431],[25.5607,59.3447],[25.569,59.3422],[25.5737,59.3512],[25.5779,59.3518],[25.5785,59.3551],[25.5752,59.3551],[25.5734,59.355],[25.5785,59.3567],[25.5752,59.3585],[25.592,59.3541],[25.601,59.3572],[25.6123,59.3514],[25.6229,59.3497],[25.6289,59.3453],[25.632,59.3441],[25.6387,59.3406],[25.6493,59.3311],[25.6505,59.331],[25.6504,59.3303],[25.6486,59.3293],[25.651,59.3188],[25.6538,59.3189],[25.6533,59.317],[25.6496,59.3087],[25.6435,59.3043],[25.6462,59.304],[25.6427,59.3034],[25.633,59.2998],[25.6184,59.2989],[25.6189,59.2978],[25.6187,59.2977],[25.6164,59.2972],[25.6145,59.2981],[25.6106,59.2967],[25.611,59.2961],[25.6094,59.2959],[25.6062,59.2898],[25.6191,59.2901],[25.6321,59.2915],[25.6381,59.2859],[25.639,59.2819],[25.6385,59.2815],[25.6317,59.284],[25.6273,59.2836],[25.6216,59.2848],[25.6198,59.2832],[25.634,59.2789],[25.6482,59.2765],[25.6492,59.2782],[25.6643,59.2788],[25.6636,59.2759],[25.6486,59.2739],[25.6541,59.27],[25.6647,59.2701],[25.6701,59.273],[25.6648,59.2683],[25.666,59.2638],[25.6853,59.2593],[25.6913,59.2627],[25.691,59.2668],[25.6854,59.2687],[25.6887,59.2771],[25.6943,59.2784],[25.6948,59.2797],[25.7012,59.2838],[25.7091,59.2815],[25.7041,59.2767],[25.6915,59.2708],[25.6955,59.2678],[25.7111,59.2722],[25.7117,59.2723],[25.7114,59.2741],[25.7083,59.2776],[25.7166,59.2808],[25.7251,59.2814],[25.7298,59.2804],[25.7263,59.2827],[25.7345,59.2836],[25.7404,59.2806],[25.7475,59.2772],[25.7457,59.2829],[25.7555,59.2872],[25.7597,59.2917],[25.7621,59.3016],[25.7614,59.3039],[25.7666,59.3076],[25.766,59.3057],[25.7721,59.3023],[25.7738,59.3033],[25.7749,59.303],[25.7753,59.3005],[25.775,59.3003],[25.7733,59.294],[25.7815,59.293],[25.7755,59.2868],[25.7757,59.2784],[25.7737,59.2728],[25.7688,59.2695],[25.769,59.268],[25.769,59.2622],[25.7692,59.2609],[25.7705,59.2597],[25.7743,59.2549],[25.7805,59.255],[25.7816,59.2554],[25.7827,59.2563],[25.7837,59.2571],[25.7874,59.2619],[25.7896,59.2615],[25.7922,59.2584],[25.7924,59.2577],[25.7967,59.2581],[25.7977,59.2584],[25.8108,59.2665],[25.8089,59.2684],[25.8188,59.2666],[25.8245,59.2681],[25.8443,59.2678],[25.8474,59.2652],[25.8446,59.2606],[25.8456,59.2597],[25.8474,59.2587],[25.8506,59.2645],[25.8485,59.2698]],[[25.5745,59.3589],[25.5629,59.3651],[25.5434,59.3687],[25.5268,59.3728],[25.5429,59.369],[25.5562,59.3672],[25.5647,59.3646],[25.5745,59.3589]],[[25.9583,59.3885],[25.956,59.3859],[25.9387,59.3886],[25.9337,59.3916],[25.9248,59.3937],[25.9241,59.3984],[25.9305,59.3989],[25.942,59.3992],[25.9451,59.4012],[25.9484,59.3975],[25.9584,59.3922],[25.9661,59.3892],[25.9583,59.3885]],[[25.7923,59.3046],[25.793,59.3045],[25.7959,59.299],[25.8057,59.3029],[25.8106,59.3013],[25.8102,59.3046],[25.8073,59.3105],[25.8119,59.3137],[25.8122,59.3157],[25.8047,59.3193],[25.8098,59.3241],[25.8291,59.3227],[25.8307,59.3249],[25.8399,59.3214],[25.839,59.3174],[25.8441,59.3165],[25.8458,59.3116],[25.8385,59.3074],[25.8328,59.3073],[25.8293,59.302],[25.818,59.3026],[25.8116,59.2999],[25.8087,59.2936],[25.8091,59.2933],[25.8134,59.2771],[25.8044,59.2759],[25.8028,59.2782],[25.8093,59.2787],[25.8006,59.2804],[25.7871,59.2804],[25.779,59.2836],[25.7788,59.2865],[25.7869,59.2937],[25.7941,59.2966],[25.7905,59.3013],[25.7923,59.3046]],[[25.9569,59.4096],[25.9637,59.4129],[25.9639,59.4173],[25.9736,59.4191],[25.9834,59.4181],[25.9814,59.4128],[25.9943,59.4135],[25.995,59.4156],[25.9941,59.4162],[25.9952,59.4172],[25.9987,59.4139],[26.0039,59.4104],[25.9992,59.4063],[25.9976,59.4074],[25.9868,59.4052],[25.9734,59.4015],[25.9724,59.4045],[25.9613,59.4046],[25.9569,59.4096]],[[25.8716,59.3028],[25.8626,59.2973],[25.86,59.2967],[25.8511,59.2998],[25.8474,59.2972],[25.8374,59.2992],[25.8371,59.302],[25.8506,59.3089],[25.8622,59.3083],[25.8716,59.3028]],[[25.7727,59.2699],[25.7829,59.2744],[25.7911,59.2756],[25.8066,59.2712],[25.8079,59.2681],[25.7972,59.2598],[25.7918,59.2624],[25.7748,59.2673],[25.7727,59.2699]]],[[[26.1107,59.295],[26.1145,59.2982],[26.1218,59.2954],[26.1214,59.2912],[26.1126,59.2912],[26.1133,59.2858],[26.1225,59.2836],[26.1314,59.2838],[26.1336,59.2842],[26.1385,59.2795],[26.139,59.2796],[26.1404,59.2791],[26.1409,59.2763],[26.1434,59.2765],[26.1475,59.2766],[26.1511,59.2762],[26.1782,59.2826],[26.176,59.2836],[26.1742,59.2851],[26.1756,59.2857],[26.166,59.2904],[26.1604,59.2934],[26.1651,59.2981],[26.1646,59.2987],[26.155,59.2891],[26.1481,59.2867],[26.1418,59.2902],[26.138,59.2917],[26.1462,59.2959],[26.1403,59.2994],[26.1395,59.2995],[26.1346,59.2982],[26.1282,59.3036],[26.1275,59.304],[26.1274,59.3041],[26.1285,59.3043],[26.129,59.3043],[26.1291,59.3042],[26.1355,59.3011],[26.1437,59.3054],[26.1437,59.3055],[26.1442,59.3116],[26.1342,59.3106],[26.1263,59.315],[26.1278,59.3182],[26.1193,59.3173],[26.1188,59.3173],[26.1171,59.3171],[26.1166,59.3165],[26.1094,59.3182],[26.1066,59.3174],[26.1047,59.3136],[26.1047,59.3133],[26.1116,59.3098],[26.1138,59.3083],[26.1149,59.3068],[26.1156,59.3066],[26.1168,59.307],[26.1155,59.3057],[26.1147,59.306],[26.1146,59.3061],[26.1146,59.3064],[26.115,59.3066],[26.1145,59.3069],[26.113,59.3056],[26.1115,59.3097],[26.1076,59.3097],[26.096,59.309],[26.1006,59.3057],[26.1027,59.3018],[26.108,59.2998],[26.1087,59.3023],[26.1119,59.3042],[26.1119,59.3044],[26.1123,59.3046],[26.1128,59.3044],[26.1103,59.3026],[26.1079,59.2992],[26.1044,59.2973],[26.0955,59.296],[26.0977,59.2935],[26.1107,59.295]]],[[[25.9153,59.2467],[25.9192,59.2438],[25.9238,59.249],[25.9175,59.2505],[25.9174,59.2505],[25.916,59.2521],[25.9167,59.255],[25.9162,59.2564],[25.914,59.2563],[25.9125,59.2559],[25.9101,59.2552],[25.9098,59.2549],[25.8993,59.2552],[25.8881,59.2525],[25.8752,59.2567],[25.8763,59.2585],[25.8497,59.2563],[25.849,59.2502],[25.8519,59.2507],[25.8553,59.2455],[25.8629,59.2482],[25.8674,59.2453],[25.8739,59.2354],[25.862,59.2395],[25.8615,59.2383],[25.8608,59.2328],[25.8681,59.2282],[25.8661,59.2227],[25.8666,59.2224],[25.8676,59.2223],[25.8685,59.2253],[25.8715,59.2294],[25.8833,59.2294],[25.8893,59.2328],[25.8818,59.2354],[25.8792,59.2421],[25.8744,59.2507],[25.8792,59.2512],[25.8886,59.2459],[25.8873,59.2428],[25.8935,59.2382],[25.8975,59.2382],[25.9108,59.2431],[25.9117,59.2455],[25.9038,59.2443],[25.9042,59.2467],[25.9153,59.2467]]],[[[25.2422,59.3346],[25.2425,59.3289],[25.243,59.32],[25.2432,59.3153],[25.2446,59.3155],[25.2531,59.3121],[25.2622,59.3112],[25.2706,59.3056],[25.2577,59.3052],[25.2486,59.2996],[25.25,59.2954],[25.2604,59.2953],[25.2736,59.2972],[25.2802,59.3049],[25.3031,59.3098],[25.3117,59.3132],[25.3086,59.3147],[25.3085,59.3149],[25.3128,59.3179],[25.2954,59.3253],[25.2982,59.3211],[25.2971,59.3206],[25.2925,59.3165],[25.2806,59.317],[25.284,59.3266],[25.2879,59.3279],[25.2895,59.3284],[25.2955,59.3338],[25.2958,59.3361],[25.2959,59.336],[25.3031,59.3313],[25.3047,59.3321],[25.3049,59.3311],[25.3106,59.333],[25.3088,59.3347],[25.3019,59.3374],[25.3006,59.3372],[25.2996,59.3374],[25.299,59.3382],[25.3004,59.3433],[25.3004,59.3434],[25.2985,59.3445],[25.2971,59.3453],[25.2959,59.3458],[25.2962,59.3463],[25.2978,59.346],[25.2996,59.3471],[25.2914,59.3496],[25.2927,59.3476],[25.2907,59.3473],[25.2895,59.3484],[25.2883,59.3488],[25.2873,59.3488],[25.2873,59.3472],[25.2863,59.3468],[25.2856,59.3466],[25.2847,59.3463],[25.2834,59.3463],[25.2818,59.3507],[25.2776,59.3501],[25.2786,59.3482],[25.2797,59.3465],[25.2806,59.3465],[25.2811,59.3458],[25.2799,59.3457],[25.2799,59.3454],[25.2823,59.3414],[25.2813,59.3419],[25.2789,59.3427],[25.2775,59.3428],[25.2757,59.3426],[25.275,59.3425],[25.2746,59.3423],[25.2737,59.342],[25.273,59.3418],[25.2719,59.3419],[25.2703,59.3427],[25.2699,59.3431],[25.2735,59.3456],[25.2738,59.3456],[25.2748,59.3457],[25.2754,59.3457],[25.2741,59.349],[25.2731,59.3501],[25.2723,59.3513],[25.269,59.3508],[25.2678,59.3467],[25.2669,59.3427],[25.2731,59.3398],[25.2732,59.3403],[25.2763,59.3386],[25.2745,59.3386],[25.274,59.3367],[25.2737,59.3363],[25.2725,59.3361],[25.2724,59.3355],[25.2727,59.3347],[25.2742,59.3325],[25.2739,59.3318],[25.2736,59.3319],[25.266,59.3296],[25.2617,59.3291],[25.2509,59.3322],[25.2422,59.3346]]],[[[26.2517,59.3728],[26.2556,59.3705],[26.2659,59.3724],[26.2645,59.3793],[26.2741,59.3809],[26.2733,59.3819],[26.2616,59.3838],[26.2584,59.3833],[26.253,59.3843],[26.2493,59.3889],[26.2471,59.3822],[26.2541,59.38],[26.2502,59.3763],[26.2317,59.3783],[26.2277,59.3702],[26.2316,59.3678],[26.2378,59.3641],[26.2395,59.3606],[26.2474,59.3603],[26.2497,59.3607],[26.2511,59.361],[26.2512,59.361],[26.2528,59.3614],[26.2509,59.3688],[26.2517,59.3728]]],[[[26.1837,59.3875],[26.1892,59.3935],[26.2043,59.3913],[26.2038,59.3867],[26.2156,59.3843],[26.2174,59.3817],[26.2181,59.3843],[26.2223,59.3923],[26.2293,59.3899],[26.2406,59.395],[26.2456,59.3925],[26.2512,59.3923],[26.26,59.3916],[26.2621,59.397],[26.257,59.3995],[26.2469,59.3992],[26.2445,59.4052],[26.2376,59.4075],[26.2328,59.4064],[26.2267,59.4103],[26.2113,59.413],[26.2099,59.4099],[26.2192,59.408],[26.2247,59.4031],[26.2175,59.3962],[26.2071,59.4059],[26.2044,59.4052],[26.1822,59.4072],[26.179,59.4065],[26.1791,59.3984],[26.1687,59.3976],[26.1597,59.3988],[26.162,59.403],[26.1707,59.4028],[26.1751,59.4056],[26.1717,59.4146],[26.1716,59.4165],[26.1653,59.4154],[26.1488,59.4205],[26.1361,59.4187],[26.1293,59.4121],[26.1406,59.4091],[26.1432,59.4067],[26.1348,59.4028],[26.1445,59.4001],[26.1421,59.3954],[26.1519,59.3929],[26.155,59.3918],[26.1613,59.3936],[26.1626,59.388],[26.1657,59.3868],[26.1687,59.3887],[26.1792,59.3904],[26.1837,59.3875]]],[[[25.5651,59.4357],[25.5503,59.4346],[25.5473,59.4258],[25.5434,59.4287],[25.5416,59.4294],[25.5339,59.4307],[25.5335,59.4307],[25.5274,59.4284],[25.5226,59.4279],[25.5176,59.4276],[25.5141,59.4275],[25.5134,59.4302],[25.512,59.4301],[25.5103,59.4307],[25.5099,59.4313],[25.5096,59.4313],[25.5043,59.4331],[25.5032,59.4339],[25.4995,59.4337],[25.4977,59.4341],[25.4941,59.4298],[25.4935,59.4293],[25.4935,59.43],[25.4925,59.4316],[25.4907,59.4316],[25.4847,59.43],[25.485,59.4312],[25.4863,59.4336],[25.4892,59.4332],[25.4906,59.4335],[25.491,59.4335],[25.4904,59.4346],[25.4914,59.4363],[25.4916,59.4373],[25.4969,59.4397],[25.5067,59.4381],[25.5091,59.44],[25.5013,59.44],[25.4836,59.4397],[25.466,59.4395],[25.4484,59.4393],[25.4308,59.4391],[25.4169,59.439],[25.4182,59.4377],[25.411,59.4389],[25.4018,59.4388],[25.3917,59.4336],[25.3821,59.436],[25.3703,59.4323],[25.3625,59.4324],[25.3551,59.4292],[25.3534,59.427],[25.3464,59.4224],[25.3463,59.4217],[25.3459,59.4209],[25.354,59.4152],[25.3442,59.414],[25.345,59.4112],[25.3415,59.409],[25.3297,59.4076],[25.3136,59.4085],[25.3122,59.4113],[25.3068,59.4169],[25.305,59.4175],[25.3036,59.4161],[25.3044,59.4151],[25.303,59.4151],[25.2955,59.4189],[25.2934,59.4202],[25.293,59.4202],[25.291,59.4204],[25.2869,59.4222],[25.2867,59.4227],[25.2874,59.4229],[25.2836,59.4244],[25.2812,59.4258],[25.279,59.4274],[25.2868,59.4259],[25.2889,59.4235],[25.2902,59.427],[25.2901,59.4271],[25.2897,59.4275],[25.2892,59.4282],[25.2884,59.429],[25.2871,59.4302],[25.2862,59.43],[25.2855,59.43],[25.2839,59.4299],[25.2837,59.4301],[25.2827,59.4326],[25.2827,59.4328],[25.2786,59.4333],[25.2777,59.4332],[25.2712,59.4339],[25.2696,59.4344],[25.2371,59.4327],[25.2374,59.4277],[25.2376,59.4231],[25.2403,59.4233],[25.2417,59.4199],[25.2402,59.4174],[25.2476,59.416],[25.2494,59.4142],[25.2561,59.4152],[25.2603,59.4144],[25.2648,59.4165],[25.2668,59.4163],[25.2686,59.4154],[25.2706,59.4135],[25.2828,59.4153],[25.2846,59.4101],[25.3009,59.4065],[25.3203,59.3984],[25.3206,59.398],[25.3213,59.3976],[25.3225,59.3965],[25.3306,59.3936],[25.3475,59.3901],[25.3708,59.3891],[25.3767,59.3904],[25.3931,59.3898],[25.3972,59.3931],[25.4037,59.3915],[25.4115,59.3917],[25.4186,59.3869],[25.413,59.3842],[25.4057,59.3863],[25.4206,59.3806],[25.4293,59.3831],[25.4354,59.3816],[25.4452,59.3825],[25.4534,59.3788],[25.4732,59.3878],[25.4863,59.3879],[25.5012,59.3841],[25.526,59.3925],[25.5433,59.3914],[25.5532,59.393],[25.5665,59.3971],[25.5861,59.3982],[25.5902,59.3969],[25.6144,59.3961],[25.6242,59.3987],[25.654,59.3967],[25.6591,59.398],[25.6644,59.3943],[25.6766,59.3918],[25.6792,59.3925],[25.6901,59.3947],[25.6935,59.3919],[25.69,59.3899],[25.685,59.3878],[25.7001,59.3826],[25.7003,59.3767],[25.7014,59.3767],[25.7051,59.3754],[25.7108,59.379],[25.7075,59.3866],[25.7143,59.3868],[25.7113,59.3905],[25.6914,59.3991],[25.6817,59.4069],[25.6512,59.4095],[25.6491,59.413],[25.6325,59.4039],[25.623,59.4103],[25.5996,59.4144],[25.6184,59.4175],[25.624,59.4142],[25.6439,59.4181],[25.6486,59.4155],[25.6499,59.416],[25.6608,59.4149],[25.677,59.4177],[25.6846,59.4216],[25.6963,59.42],[25.7053,59.422],[25.7218,59.4207],[25.7309,59.4185],[25.7376,59.4082],[25.7347,59.4064],[25.7345,59.4041],[25.7374,59.4019],[25.7418,59.3938],[25.7408,59.4034],[25.7431,59.4047],[25.7426,59.406],[25.7446,59.4076],[25.7453,59.4099],[25.7447,59.4106],[25.7452,59.411],[25.746,59.4113],[25.7456,59.4119],[25.7442,59.4122],[25.7445,59.4127],[25.7461,59.4131],[25.7455,59.4151],[25.7465,59.4188],[25.7498,59.4226],[25.7501,59.423],[25.751,59.4232],[25.7527,59.4241],[25.7542,59.4247],[25.7584,59.4287],[25.7613,59.4303],[25.7586,59.4323],[25.7566,59.441],[25.7574,59.4426],[25.748,59.4426],[25.7304,59.4424],[25.7128,59.4422],[25.6952,59.442],[25.6775,59.4419],[25.6667,59.4417],[25.6666,59.4415],[25.6603,59.4348],[25.662,59.4347],[25.662,59.434],[25.6603,59.4333],[25.6546,59.4313],[25.6428,59.4309],[25.6493,59.4329],[25.655,59.4386],[25.6539,59.4402],[25.6541,59.4416],[25.6423,59.4415],[25.6246,59.4413],[25.6193,59.4413],[25.6233,59.4376],[25.6247,59.4351],[25.6354,59.4345],[25.639,59.4309],[25.6164,59.4313],[25.6137,59.4294],[25.6107,59.4282],[25.6068,59.4238],[25.6085,59.4239],[25.6144,59.4243],[25.6095,59.4195],[25.6027,59.4236],[25.6027,59.4237],[25.5803,59.4219],[25.5792,59.4221],[25.5882,59.4268],[25.5869,59.4275],[25.5881,59.4278],[25.5908,59.4272],[25.5935,59.4298],[25.5974,59.4299],[25.5977,59.4299],[25.5983,59.43],[25.6133,59.4316],[25.6158,59.4334],[25.5963,59.4328],[25.5954,59.4327],[25.5935,59.4326],[25.5877,59.4316],[25.5687,59.4338],[25.5651,59.4357]],[[25.4715,59.3943],[25.4617,59.3929],[25.4555,59.3905],[25.4522,59.3899],[25.4492,59.3896],[25.4513,59.3864],[25.4484,59.3844],[25.4446,59.385],[25.4425,59.3909],[25.4398,59.3938],[25.439,59.3944],[25.4394,59.3962],[25.4344,59.4006],[25.4268,59.4009],[25.4278,59.4042],[25.4416,59.4057],[25.4511,59.4115],[25.4517,59.4149],[25.461,59.4169],[25.4697,59.415],[25.4776,59.4194],[25.4799,59.419],[25.4833,59.4213],[25.4839,59.4213],[25.4903,59.4252],[25.4891,59.4259],[25.4939,59.4289],[25.4997,59.4285],[25.5004,59.4281],[25.5009,59.4279],[25.5013,59.4279],[25.5033,59.4271],[25.5053,59.4229],[25.5039,59.4206],[25.5048,59.4188],[25.5044,59.4183],[25.5042,59.4174],[25.5014,59.4141],[25.495,59.408],[25.483,59.4102],[25.4732,59.404],[25.4784,59.4011],[25.4679,59.3976],[25.4715,59.3943]]],[[[25.612,59.4412],[25.607,59.4411],[25.6048,59.4411],[25.6131,59.4363],[25.6149,59.4368],[25.612,59.4412]]],[[[26.058,59.4228],[26.0612,59.4222],[26.0668,59.4259],[26.0683,59.427],[26.0688,59.4276],[26.061,59.4336],[26.0599,59.4339],[26.0593,59.4348],[26.0521,59.4398],[26.0463,59.4341],[26.0497,59.4414],[26.0482,59.4423],[26.0459,59.4371],[26.0393,59.4385],[26.026,59.4371],[26.02,59.4399],[26.0266,59.4449],[26.0125,59.4448],[25.9996,59.4447],[26.0017,59.4424],[25.9877,59.4356],[26.0003,59.4308],[26.0147,59.4273],[26.0232,59.4211],[26.0262,59.4245],[26.02,59.4273],[26.0364,59.4306],[26.0445,59.4338],[26.0395,59.4298],[26.0391,59.4233],[26.0403,59.4232],[26.0479,59.4272],[26.058,59.4228]]],[[[25.993,59.4447],[25.9772,59.4445],[25.9721,59.4445],[25.9737,59.4406],[25.9677,59.4391],[25.9731,59.439],[25.987,59.4415],[25.993,59.4447]]],[[[26.3323,59.4468],[26.3299,59.4468],[26.3122,59.4467],[26.3115,59.4467],[26.3124,59.4464],[26.3264,59.4445],[26.3301,59.4402],[26.3264,59.4369],[26.3342,59.4332],[26.3332,59.4297],[26.3391,59.4293],[26.3307,59.445],[26.3323,59.4468]]],[[[26.471,59.4451],[26.4709,59.4475],[26.4533,59.4474],[26.4357,59.4473],[26.4192,59.4473],[26.4177,59.4454],[26.409,59.4443],[26.4074,59.4472],[26.4004,59.4472],[26.3968,59.4472],[26.4009,59.4453],[26.4065,59.4382],[26.4054,59.4327],[26.4115,59.4285],[26.4189,59.4335],[26.4234,59.4338],[26.4241,59.4375],[26.4332,59.4421],[26.4414,59.4386],[26.4571,59.4367],[26.4529,59.4326],[26.4421,59.4224],[26.4425,59.4185],[26.4509,59.4169],[26.4514,59.4171],[26.453,59.4158],[26.4583,59.4217],[26.455,59.4265],[26.4604,59.4281],[26.4712,59.4319],[26.4711,59.4347],[26.4658,59.4363],[26.471,59.4451]]],[[[26.3828,59.4471],[26.3792,59.4471],[26.3833,59.4455],[26.3828,59.4471]]],[[[25.9445,58.9962],[25.9456,58.9952],[25.9558,58.9953],[25.9703,58.9954],[25.9723,58.9969],[25.9967,58.9972],[25.9879,59.0043],[25.9788,59.001],[25.9707,59.0023],[25.9648,59.0032],[25.966,59.0091],[25.9597,59.0142],[25.9526,59.0135],[25.947,59.0178],[25.9549,59.0216],[25.9684,59.0263],[25.9744,59.0297],[25.9813,59.0314],[25.9706,59.0313],[25.9693,59.0311],[25.966,59.0283],[25.9536,59.0255],[25.9451,59.0254],[25.9355,59.024],[25.9314,59.0355],[25.9337,59.0384],[25.9437,59.0418],[25.9381,59.0439],[25.9351,59.053],[25.9267,59.0528],[25.9251,59.0566],[25.9248,59.0575],[25.917,59.0641],[25.9255,59.0677],[25.9302,59.0685],[25.9326,59.069],[25.9384,59.0717],[25.938,59.0728],[25.9476,59.0842],[25.9479,59.0845],[25.9354,59.0824],[25.9263,59.0736],[25.9253,59.0727],[25.9173,59.0752],[25.9106,59.0721],[25.9067,59.0703],[25.9085,59.0652],[25.9028,59.0594],[25.907,59.0569],[25.9087,59.0554],[25.9064,59.0518],[25.9089,59.0524],[25.9122,59.0502],[25.9239,59.0536],[25.9255,59.0498],[25.9132,59.0476],[25.9093,59.0382],[25.9227,59.0388],[25.918,59.0332],[25.9205,59.0264],[25.9087,59.0278],[25.9032,59.0251],[25.9092,59.0177],[25.909,59.0173],[25.9136,59.0153],[25.9211,59.0114],[25.9231,59.0104],[25.9261,59.009],[25.9331,59.015],[25.9512,59.0102],[25.9545,59.0041],[25.9492,59.003],[25.9443,59.0015],[25.9444,58.9998],[25.9445,58.9962]]],[[[25.8082,59.0147],[25.812,59.0204],[25.7985,59.0203],[25.7935,59.0199],[25.7938,59.0145],[25.7983,59.0115],[25.7917,59.009],[25.784,59.016],[25.7846,59.0191],[25.7867,59.0202],[25.7855,59.0247],[25.7952,59.0258],[25.7922,59.0288],[25.8,59.0294],[25.8041,59.0323],[25.809,59.0344],[25.813,59.0347],[25.8122,59.042],[25.8033,59.0433],[25.7958,59.044],[25.7807,59.0339],[25.7745,59.0339],[25.7626,59.0267],[25.763,59.0254],[25.7725,59.0211],[25.7644,59.0084],[25.7681,59.0062],[25.7879,58.9992],[25.7935,58.9953],[25.8037,58.9954],[25.806,58.994],[25.8166,58.9941],[25.834,58.9943],[25.8354,58.9943],[25.8456,58.995],[25.8479,58.9944],[25.8514,58.9944],[25.8524,58.9944],[25.8523,58.9957],[25.8452,58.9972],[25.8465,59.0029],[25.8554,58.9995],[25.8624,59.0011],[25.8628,59.0015],[25.8647,59.0048],[25.8649,59.0055],[25.8607,59.0051],[25.856,59.0064],[25.854,59.0088],[25.8534,59.0091],[25.8541,59.0112],[25.8552,59.0126],[25.8558,59.0131],[25.8555,59.0132],[25.8481,59.0121],[25.847,59.012],[25.8447,59.0121],[25.8362,59.0102],[25.811,59.0149],[25.8082,59.0147]]],[[[25.7953,59.0837],[25.8032,59.0796],[25.8056,59.0793],[25.8104,59.0798],[25.8131,59.0785],[25.8148,59.0792],[25.8211,59.0813],[25.8223,59.0874],[25.8079,59.0859],[25.8067,59.0915],[25.8265,59.0936],[25.8321,59.0904],[25.8427,59.0937],[25.8471,59.0891],[25.859,59.092],[25.8686,59.0921],[25.8676,59.0957],[25.8584,59.0969],[25.8662,59.1005],[25.8735,59.0993],[25.8744,59.1014],[25.8748,59.1067],[25.8791,59.1129],[25.8808,59.1178],[25.8755,59.1194],[25.8815,59.1259],[25.8801,59.1286],[25.8779,59.1285],[25.8755,59.1247],[25.8672,59.1202],[25.8608,59.121],[25.8589,59.1218],[25.8586,59.1194],[25.853,59.113],[25.8422,59.1168],[25.8253,59.1106],[25.8169,59.1124],[25.8134,59.1102],[25.8106,59.1047],[25.8223,59.1099],[25.8229,59.1046],[25.8225,59.1008],[25.812,59.0953],[25.7974,59.0953],[25.7903,59.0985],[25.7993,59.1019],[25.7909,59.1007],[25.7866,59.1042],[25.7787,59.1072],[25.7792,59.1058],[25.7797,59.1054],[25.7815,59.1021],[25.7717,59.0992],[25.7715,59.0993],[25.7706,59.1003],[25.7703,59.102],[25.7668,59.1011],[25.7628,59.1],[25.7624,59.0999],[25.7613,59.0993],[25.7641,59.0963],[25.7653,59.0954],[25.7782,59.0954],[25.7815,59.0925],[25.7784,59.0887],[25.7823,59.0865],[25.7889,59.0865],[25.7953,59.0837]]],[[[25.2646,59.1007],[25.2775,59.1004],[25.2772,59.1037],[25.2891,59.1048],[25.2944,59.1004],[25.3027,59.1002],[25.3077,59.104],[25.3114,59.1056],[25.3116,59.1083],[25.3092,59.1104],[25.3012,59.1155],[25.2791,59.1217],[25.2761,59.1227],[25.2705,59.1251],[25.2536,59.1366],[25.2537,59.1323],[25.2536,59.1292],[25.2528,59.1275],[25.2531,59.1225],[25.2535,59.1135],[25.2537,59.1103],[25.2578,59.1117],[25.2638,59.1095],[25.2594,59.107],[25.2646,59.1007]]],[[[26.3011,59.1241],[26.2947,59.1161],[26.3007,59.114],[26.3071,59.1186],[26.3123,59.1148],[26.3122,59.1136],[26.3124,59.1128],[26.316,59.1134],[26.3198,59.114],[26.3256,59.1171],[26.3248,59.1177],[26.3194,59.1266],[26.3185,59.1263],[26.316,59.1266],[26.3138,59.127],[26.3124,59.1276],[26.3011,59.1241]]],[[[25.7865,59.1531],[25.7903,59.1523],[25.796,59.151],[25.8084,59.1515],[25.8107,59.1553],[25.8109,59.1551],[25.8126,59.155],[25.8145,59.1572],[25.8155,59.1576],[25.8168,59.1581],[25.817,59.1607],[25.8096,59.1631],[25.8097,59.1632],[25.8076,59.1634],[25.8049,59.1653],[25.8052,59.1714],[25.8037,59.1714],[25.7945,59.1673],[25.7847,59.1652],[25.7829,59.1629],[25.785,59.1616],[25.7761,59.1556],[25.7865,59.1531]]],[[[25.6285,59.2073],[25.6417,59.2035],[25.6446,59.2127],[25.6439,59.2175],[25.6543,59.2207],[25.6474,59.215],[25.6487,59.2114],[25.6443,59.2037],[25.6505,59.2121],[25.6531,59.2119],[25.6534,59.2064],[25.6458,59.2015],[25.6449,59.199],[25.6429,59.1989],[25.6503,59.1956],[25.6672,59.1937],[25.7129,59.1939],[25.7163,59.1946],[25.7187,59.1985],[25.719,59.2005],[25.7177,59.2054],[25.7166,59.2073],[25.7167,59.2074],[25.7063,59.2086],[25.6992,59.2121],[25.6934,59.2113],[25.6981,59.2129],[25.6998,59.2136],[25.7091,59.2145],[25.7074,59.2206],[25.6993,59.2211],[25.6943,59.2262],[25.6923,59.2273],[25.6845,59.2257],[25.6827,59.2226],[25.6819,59.219],[25.6747,59.2149],[25.6612,59.2162],[25.6577,59.2175],[25.6642,59.2223],[25.6749,59.2207],[25.6612,59.2251],[25.6625,59.228],[25.6168,59.2142],[25.6063,59.2109],[25.6093,59.2074],[25.6201,59.2077],[25.6269,59.2135],[25.6329,59.2123],[25.6285,59.2073]]],[[[25.6346,59.1724],[25.636,59.1687],[25.632,59.1645],[25.6245,59.1618],[25.6197,59.159],[25.6254,59.1576],[25.6342,59.1547],[25.6347,59.1546],[25.6382,59.1584],[25.6458,59.1587],[25.6512,59.1594],[25.6522,59.161],[25.6417,59.1652],[25.6485,59.166],[25.6553,59.1641],[25.6571,59.1637],[25.6585,59.162],[25.6607,59.1631],[25.6612,59.1635],[25.6618,59.1639],[25.6622,59.1641],[25.662,59.1646],[25.6623,59.1647],[25.6638,59.1642],[25.6735,59.1691],[25.6731,59.1755],[25.6817,59.1803],[25.6835,59.177],[25.6948,59.1783],[25.7063,59.1816],[25.7123,59.1805],[25.7186,59.1894],[25.7013,59.1878],[25.7047,59.1919],[25.7144,59.1935],[25.6768,59.193],[25.6729,59.193],[25.6587,59.1939],[25.6542,59.191],[25.6475,59.1866],[25.6417,59.1897],[25.6325,59.1893],[25.6264,59.1825],[25.6348,59.1819],[25.6333,59.1753],[25.6346,59.1724]]],[[[25.5101,59.2239],[25.5129,59.2217],[25.5271,59.2144],[25.5307,59.2159],[25.5382,59.2156],[25.543,59.2137],[25.5428,59.214],[25.5435,59.2143],[25.5434,59.2154],[25.5442,59.2154],[25.5466,59.2145],[25.5476,59.2139],[25.5474,59.2139],[25.5448,59.2128],[25.5614,59.2072],[25.5719,59.2054],[25.5908,59.2091],[25.5971,59.2133],[25.5922,59.213],[25.5831,59.219],[25.5792,59.2215],[25.5829,59.224],[25.5914,59.2217],[25.5939,59.2236],[25.6085,59.2287],[25.6214,59.2269],[25.6298,59.2258],[25.6306,59.2228],[25.6352,59.2225],[25.6461,59.228],[25.6554,59.2299],[25.673,59.2355],[25.675,59.2402],[25.6662,59.243],[25.6719,59.2487],[25.671,59.2524],[25.6549,59.2636],[25.6566,59.2668],[25.649,59.2717],[25.6437,59.271],[25.6428,59.2707],[25.6396,59.2699],[25.6391,59.2706],[25.6357,59.2713],[25.6333,59.2681],[25.6332,59.2647],[25.627,59.2613],[25.6195,59.2582],[25.6116,59.2598],[25.6,59.2597],[25.5985,59.2605],[25.6,59.2624],[25.6124,59.2624],[25.6188,59.2611],[25.6257,59.2644],[25.6278,59.2725],[25.6265,59.2735],[25.6227,59.2762],[25.6149,59.2809],[25.6112,59.2782],[25.6085,59.2861],[25.6052,59.2875],[25.6043,59.2872],[25.6034,59.2869],[25.6002,59.2877],[25.5994,59.2878],[25.5988,59.2883],[25.5588,59.2899],[25.5281,59.2911],[25.4843,59.293],[25.477,59.2942],[25.4153,59.3126],[25.4106,59.3135],[25.3835,59.3221],[25.3841,59.3196],[25.3683,59.3087],[25.3667,59.3044],[25.3777,59.2963],[25.3889,59.294],[25.3925,59.2872],[25.3943,59.2866],[25.398,59.2872],[25.4134,59.2825],[25.4189,59.2783],[25.4254,59.277],[25.4284,59.2729],[25.4338,59.2714],[25.4385,59.2679],[25.4455,59.2681],[25.4429,59.2644],[25.4331,59.2683],[25.4201,59.2712],[25.4189,59.2733],[25.4178,59.2764],[25.4128,59.2786],[25.4084,59.2736],[25.4124,59.2697],[25.4078,59.2664],[25.416,59.2641],[25.4121,59.2591],[25.4123,59.2562],[25.4101,59.2564],[25.4006,59.2538],[25.393,59.2533],[25.3798,59.2386],[25.3901,59.236],[25.396,59.2296],[25.399,59.2306],[25.4032,59.2328],[25.4175,59.2311],[25.4237,59.2299],[25.4321,59.2262],[25.4314,59.2285],[25.4457,59.2311],[25.4412,59.2263],[25.4341,59.2257],[25.4265,59.2207],[25.4465,59.2206],[25.4511,59.2228],[25.4492,59.229],[25.4567,59.233],[25.4588,59.2315],[25.4648,59.2328],[25.472,59.2284],[25.4648,59.2294],[25.4574,59.2231],[25.4582,59.2217],[25.4582,59.2209],[25.458,59.2203],[25.4595,59.2187],[25.4731,59.2224],[25.4718,59.219],[25.4945,59.2126],[25.4976,59.2137],[25.5178,59.2105],[25.5244,59.2134],[25.5162,59.2168],[25.5052,59.2166],[25.5059,59.2227],[25.5101,59.2239]]],[[[25.2458,59.2645],[25.2462,59.2571],[25.2467,59.2482],[25.2471,59.2392],[25.2476,59.2302],[25.248,59.2212],[25.2481,59.2208],[25.2488,59.2214],[25.2562,59.2221],[25.2536,59.2242],[25.2547,59.2293],[25.2648,59.2233],[25.2732,59.2262],[25.2869,59.2354],[25.2847,59.2383],[25.2784,59.2394],[25.2764,59.2328],[25.2693,59.2369],[25.2649,59.2429],[25.2717,59.2415],[25.2763,59.2455],[25.2781,59.2485],[25.2845,59.2533],[25.2919,59.2563],[25.2922,59.2601],[25.284,59.2644],[25.2458,59.2645]]],[[[25.7128,59.2697],[25.6994,59.2656],[25.6978,59.2628],[25.6868,59.2597],[25.693,59.2563],[25.7054,59.2554],[25.7136,59.2566],[25.7349,59.2549],[25.7347,59.2558],[25.7356,59.2605],[25.735,59.2614],[25.7338,59.2628],[25.7331,59.2636],[25.7245,59.2626],[25.7199,59.2648],[25.7131,59.2699],[25.7128,59.2697]]],[[[25.3364,59.2991],[25.3425,59.2972],[25.3459,59.3014],[25.3524,59.3029],[25.3511,59.3057],[25.3385,59.3062],[25.3341,59.3093],[25.3229,59.3116],[25.3133,59.3117],[25.2806,59.3046],[25.2737,59.2965],[25.2598,59.2935],[25.2623,59.2932],[25.2708,59.2914],[25.2779,59.2924],[25.2817,59.2859],[25.2701,59.2871],[25.2642,59.2907],[25.2608,59.2862],[25.2647,59.2843],[25.2772,59.2821],[25.2819,59.2777],[25.2964,59.2746],[25.2979,59.2745],[25.3,59.2717],[25.3059,59.2687],[25.3123,59.2655],[25.3153,59.2657],[25.3267,59.2656],[25.3274,59.2658],[25.3276,59.2656],[25.3269,59.2655],[25.3246,59.2602],[25.3264,59.2595],[25.3367,59.2618],[25.3336,59.2646],[25.3485,59.2656],[25.3437,59.2723],[25.3413,59.2738],[25.3308,59.2716],[25.3295,59.2773],[25.336,59.2804],[25.3396,59.2828],[25.3484,59.282],[25.3568,59.2835],[25.3621,59.2861],[25.3605,59.2935],[25.368,59.2959],[25.3694,59.2968],[25.3634,59.3014],[25.3559,59.3017],[25.352,59.2972],[25.3423,59.2942],[25.3346,59.2977],[25.3364,59.2991]]],[[[26.0156,59.2802],[26.018,59.2801],[26.0171,59.2794],[26.019,59.2781],[26.02,59.2774],[26.0317,59.2694],[26.0328,59.2698],[26.0379,59.2739],[26.0369,59.2727],[26.0371,59.2707],[26.039,59.2699],[26.0418,59.2693],[26.0451,59.2697],[26.0468,59.2704],[26.0436,59.2763],[26.0503,59.2801],[26.0601,59.2766],[26.0652,59.2752],[26.0778,59.2762],[26.0689,59.2766],[26.0619,59.2797],[26.0687,59.2837],[26.0422,59.2834],[26.0463,59.2908],[26.0358,59.2963],[26.0298,59.2948],[26.01,59.2843],[26.0156,59.2802]]],[[[25.676,58.9971],[25.6793,59.0022],[25.6891,59.0086],[25.6871,59.0096],[25.692,59.0184],[25.6937,59.0221],[25.6834,59.0214],[25.6808,59.0198],[25.672,59.0191],[25.6686,59.0166],[25.6572,59.0119],[25.6476,59.0084],[25.6505,59.0036],[25.647,58.9993],[25.6487,58.9955],[25.6448,58.9924],[25.66,58.9926],[25.6658,58.9927],[25.6631,58.9998],[25.6727,59.0035],[25.678,59.0015],[25.676,58.9971]]],[[[25.6261,58.9922],[25.6406,58.9924],[25.6331,58.994],[25.6311,58.9993],[25.6251,59.0017],[25.6213,59.0042],[25.62,59.0144],[25.616,59.0111],[25.615,59.0038],[25.6216,58.9994],[25.6236,58.9941],[25.6261,58.9922]]],[[[25.5473,59.0361],[25.5318,59.0366],[25.5213,59.0335],[25.5341,59.0295],[25.5459,59.0233],[25.557,59.0129],[25.5585,59.0169],[25.567,59.0196],[25.5672,59.0196],[25.5727,59.0217],[25.5704,59.0222],[25.5629,59.0214],[25.5609,59.0301],[25.5579,59.0295],[25.5546,59.029],[25.549,59.0315],[25.548,59.0329],[25.5473,59.0361]]],[[[26.0335,59.0627],[26.0406,59.0644],[26.0375,59.0702],[26.0229,59.0715],[26.0168,59.0683],[26.0097,59.071],[26.0105,59.0767],[26.0097,59.0809],[25.9972,59.0776],[25.998,59.0718],[26.003,59.0672],[26.0071,59.0672],[26.0214,59.0575],[26.0206,59.0549],[26.0349,59.053],[26.0369,59.058],[26.0335,59.0627]]],[[[25.8519,59.0628],[25.8591,59.0564],[25.865,59.0545],[25.8761,59.058],[25.8725,59.0603],[25.8736,59.0641],[25.8841,59.0663],[25.8818,59.0664],[25.8804,59.0675],[25.8789,59.068],[25.873,59.0728],[25.8761,59.0752],[25.8679,59.0773],[25.8665,59.0782],[25.8717,59.0867],[25.876,59.0878],[25.8709,59.0899],[25.8624,59.0862],[25.8648,59.0835],[25.853,59.0819],[25.8486,59.0791],[25.8483,59.0769],[25.8382,59.0739],[25.8347,59.0758],[25.8236,59.0739],[25.827,59.0703],[25.8347,59.0713],[25.8307,59.0632],[25.8374,59.0612],[25.8462,59.0649],[25.8519,59.0628]]],[[[26.0407,59.2015],[26.0256,59.2087],[26.0136,59.2067],[26.0105,59.1948],[26.0214,59.1948],[26.0277,59.1999],[26.0378,59.2009],[26.0407,59.2015]]],[[[26.2448,59.308],[26.2435,59.3093],[26.2413,59.31],[26.2356,59.3097],[26.2349,59.3094],[26.2327,59.3091],[26.2303,59.3061],[26.2282,59.3059],[26.2278,59.3051],[26.2257,59.3049],[26.2256,59.3028],[26.2203,59.3014],[26.215,59.2915],[26.2267,59.2939],[26.2272,59.2979],[26.2351,59.2987],[26.2454,59.2971],[26.2553,59.3006],[26.2587,59.3058],[26.2448,59.308]]],[[[26.4733,59.2947],[26.4733,59.2948],[26.4733,59.2968],[26.4664,59.2993],[26.4733,59.2947]]],[[[26.3983,59.3362],[26.4004,59.335],[26.4016,59.3345],[26.4032,59.3339],[26.4053,59.3339],[26.4063,59.3334],[26.4112,59.3317],[26.4221,59.3288],[26.4241,59.3291],[26.4262,59.3321],[26.4265,59.3333],[26.4244,59.3361],[26.4232,59.3389],[26.4134,59.3414],[26.4061,59.3443],[26.4059,59.3442],[26.4021,59.3422],[26.4001,59.3414],[26.3983,59.3362]]],[[[26.4223,59.3442],[26.4228,59.3444],[26.4297,59.341],[26.4407,59.343],[26.4422,59.3432],[26.4439,59.3432],[26.4405,59.3464],[26.4371,59.3496],[26.439,59.351],[26.4346,59.3538],[26.4142,59.3562],[26.4138,59.3557],[26.4096,59.3571],[26.4066,59.355],[26.4063,59.355],[26.4223,59.3442]]],[[[25.8974,59.1302],[25.9006,59.1336],[25.9111,59.1408],[25.8995,59.1427],[25.8868,59.1407],[25.8852,59.1441],[25.89,59.1509],[25.8883,59.1538],[25.8916,59.1599],[25.8883,59.1627],[25.8803,59.1606],[25.876,59.1562],[25.8634,59.1528],[25.8604,59.1462],[25.8695,59.1428],[25.8796,59.1423],[25.8845,59.1398],[25.8903,59.1336],[25.8974,59.1302]]],[[[25.4109,59.083],[25.3949,59.0903],[25.3884,59.0882],[25.3739,59.0805],[25.366,59.081],[25.3525,59.0727],[25.3594,59.0703],[25.3622,59.0691],[25.3803,59.063],[25.3908,59.0626],[25.4131,59.0539],[25.4207,59.0574],[25.4218,59.0586],[25.4245,59.0621],[25.4255,59.064],[25.4273,59.0658],[25.4299,59.0685],[25.421,59.078],[25.4109,59.083]]],[[[25.7923,59.3581],[25.7927,59.3583],[25.7922,59.3592],[25.7923,59.36],[25.7874,59.3637],[25.787,59.3644],[25.7806,59.3717],[25.7804,59.3731],[25.7796,59.3736],[25.7795,59.3737],[25.7771,59.3744],[25.7757,59.3747],[25.771,59.3754],[25.7704,59.3754],[25.7697,59.3758],[25.7699,59.3759],[25.7652,59.3773],[25.7651,59.3774],[25.7616,59.3787],[25.7613,59.3792],[25.7607,59.3799],[25.7602,59.3806],[25.7513,59.3884],[25.7459,59.3897],[25.7462,59.3883],[25.7408,59.3848],[25.7358,59.3896],[25.7213,59.3887],[25.7168,59.3855],[25.7117,59.382],[25.715,59.3787],[25.7175,59.3776],[25.7241,59.3724],[25.7246,59.3681],[25.7259,59.3662],[25.7257,59.362],[25.7249,59.3612],[25.7279,59.3627],[25.7282,59.3696],[25.7254,59.3735],[25.736,59.3749],[25.7458,59.3743],[25.7433,59.3702],[25.7549,59.3686],[25.7568,59.3733],[25.7643,59.3688],[25.7539,59.3637],[25.76,59.3616],[25.7653,59.3606],[25.7666,59.3603],[25.7684,59.362],[25.7758,59.3653],[25.7883,59.3585],[25.7866,59.3556],[25.7923,59.3581]]],[[[26.1031,59.1888],[26.1068,59.1949],[26.1029,59.1954],[26.093,59.19],[26.0892,59.1818],[26.0902,59.1813],[26.092,59.1794],[26.1126,59.1798],[26.1176,59.1817],[26.1167,59.1857],[26.1031,59.1888]]],[[[25.343,59.3316],[25.344,59.3271],[25.3518,59.3274],[25.3538,59.3178],[25.3513,59.3153],[25.3683,59.3094],[25.3832,59.3194],[25.3828,59.3223],[25.3729,59.3252],[25.3447,59.3329],[25.343,59.3316]]],[[[25.5572,59.3367],[25.557,59.3354],[25.5566,59.3317],[25.5537,59.3137],[25.5956,59.2948],[25.5969,59.2941],[25.6022,59.2919],[25.6014,59.2913],[25.6004,59.2904],[25.6026,59.2892],[25.6088,59.2959],[25.6017,59.2959],[25.6085,59.298],[25.6094,59.2984],[25.6153,59.3006],[25.6173,59.2991],[25.6324,59.2999],[25.6418,59.3032],[25.649,59.3086],[25.6506,59.3176],[25.648,59.3293],[25.6468,59.3318],[25.6416,59.3379],[25.6375,59.3409],[25.632,59.3438],[25.6265,59.3458],[25.6183,59.3482],[25.6104,59.3501],[25.6048,59.3506],[25.5964,59.346],[25.5967,59.3421],[25.5983,59.3408],[25.5949,59.3395],[25.5942,59.3385],[25.5905,59.3333],[25.582,59.3349],[25.5849,59.3394],[25.5771,59.3414],[25.5773,59.3419],[25.5673,59.3407],[25.5565,59.341],[25.5572,59.3367]]],[[[25.2902,59.1544],[25.2857,59.1535],[25.2781,59.1581],[25.2676,59.1613],[25.2711,59.1646],[25.269,59.164],[25.2652,59.1649],[25.2649,59.165],[25.2644,59.1647],[25.2643,59.1636],[25.2643,59.1632],[25.2577,59.1622],[25.2561,59.162],[25.2539,59.1608],[25.2533,59.1603],[25.2512,59.1594],[25.2513,59.1584],[25.2517,59.1494],[25.2521,59.141],[25.2585,59.1416],[25.2596,59.1413],[25.2648,59.1402],[25.2708,59.1421],[25.2803,59.1405],[25.2898,59.136],[25.2943,59.1295],[25.3022,59.1315],[25.3102,59.1287],[25.3136,59.1247],[25.3153,59.1243],[25.3195,59.1279],[25.3189,59.1356],[25.3087,59.1383],[25.3077,59.1446],[25.3005,59.1452],[25.294,59.1532],[25.2902,59.1544]]],[[[25.5446,59.3308],[25.5444,59.3302],[25.544,59.3215],[25.5387,59.3222],[25.5398,59.33],[25.5337,59.3323],[25.5418,59.345],[25.5149,59.3542],[25.4679,59.3526],[25.4584,59.3426],[25.4463,59.3422],[25.4447,59.3422],[25.4393,59.342],[25.4178,59.3456],[25.4148,59.3406],[25.4226,59.34],[25.4235,59.3401],[25.4228,59.339],[25.4146,59.3402],[25.4086,59.3414],[25.4142,59.3443],[25.4056,59.3485],[25.4059,59.3494],[25.3802,59.3594],[25.3776,59.3577],[25.3786,59.357],[25.3905,59.3505],[25.3834,59.3482],[25.3771,59.3501],[25.3757,59.3482],[25.3773,59.3434],[25.3922,59.3435],[25.3945,59.3401],[25.3933,59.3354],[25.3866,59.3298],[25.3929,59.325],[25.396,59.3244],[25.3961,59.3225],[25.3978,59.3219],[25.4001,59.3202],[25.3972,59.3206],[25.398,59.321],[25.3957,59.3223],[25.3949,59.3236],[25.3913,59.3249],[25.3881,59.3286],[25.3845,59.3295],[25.3803,59.3259],[25.3838,59.3225],[25.474,59.2957],[25.4874,59.2934],[25.5974,59.2888],[25.5966,59.2896],[25.5955,59.2929],[25.5929,59.2934],[25.5913,59.2964],[25.5531,59.3136],[25.5538,59.3283],[25.5554,59.3289],[25.5554,59.33],[25.5555,59.3313],[25.5556,59.3316],[25.5446,59.3308]],[[25.4801,59.3229],[25.4889,59.3235],[25.4943,59.3204],[25.512,59.3171],[25.5175,59.3136],[25.5128,59.3067],[25.4896,59.3064],[25.491,59.3106],[25.4837,59.312],[25.4863,59.3169],[25.4801,59.3229]]]]},"properties":null}
]}