{"type":"FeatureCollection", "features": [
{"type":"Feature","geometry":{"type":"Polygon","coordinates":[[[25.8004,59.3621],[25.8037,59.3618],[25.8067,59.3609],[25.8099,59.3592],[25.8123,59.3583],[25.8147,59.3586],[25.8162,59.3579],[25.8203,59.3575],[25.823,59.3577],[25.8257,59.3594],[25.8275,59.3591],[25.8332,59.3627],[25.8356,59.3638],[25.8449,59.3687],[25.8484,59.3702],[25.8491,59.371],[25.8472,59.372],[25.844,59.3727],[25.8395,59.3747],[25.8383,59.3755],[25.8379,59.3761],[25.837,59.3793],[25.837,59.38],[25.8314,59.3789],[25.8299,59.3799],[25.8281,59.3797],[25.8242,59.3796],[25.8225,59.3779],[25.8212,59.3774],[25.8191,59.3753],[25.8121,59.3749],[25.8111,59.3736],[25.8115,59.3727],[25.8096,59.3718],[25.8077,59.3733],[25.8041,59.374],[25.8021,59.3722],[25.802,59.3702],[25.8004,59.3621]]]},"properties":{"name":"Sihtmärgialad 1 & 2"}},
{"type":"Feature","geometry":{"type":"Polygon","coordinates":[[[25.8628,59.4392],[25.8642,59.4414],[25.8605,59.4422],[25.8589,59.4406],[25.861,59.4389],[25.8625,59.4387],[25.8628,59.4392]]]},"properties":{"name":"Keskpolügooni teeninduskeskus"}},
{"type":"Feature","geometry":{"type":"Polygon","coordinates":[[[25.9384,59.2508],[25.9394,59.2495],[25.9428,59.2502],[25.9432,59.2515],[25.9414,59.2516],[25.9413,59.2516],[25.9412,59.2515],[25.9408,59.2516],[25.9404,59.2515],[25.9386,59.2511],[25.9384,59.2508]]]},"properties":{"name":""}},
{"type":"Feature","geometry":{"type":"Polygon","coordinates":[[[25.9298,59.2326],[25.936,59.2315],[25.9659,59.2403],[25.9638,59.2422],[25.9693,59.2438],[25.9708,59.2454],[25.9707,59.2466],[25.9674,59.2484],[25.9647,59.2484],[25.9592,59.2491],[25.9475,59.247],[25.9471,59.2461],[25.9464,59.246],[25.9383,59.2451],[25.9353,59.2407],[25.932,59.2358],[25.9298,59.2326]]]},"properties":{"name":"Tapa sõjaväelinnak"}},
{"type":"Feature","geometry":{"type":"Polygon","coordinates":[[[25.8025,59.3737],[25.8042,59.375],[25.8064,59.3747],[25.8109,59.3758],[25.8133,59.3755],[25.8169,59.3758],[25.8172,59.3768],[25.819,59.3767],[25.8246,59.3802],[25.8273,59.3806],[25.8236,59.3831],[25.8287,59.3832],[25.8264,59.3857],[25.8279,59.3875],[25.8254,59.3902],[25.8232,59.391],[25.8196,59.3932],[25.8176,59.3943],[25.8146,59.3938],[25.8117,59.3947],[25.8103,59.3928],[25.8035,59.3813],[25.8034,59.3805],[25.8031,59.379],[25.8025,59.3737]]]},"properties":{"name":"Sihtmärgiala 3"}},
{"type":"Feature","geometry":{"type":"Polygon","coordinates":[[[25.2378,59.42],[25.2379,59.4187],[25.2379,59.4186],[25.238,59.4156],[25.2381,59.4138],[25.2454,59.4124],[25.2482,59.4143],[25.2487,59.4145],[25.2484,59.4152],[25.2479,59.4157],[25.247,59.4159],[25.2443,59.416],[25.2412,59.4165],[25.2399,59.4174],[25.2413,59.4198],[25.2436,59.4199],[25.245,59.4216],[25.2443,59.4223],[25.2406,59.4234],[25.2394,59.4231],[25.2378,59.42]]]},"properties":{"name":"Jägala sõjaväelinnak"}},
{"type":"Feature","geometry":{"type":"Polygon","coordinates":[[[25.9193,59.2507],[25.9253,59.2513],[25.931,59.2515],[25.9314,59.2497],[25.9345,59.2499],[25.9349,59.25],[25.9362,59.2505],[25.9376,59.2501],[25.9395,59.2533],[25.9367,59.2541],[25.9367,59.2553],[25.9337,59.2555],[25.9323,59.2536],[25.9287,59.2539],[25.9276,59.2554],[25.9271,59.2565],[25.9284,59.2585],[25.9267,59.2589],[25.9226,59.2591],[25.9195,59.2586],[25.918,59.2581],[25.9157,59.2577],[25.915,59.2574],[25.9139,59.2561],[25.9097,59.2554],[25.9144,59.2526],[25.9154,59.2519],[25.9161,59.2506],[25.9169,59.2505],[25.9172,59.2505],[25.9193,59.2507]]]},"properties":{"name":""}},
{"type":"Feature","geometry":{"type":"Polygon","coordinates":[[[25.9154,59.2519],[25.9164,59.2506],[25.9169,59.2505],[25.9171,59.2505],[25.9172,59.2505],[25.9193,59.2507],[25.9227,59.2514],[25.9219,59.2528],[25.9162,59.252],[25.9158,59.2522],[25.9154,59.2519]]]},"properties":{"name":"Lasketiir"}},
{"type":"Feature","geometry":{"type":"Polygon","coordinates":[[[25.7922,59.3592],[25.7932,59.3586],[25.783,59.3537],[25.7817,59.3518],[25.781,59.3504],[25.7819,59.3493],[25.7867,59.3469],[25.798,59.3475],[25.7984,59.3456],[25.7936,59.3418],[25.7953,59.34],[25.8024,59.3376],[25.7946,59.3328],[25.7941,59.3318],[25.7882,59.3293],[25.7655,59.3216],[25.7673,59.3217],[25.7698,59.3208],[25.7709,59.3212],[25.7749,59.3196],[25.7776,59.3175],[25.7783,59.3177],[25.7792,59.317],[25.7795,59.317],[25.7799,59.317],[25.78,59.317],[25.7801,59.3171],[25.7804,59.3171],[25.7804,59.3169],[25.7801,59.3169],[25.78,59.3169],[25.78,59.3168],[25.7804,59.3165],[25.7808,59.3165],[25.7809,59.3164],[25.7811,59.3163],[25.7808,59.3162],[25.7806,59.316],[25.7824,59.3148],[25.784,59.3122],[25.7848,59.3112],[25.785,59.311],[25.7852,59.3109],[25.7855,59.3108],[25.7856,59.3108],[25.7856,59.3098],[25.7886,59.3082],[25.7915,59.3083],[25.7932,59.3092],[25.7945,59.3092],[25.7949,59.309],[25.7952,59.3088],[25.7955,59.3087],[25.7941,59.307],[25.7942,59.3063],[25.7936,59.3055],[25.7929,59.3043],[25.7925,59.3036],[25.7929,59.3028],[25.7917,59.3021],[25.7928,59.2993],[25.7954,59.2986],[25.7948,59.2966],[25.7958,59.2962],[25.799,59.2963],[25.8025,59.2946],[25.8029,59.2939],[25.8056,59.2941],[25.8082,59.2937],[25.8094,59.2932],[25.8108,59.2925],[25.8126,59.2925],[25.8262,59.2918],[25.833,59.2914],[25.8427,59.2909],[25.8477,59.2906],[25.8492,59.2913],[25.8527,59.2902],[25.8563,59.2905],[25.8565,59.2905],[25.8569,59.2902],[25.857,59.2901],[25.8634,59.2898],[25.8683,59.2896],[25.8768,59.2892],[25.8883,59.2886],[25.895,59.2787],[25.895,59.2786],[25.8945,59.2777],[25.9015,59.2768],[25.9035,59.2769],[25.9089,59.278],[25.912,59.2775],[25.9195,59.2892],[25.9177,59.2944],[25.915,59.2982],[25.9165,59.2989],[25.9136,59.3],[25.9115,59.3004],[25.9112,59.3018],[25.9088,59.3025],[25.914,59.3031],[25.9084,59.3072],[25.9109,59.3082],[25.9136,59.3192],[25.9098,59.3184],[25.9064,59.3204],[25.9047,59.3198],[25.902,59.3215],[25.8943,59.3207],[25.8921,59.3226],[25.8862,59.3251],[25.8776,59.3308],[25.8789,59.3381],[25.8652,59.3368],[25.862,59.3384],[25.8602,59.3518],[25.8589,59.3514],[25.8578,59.3536],[25.8556,59.3552],[25.8587,59.3559],[25.8596,59.3564],[25.8608,59.3567],[25.8629,59.3572],[25.8638,59.3565],[25.8642,59.3567],[25.8632,59.3578],[25.8628,59.3584],[25.8626,59.3587],[25.8623,59.3591],[25.862,59.3599],[25.8656,59.3622],[25.8663,59.3636],[25.8686,59.3633],[25.8717,59.3617],[25.8747,59.3605],[25.8774,59.3581],[25.8799,59.3572],[25.8845,59.3579],[25.8908,59.3573],[25.8909,59.3583],[25.897,59.3605],[25.8936,59.3641],[25.9001,59.3666],[25.9031,59.3682],[25.9023,59.3801],[25.9011,59.3809],[25.897,59.3798],[25.8963,59.3801],[25.8984,59.3811],[25.8998,59.3826],[25.8976,59.3826],[25.897,59.3876],[25.8984,59.3885],[25.8941,59.3976],[25.8961,59.3987],[25.8929,59.4017],[25.887,59.4031],[25.8837,59.4058],[25.8909,59.4086],[25.8888,59.4096],[25.8854,59.4103],[25.8842,59.4119],[25.8846,59.4136],[25.8878,59.4168],[25.8887,59.4172],[25.8892,59.4186],[25.8952,59.4241],[25.8969,59.4253],[25.8972,59.4275],[25.896,59.4297],[25.8922,59.4314],[25.8891,59.433],[25.8888,59.4334],[25.8885,59.4338],[25.8884,59.434],[25.8883,59.4341],[25.8883,59.4342],[25.8884,59.4343],[25.8889,59.4354],[25.8889,59.4355],[25.8889,59.4356],[25.8885,59.4357],[25.8871,59.4353],[25.8853,59.4353],[25.8845,59.4355],[25.883,59.4354],[25.8811,59.4349],[25.8796,59.4414],[25.8781,59.4417],[25.8778,59.4435],[25.8744,59.4432],[25.8698,59.4429],[25.8606,59.4423],[25.8568,59.442],[25.8565,59.4435],[25.8538,59.4435],[25.8362,59.4434],[25.8339,59.4432],[25.8326,59.4433],[25.8186,59.4432],[25.8009,59.443],[25.7833,59.4429],[25.7681,59.4427],[25.7609,59.4394],[25.7585,59.4396],[25.7583,59.4394],[25.7582,59.439],[25.7578,59.4387],[25.7577,59.4383],[25.7583,59.4374],[25.7597,59.4375],[25.7601,59.4374],[25.7602,59.437],[25.7592,59.4362],[25.7591,59.4361],[25.7592,59.4357],[25.7599,59.4355],[25.7594,59.4354],[25.7592,59.4353],[25.7593,59.4349],[25.7607,59.4338],[25.7606,59.4327],[25.7614,59.432],[25.7626,59.4319],[25.7628,59.4317],[25.7624,59.4311],[25.7631,59.4306],[25.7605,59.43],[25.7595,59.4295],[25.7593,59.4288],[25.7585,59.4286],[25.7577,59.4282],[25.757,59.4275],[25.7563,59.4273],[25.7553,59.4274],[25.7546,59.4272],[25.7553,59.4259],[25.7548,59.4255],[25.7533,59.4252],[25.7544,59.4246],[25.7541,59.4242],[25.7528,59.4241],[25.7526,59.4238],[25.7515,59.4234],[25.7511,59.4232],[25.7501,59.423],[25.7503,59.4219],[25.7498,59.421],[25.7482,59.4203],[25.7477,59.42],[25.7468,59.4187],[25.748,59.4175],[25.7479,59.4173],[25.7465,59.417],[25.7463,59.4168],[25.7467,59.4164],[25.7472,59.4159],[25.7469,59.4158],[25.7465,59.4157],[25.7463,59.4158],[25.7459,59.4161],[25.7455,59.4161],[25.7445,59.4159],[25.7439,59.4155],[25.7454,59.4152],[25.7457,59.4149],[25.7458,59.4143],[25.7455,59.4141],[25.7445,59.4142],[25.7447,59.4137],[25.746,59.4135],[25.7462,59.413],[25.7444,59.4127],[25.7456,59.412],[25.7459,59.4119],[25.7462,59.4116],[25.7461,59.4113],[25.7453,59.4109],[25.745,59.4107],[25.7456,59.4099],[25.7449,59.409],[25.7453,59.4082],[25.7446,59.4073],[25.7451,59.407],[25.745,59.4064],[25.7434,59.4064],[25.7428,59.4061],[25.7427,59.4052],[25.7432,59.4047],[25.7432,59.4043],[25.7423,59.4041],[25.7428,59.4025],[25.7419,59.4022],[25.7424,59.3999],[25.7403,59.3992],[25.7412,59.3984],[25.7415,59.3973],[25.7412,59.397],[25.7417,59.3964],[25.7414,59.3962],[25.7417,59.3952],[25.7412,59.395],[25.7419,59.3945],[25.7421,59.3939],[25.7414,59.3932],[25.7429,59.3931],[25.7429,59.3926],[25.7442,59.392],[25.744,59.3916],[25.7442,59.3911],[25.7447,59.3911],[25.7448,59.3909],[25.7448,59.3907],[25.7448,59.3906],[25.7452,59.3904],[25.7453,59.3902],[25.7459,59.3897],[25.7463,59.3896],[25.7468,59.3896],[25.7471,59.3897],[25.7472,59.3901],[25.7476,59.3905],[25.7535,59.3882],[25.7547,59.3861],[25.7564,59.3861],[25.7571,59.3859],[25.7576,59.3858],[25.7578,59.3858],[25.7579,59.3857],[25.7579,59.3856],[25.7574,59.3853],[25.7575,59.385],[25.7584,59.3835],[25.7608,59.3831],[25.7618,59.3814],[25.7602,59.3806],[25.7607,59.3799],[25.7613,59.3792],[25.7616,59.3787],[25.7651,59.3774],[25.7652,59.3773],[25.7671,59.3771],[25.7699,59.3759],[25.7697,59.3758],[25.7704,59.3754],[25.771,59.3754],[25.7722,59.3759],[25.7725,59.3759],[25.7737,59.375],[25.7757,59.3747],[25.7771,59.3744],[25.7795,59.3737],[25.7796,59.3736],[25.7804,59.3731],[25.7806,59.3717],[25.7821,59.3702],[25.7846,59.3689],[25.7847,59.3689],[25.7845,59.3683],[25.7846,59.367],[25.786,59.3664],[25.787,59.3644],[25.7874,59.3637],[25.7912,59.3617],[25.7923,59.36],[25.7922,59.3592]]]},"properties":{"name":"Keskpolügoon"}},
{"type":"Feature","geometry":{"type":"Polygon","coordinates":[[[26.3551,59.3483],[26.3552,59.3481],[26.3562,59.3482],[26.3561,59.3485],[26.3551,59.3483]]]},"properties":{"name":"Kaitseliit Viru Malev"}},
{"type":"Feature","geometry":{"type":"Polygon","coordinates":[[[25.4702,59.39],[25.4759,59.3857],[25.4803,59.3857],[25.4865,59.3858],[25.4886,59.3852],[25.4898,59.383],[25.5001,59.3805],[25.5102,59.3791],[25.5142,59.3779],[25.5241,59.3751],[25.5266,59.3745],[25.5269,59.3732],[25.5397,59.3699],[25.5418,59.3717],[25.5569,59.3673],[25.5673,59.3645],[25.5811,59.3608],[25.5933,59.3573],[25.6513,59.3563],[25.6513,59.366],[25.6588,59.3696],[25.6574,59.3734],[25.6571,59.38],[25.6525,59.3843],[25.654,59.3931],[25.654,59.3976],[25.6513,59.4089],[25.6497,59.4171],[25.6466,59.4282],[25.639,59.4268],[25.6382,59.4269],[25.628,59.4256],[25.6188,59.4246],[25.6112,59.424],[25.591,59.423],[25.5793,59.4217],[25.5605,59.4187],[25.5513,59.4218],[25.5377,59.4199],[25.5287,59.4223],[25.5246,59.4214],[25.5141,59.4233],[25.5076,59.4222],[25.5067,59.4218],[25.5063,59.4198],[25.5033,59.4136],[25.4998,59.4104],[25.4919,59.4032],[25.477,59.3959],[25.4748,59.3949],[25.4702,59.39]]]},"properties":{"name":"Soodla harjutusväli"}},
{"type":"Feature","geometry":{"type":"Polygon","coordinates":[[[25.8991,59.2969],[25.8997,59.2968],[25.9026,59.2949],[25.9033,59.2952],[25.9002,59.2974],[25.8991,59.2969]]]},"properties":{"name":"Lasketiir"}},
{"type":"Feature","geometry":{"type":"Polygon","coordinates":[[[25.8977,59.2914],[25.9015,59.2894],[25.9024,59.2897],[25.8986,59.2919],[25.8977,59.2914]]]},"properties":{"name":"Lasketiir"}},
{"type":"Feature","geometry":{"type":"Polygon","coordinates":[[[25.951,59.2269],[25.9593,59.2241],[25.9618,59.2248],[25.9615,59.2258],[25.9531,59.2286],[25.951,59.2269]]]},"properties":{"name":""}},
{"type":"Feature","geometry":{"type":"Polygon","coordinates":[[[25.8599,59.2947],[25.8619,59.2947],[25.8646,59.3041],[25.8601,59.3043],[25.8599,59.2947]]]},"properties":{"name":"Lasketiir"}},
{"type":"Feature","geometry":{"type":"Polygon","coordinates":[[[25.769,59.4289],[25.7802,59.4162],[25.7848,59.4174],[25.7706,59.4293],[25.769,59.4289]]]},"properties":{"name":"Lasketiir"}},
{"type":"Feature","geometry":{"type":"Polygon","coordinates":[[[25.9235,59.2284],[25.9253,59.2258],[25.9346,59.228],[25.9337,59.2294],[25.9319,59.2307],[25.9279,59.23],[25.9235,59.2284]]]},"properties":{"name":"Tapa soomukite õppesõiduväljak"}},
{"type":"Feature","geometry":{"type":"Polygon","coordinates":[[[25.9519,59.2544],[25.9538,59.2544],[25.9538,59.2549],[25.952,59.2549],[25.9519,59.2544]]]},"properties":{"name":""}},
{"type":"Feature","geometry":{"type":"Polygon","coordinates":[[[25.9503,59.2474],[25.9505,59.2469],[25.9535,59.2473],[25.9533,59.2477],[25.9503,59.2474]]]},"properties":{"name":""}},
{"type":"Feature","geometry":{"type":"Polygon","coordinates":[[[26.3526,59.3624],[26.3529,59.3616],[26.3539,59.3619],[26.3539,59.3626],[26.3526,59.3624]]]},"properties":{"name":""}},
{"type":"Feature","geometry":{"type":"Polygon","coordinates":[[[25.8004,59.2798],[25.8021,59.2788],[25.8069,59.2799],[25.8105,59.278],[25.8116,59.2793],[25.8135,59.2794],[25.8128,59.2813],[25.811,59.2842],[25.8032,59.2836],[25.8012,59.2817],[25.8004,59.2798]]]},"properties":{"name":""}},
{"type":"Feature","geometry":{"type":"Polygon","coordinates":[[[25.8965,59.2231],[25.8972,59.2229],[25.8977,59.2229],[25.8973,59.2213],[25.8976,59.2212],[25.9006,59.2194],[25.902,59.2192],[25.9024,59.2193],[25.9062,59.2185],[25.908,59.2181],[25.908,59.218],[25.9071,59.2139],[25.9049,59.2077],[25.9085,59.2067],[25.9099,59.2062],[25.9109,59.2059],[25.911,59.2059],[25.9167,59.2031],[25.9212,59.2015],[25.9227,59.1991],[25.9266,59.1988],[25.941,59.2034],[25.9397,59.2049],[25.9485,59.207],[25.9645,59.2064],[25.9657,59.2098],[25.966,59.2102],[25.9667,59.2111],[25.967,59.2116],[25.9679,59.2125],[25.9684,59.2131],[25.9712,59.216],[25.9738,59.2181],[25.9767,59.2202],[25.9772,59.2204],[25.9775,59.2205],[25.9773,59.2209],[25.9772,59.2212],[25.9771,59.2216],[25.9771,59.222],[25.9781,59.2267],[25.9783,59.2271],[25.9785,59.2274],[25.9797,59.2284],[25.9818,59.2308],[25.9822,59.2313],[25.983,59.2323],[25.9862,59.2365],[25.9864,59.237],[25.9849,59.2388],[25.9855,59.24],[25.989,59.2412],[25.9884,59.2421],[25.9858,59.246],[25.9771,59.2436],[25.9737,59.2466],[25.9732,59.2471],[25.9715,59.2468],[25.9678,59.2488],[25.9648,59.2488],[25.9645,59.2489],[25.9636,59.25],[25.9629,59.2499],[25.9614,59.251],[25.9603,59.2524],[25.9472,59.2515],[25.9465,59.2513],[25.9432,59.2515],[25.9413,59.2516],[25.9408,59.2516],[25.9389,59.2517],[25.9375,59.2498],[25.9318,59.2469],[25.9277,59.2417],[25.9258,59.2404],[25.9265,59.2383],[25.9266,59.2354],[25.9254,59.2337],[25.9262,59.2315],[25.9257,59.2311],[25.9251,59.2307],[25.9245,59.2304],[25.9241,59.2301],[25.9182,59.2287],[25.9191,59.2349],[25.919,59.236],[25.9182,59.2356],[25.9175,59.2351],[25.9157,59.234],[25.9142,59.233],[25.9094,59.2299],[25.9082,59.2291],[25.907,59.2284],[25.9067,59.2281],[25.905,59.2271],[25.904,59.2265],[25.9031,59.2259],[25.9024,59.2254],[25.9019,59.2251],[25.901,59.2245],[25.9003,59.2243],[25.8988,59.2237],[25.8977,59.2234],[25.8965,59.2231]]]},"properties":{"name":""}},
{"type":"Feature","geometry":{"type":"Polygon","coordinates":[[[25.2379,59.4186],[25.238,59.4156],[25.239,59.4154],[25.2407,59.4162],[25.2394,59.4168],[25.2379,59.4186]]]},"properties":{"name":"Jägala sõjaväelinnak"}}
]}