{"type":"FeatureCollection", "features": [
{"type":"Feature","geometry":{"type":"MultiLineString","coordinates":[[[26.3709,59.3582],[26.3732,59.3585],[26.3737,59.3585],[26.3749,59.3587],[26.3758,59.3589],[26.3765,59.359],[26.3782,59.3592],[26.3788,59.3592],[26.379,59.3592],[26.382,59.3587]],[[26.3847,59.3597],[26.3815,59.3595],[26.3803,59.3595],[26.3821,59.3597],[26.383,59.3598],[26.3816,59.3597],[26.3823,59.3598],[26.3898,59.3605],[26.3904,59.3605],[26.3905,59.3605],[26.3933,59.3608],[26.3981,59.3605]],[[26.3669,59.3578],[26.3705,59.3583],[26.3758,59.3589]],[[26.3812,59.3594],[26.379,59.3592]],[[26.3624,59.3589],[26.366,59.3582],[26.3668,59.3582],[26.3718,59.3588],[26.3679,59.3584]],[[26.3814,59.3599],[26.376,59.3593],[26.3771,59.3593],[26.3747,59.3591],[26.3745,59.3591],[26.3742,59.3591],[26.3738,59.359],[26.3651,59.358],[26.3668,59.3582]],[[26.3917,59.3607],[26.3905,59.3605]],[[26.4009,59.3697],[26.398,59.3665],[26.3976,59.3662],[26.3962,59.3646],[26.398,59.3665]],[[26.093,59.1605],[26.0933,59.1614],[26.0934,59.1617],[26.0933,59.1614],[26.0933,59.1612]],[[26.092,59.1567],[26.0919,59.1564],[26.0922,59.1575],[26.0924,59.1578],[26.0926,59.1584],[26.0926,59.1585],[26.0927,59.1587],[26.0927,59.159],[26.0928,59.1591],[26.0929,59.1596],[26.093,59.1597],[26.093,59.1605],[26.093,59.1609],[26.0925,59.1589],[26.0924,59.1586],[26.092,59.1574],[26.0918,59.1569],[26.0924,59.1591],[26.0929,59.1608],[26.0931,59.1613],[26.093,59.1609]],[[26.0917,59.1582],[26.0924,59.1597],[26.0925,59.16],[26.0926,59.1604],[26.0925,59.1611],[26.0929,59.1623]],[[26.0954,59.1641],[26.097,59.1641],[26.0994,59.1638],[26.0999,59.1637],[26.1001,59.1637],[26.1012,59.1635],[26.0997,59.1636],[26.0966,59.1627]],[[26.0974,59.1639],[26.0988,59.1638],[26.0994,59.1638]],[[25.933,59.2539],[25.9343,59.2575],[25.9329,59.2539]],[[25.9428,59.2624],[25.945,59.2633],[25.9452,59.2634],[25.9449,59.2633],[25.9433,59.2627],[25.9413,59.2616]],[[25.9427,59.2626],[25.9434,59.2629],[25.9449,59.2633],[25.945,59.2633],[25.9457,59.2635],[25.9473,59.2639],[25.9445,59.2633],[25.9438,59.2633],[25.9431,59.2632],[25.9285,59.262],[25.9193,59.2618],[25.916,59.2604],[25.9145,59.26],[25.9117,59.2596]],[[25.9728,59.2658],[25.9699,59.2662],[25.9726,59.2659],[25.9728,59.2659]],[[25.9722,59.2656],[25.9709,59.2658],[25.9688,59.2659],[25.9682,59.2659],[25.9668,59.2658],[25.9631,59.2655],[25.9652,59.2658],[25.9541,59.2649],[25.9555,59.2649],[25.9527,59.2646],[25.9507,59.2644],[25.9496,59.2643],[25.9489,59.2642],[25.9487,59.2642],[25.9479,59.264],[25.9473,59.2639]],[[25.9793,59.2621],[25.9781,59.2633],[25.9777,59.2638],[25.9771,59.2648],[25.9771,59.2649],[25.9765,59.2665],[25.977,59.2676],[25.9746,59.2663],[25.9715,59.2664],[25.9721,59.2663],[25.9726,59.2662],[25.9727,59.2662],[25.9732,59.2662],[25.9748,59.2662]],[[25.9819,59.2658],[25.9789,59.2648],[25.9771,59.2648],[25.9761,59.2649],[25.9771,59.2649],[25.9772,59.2649],[25.9779,59.2651],[25.9788,59.2652],[25.9815,59.2658]],[[25.9815,59.2659],[25.9788,59.2652]],[[25.9813,59.2662],[25.9779,59.2651]],[[25.9755,59.2669],[25.9742,59.2667],[25.9725,59.2665],[25.9717,59.2665],[25.9704,59.2664],[25.9701,59.2664],[25.97,59.2664],[25.9701,59.2664],[25.9704,59.2664],[25.9706,59.2664],[25.9712,59.2664],[25.9715,59.2664]],[[25.8997,59.2603],[25.9152,59.2616],[25.922,59.2624],[25.9224,59.2624],[25.9239,59.2625],[25.9251,59.2627],[25.9244,59.2626],[25.9229,59.2626],[25.9269,59.2629],[25.9254,59.2627],[25.9251,59.2627]],[[25.3454,59.3377],[25.3437,59.338],[25.3389,59.3402]],[[25.318,59.3421],[25.3209,59.3412],[25.3225,59.3407],[25.3235,59.3404],[25.3224,59.3407],[25.3221,59.3408],[25.3209,59.3412]],[[25.958,59.2649],[25.9551,59.2647],[25.9542,59.2646],[25.9509,59.2644]],[[25.3362,59.3392],[25.3351,59.3389],[25.3362,59.3391]],[[25.3406,59.342],[25.3346,59.339],[25.3363,59.3399]],[[25.3403,59.3388],[25.3385,59.3392],[25.3357,59.3393],[25.3342,59.3388],[25.3346,59.339]],[[26.4428,59.4059],[26.4423,59.4075],[26.4417,59.4097],[26.4414,59.4104],[26.4395,59.4115],[26.4357,59.4121],[26.4346,59.4133],[26.435,59.4142],[26.4248,59.4012],[26.4136,59.3871],[26.4135,59.387],[26.3955,59.364],[26.3948,59.3632],[26.3932,59.3621],[26.393,59.362],[26.3929,59.362],[26.3919,59.3615],[26.3903,59.3609],[26.3883,59.3605],[26.3875,59.3604],[26.3872,59.3604],[26.386,59.3603],[26.3835,59.36],[26.38,59.3596],[26.379,59.3595],[26.378,59.3594],[26.3771,59.3593]],[[26.4668,59.4361],[26.4688,59.4385],[26.4691,59.4412],[26.4705,59.444],[26.471,59.4446]],[[26.4051,59.3764],[26.4037,59.3746],[26.4035,59.3744],[26.4037,59.3756],[26.4004,59.3777]],[[26.4005,59.3778],[26.4032,59.3763],[26.404,59.3754],[26.4037,59.3746]],[[25.9748,59.2666],[25.9706,59.2664]],[[25.9745,59.2656],[25.9731,59.266],[25.9728,59.2661],[25.9725,59.2662],[25.9729,59.2661],[25.9745,59.2656]],[[25.9741,59.2656],[25.9726,59.2659],[25.9713,59.2662],[25.9706,59.2663],[25.9701,59.2664],[25.97,59.2664],[25.9695,59.2664],[25.9693,59.2663],[25.9685,59.2663],[25.9678,59.2662],[25.9675,59.2662],[25.9659,59.2661],[25.9644,59.266],[25.9678,59.266],[25.9706,59.2659],[25.9725,59.2656],[25.9753,59.2648],[25.978,59.2633],[25.9821,59.2589],[25.9855,59.2551],[25.9888,59.2525],[26.0024,59.2414],[26.0055,59.2392],[26.0092,59.2372],[26.0206,59.232],[26.0248,59.2298],[26.0271,59.228],[26.0302,59.2247],[26.0403,59.2113],[26.042,59.2091],[26.0429,59.2078],[26.0436,59.2069],[26.0459,59.2038],[26.0486,59.2008],[26.0459,59.2039],[26.0436,59.2069],[26.0421,59.2089],[26.042,59.2091]],[[25.9733,59.2658],[25.9728,59.2659],[25.9713,59.2662]],[[25.9728,59.266],[25.9706,59.2663]],[[25.9722,59.2662],[25.9714,59.2663],[25.9701,59.2664]],[[25.9261,59.2604],[25.9179,59.2599],[25.9261,59.2605]],[[25.9265,59.2615],[25.9187,59.2609],[25.9164,59.2605],[25.9181,59.2608]],[[25.9491,59.2655],[25.9483,59.2654],[25.9464,59.265],[25.9457,59.2648],[25.9456,59.2648],[25.9437,59.2644],[25.9511,59.265],[25.9543,59.2652],[25.9552,59.2653],[25.9511,59.265],[25.9396,59.264],[25.9288,59.2631],[25.9298,59.2632],[25.9396,59.264],[25.9543,59.2652]],[[25.9525,59.2647],[25.9503,59.2645],[25.9496,59.2643]],[[26.0931,59.1601],[26.0933,59.1614]],[[26.0916,59.1563],[26.0918,59.1569]],[[26.0927,59.161],[26.0926,59.1604]],[[25.5993,59.2886],[25.6032,59.2884],[25.6052,59.288],[25.6062,59.2878],[25.6107,59.2862],[25.6097,59.2865],[25.609,59.2867],[25.6084,59.2869],[25.6076,59.2871],[25.6041,59.2882],[25.604,59.2882],[25.6039,59.2882],[25.6018,59.2884],[25.5925,59.2888],[25.5098,59.2922],[25.5038,59.2924],[25.5033,59.2925],[25.5022,59.2925],[25.4896,59.2931],[25.4876,59.2932],[25.4855,59.2933],[25.4808,59.294],[25.4738,59.2956],[25.4107,59.3143],[25.3454,59.3337],[25.3438,59.3342],[25.3419,59.3348],[25.3411,59.3351],[25.3404,59.3353],[25.3401,59.3353],[25.3382,59.336],[25.3374,59.3363],[25.3288,59.3389],[25.3299,59.3386],[25.3306,59.3385],[25.3337,59.3387],[25.3342,59.3388]],[[25.981,59.2671],[25.9785,59.2653],[25.9772,59.2649]],[[26.3857,59.3603],[26.3871,59.3604],[26.386,59.3603]],[[26.0917,59.1581],[26.0913,59.1563]],[[26.0914,59.1565],[26.092,59.1584],[26.092,59.1587],[26.092,59.1588],[26.0924,59.1597]],[[26.0918,59.1564],[26.092,59.1574]],[[26.0919,59.1562],[26.0919,59.1564]],[[26.0924,59.1606],[26.0925,59.1611]],[[25.9294,59.2297],[25.929,59.2296]],[[26.3557,59.3571],[26.3592,59.3573],[26.3593,59.3573],[26.3627,59.3577],[26.3618,59.3575],[26.3607,59.3573],[26.3606,59.3573],[26.3611,59.3574],[26.3804,59.3596],[26.379,59.3594],[26.3821,59.3597]],[[26.3995,59.3685],[26.3989,59.3677],[26.3988,59.3676],[26.3976,59.3662]],[[26.0926,59.1589],[26.0926,59.159],[26.0926,59.1591],[26.0928,59.1596],[26.0928,59.1597],[26.093,59.1605]],[[25.9789,59.2688],[25.9779,59.2684],[25.9775,59.2681],[25.9774,59.268],[25.977,59.2677],[25.9755,59.2672],[25.9741,59.2668],[25.9717,59.2665]],[[26.3997,59.3704],[26.3994,59.3699],[26.399,59.3692],[26.3985,59.3682],[26.3983,59.3678],[26.3981,59.3674],[26.3947,59.3632],[26.393,59.362],[26.3929,59.362],[26.3912,59.3613],[26.3891,59.3607],[26.3875,59.3604],[26.3873,59.3604],[26.3872,59.3604],[26.3871,59.3604]],[[25.9761,59.2653],[25.9745,59.2656],[25.9731,59.266]],[[25.9761,59.2653],[25.9746,59.2657],[25.9729,59.2661],[25.9728,59.2661],[25.9719,59.2663],[25.9712,59.2664]],[[25.9762,59.2654],[25.9755,59.2656],[25.974,59.2659],[25.9733,59.2661],[25.9756,59.2657],[25.9763,59.2655]],[[25.9763,59.2655],[25.9756,59.2656],[25.974,59.2659]],[[25.9735,59.2661],[25.9757,59.2658],[25.9764,59.2656],[25.9757,59.2657],[25.9735,59.2661]],[[25.9765,59.2657],[25.9758,59.2658],[25.9732,59.2662]],[[25.9518,59.2657],[25.9498,59.2655],[25.9483,59.2654]],[[25.951,59.2662],[25.95,59.2661],[25.9471,59.2654],[25.9457,59.2648]],[[25.9515,59.2641],[25.9521,59.2642],[25.9542,59.2646]],[[26.3239,59.3531],[26.2835,59.3484],[26.2352,59.3429],[26.231,59.3426],[26.1678,59.3393],[26.1611,59.3389],[26.1408,59.3379],[26.1307,59.3373],[26.1304,59.3373],[26.1193,59.3367],[26.1161,59.3362],[26.1123,59.3352],[26.0989,59.3301],[26.0925,59.3271],[26.0282,59.2942],[25.9933,59.2763],[25.9791,59.2691],[25.9789,59.2689],[25.9758,59.2675],[25.9733,59.2669],[25.9698,59.2665],[25.9686,59.2664],[25.9652,59.2661],[25.9628,59.2659],[25.9574,59.2654],[25.96,59.2657],[25.9652,59.2661]],[[26.3504,59.3561],[26.3239,59.3531]],[[26.3618,59.3575],[26.379,59.3595]],[[26.4724,59.3509],[26.4438,59.3529],[26.4388,59.3534],[26.4353,59.354],[26.4044,59.3593],[26.3995,59.36],[26.3951,59.3603],[26.3877,59.3603],[26.383,59.3598]],[[26.3616,59.3573],[26.3606,59.3573],[26.3605,59.3573],[26.3607,59.3573],[26.3611,59.3574],[26.3656,59.3578],[26.3695,59.3583],[26.3786,59.3593],[26.3774,59.3592],[26.3786,59.3593],[26.3798,59.3594],[26.3782,59.3592]],[[26.3803,59.3595],[26.3798,59.3594]],[[26.3774,59.3592],[26.3695,59.3583],[26.3616,59.3573]],[[26.3765,59.359],[26.3705,59.3583]],[[26.3812,59.3597],[26.38,59.3596]],[[26.3904,59.3605],[26.3898,59.3605]],[[26.3754,59.3592],[26.3745,59.3591]],[[26.3738,59.359],[26.3729,59.3589],[26.3742,59.3591],[26.3747,59.3591],[26.3754,59.3592],[26.376,59.3593]],[[26.3729,59.3589],[26.3718,59.3588]],[[26.3651,59.358],[26.3632,59.3577],[26.3627,59.3577]],[[26.378,59.3594],[26.3632,59.3577]],[[26.3904,59.3605],[26.3917,59.3608],[26.3946,59.363],[26.3948,59.3632],[26.3962,59.3646]],[[26.2419,58.9973],[26.2377,59.0296],[26.2369,59.0361],[26.2363,59.0377],[26.2347,59.0404],[26.2329,59.0422],[26.2328,59.0423],[26.231,59.0436],[26.1956,59.068],[26.1917,59.0711],[26.1916,59.0713],[26.1871,59.0762],[26.1828,59.0809],[26.1751,59.0895],[26.1748,59.0899],[26.1604,59.1058],[26.1583,59.1088],[26.1408,59.1409],[26.1382,59.1441],[26.1381,59.1442],[26.1364,59.1457],[26.1333,59.1478],[26.1171,59.157],[26.116,59.1577],[26.1012,59.1658],[26.1019,59.1654],[26.1093,59.1612],[26.1165,59.1573],[26.1171,59.157]],[[26.1871,59.0762],[26.1866,59.0768],[26.1748,59.0899]],[[26.1828,59.0809],[26.1751,59.0895]],[[26.1093,59.1612],[26.1056,59.1627],[26.1012,59.1635]],[[26.0988,59.1638],[26.0969,59.1639],[26.0952,59.1636],[26.0935,59.1621],[26.0934,59.1617]],[[26.0935,59.1621],[26.0931,59.1613]],[[26.0929,59.1608],[26.0925,59.16]],[[26.0421,59.2089],[26.0429,59.2078],[26.046,59.2039],[26.0491,59.2003],[26.0535,59.1962],[26.0604,59.1915],[26.0837,59.1757],[26.0851,59.1749],[26.0978,59.1678],[26.1012,59.1658]],[[25.9631,59.2655],[25.9555,59.2649]],[[25.9354,59.2621],[25.9344,59.2608],[25.9349,59.2592],[25.9343,59.2575]],[[25.9457,59.2635],[25.9452,59.2634]],[[25.9675,59.2659],[25.9677,59.2659]],[[25.9694,59.2661],[25.9722,59.2657],[25.9742,59.2652],[25.9743,59.2652],[25.9763,59.2646],[25.9781,59.2633]],[[25.9751,59.265],[25.9761,59.2649]],[[25.9742,59.2652],[25.9719,59.2658],[25.9694,59.2661],[25.9678,59.2662]],[[25.9239,59.2625],[25.9273,59.2628],[25.9279,59.2628],[25.9285,59.2628],[25.9298,59.2628],[25.932,59.2629],[25.9443,59.2639],[25.9501,59.2645],[25.9511,59.2647],[25.9518,59.2648],[25.9524,59.2648],[25.953,59.2649],[25.9553,59.2652],[25.9512,59.2648],[25.9504,59.2648],[25.9495,59.2647],[25.948,59.2645],[25.9306,59.2631],[25.9297,59.2631],[25.9262,59.2628],[25.9272,59.2628],[25.9285,59.2629],[25.9289,59.2629],[25.9443,59.2641],[25.9499,59.2646],[25.9468,59.2644],[25.948,59.2645]],[[25.9512,59.2648],[25.953,59.2649],[25.9538,59.2649],[25.9541,59.2649]],[[25.9518,59.2648],[25.9508,59.2647],[25.9489,59.2644],[25.9307,59.2629],[25.9298,59.2628]],[[25.9307,59.2629],[25.9489,59.2644]],[[25.9652,59.2658],[25.9678,59.266]],[[25.9437,59.2644],[25.9298,59.2632]],[[25.9288,59.2631],[25.9271,59.2629],[25.9269,59.2629]],[[25.9563,59.2653],[25.9552,59.2653]],[[25.9731,59.2668],[25.975,59.2672],[25.9774,59.268],[25.9776,59.2681],[25.9777,59.2682],[25.9779,59.2684]],[[25.975,59.2672],[25.9774,59.268],[25.9776,59.2681]],[[25.9229,59.2626],[25.9182,59.2622],[25.9196,59.2622],[25.9098,59.2614],[25.9049,59.2609],[25.8847,59.2592],[25.8754,59.2586],[25.8515,59.2566],[25.8512,59.2566],[25.8096,59.2531],[25.8079,59.253],[25.8032,59.2529],[25.7081,59.2549],[25.7048,59.255],[25.702,59.2551],[25.6985,59.2554],[25.6951,59.2559],[25.6929,59.2563],[25.6925,59.2564],[25.6903,59.2569],[25.6887,59.2572],[25.6688,59.2627],[25.6653,59.2638],[25.6615,59.2654],[25.6592,59.2666],[25.6505,59.2717],[25.6472,59.2731],[25.6291,59.2795],[25.6283,59.2798],[25.6267,59.2804],[25.6277,59.2801],[25.6259,59.2807],[25.6145,59.2848],[25.6107,59.2862]],[[25.2409,59.3598],[25.2584,59.3582],[25.2637,59.3575],[25.2675,59.3567],[25.2712,59.3557],[25.3162,59.3424],[25.3206,59.3412],[25.3208,59.3411],[25.3223,59.3407],[25.3394,59.3355],[25.3401,59.3353]],[[25.2409,59.3597],[25.2569,59.3583],[25.2649,59.3572],[25.2711,59.3557],[25.3184,59.3417],[25.3242,59.34],[25.3257,59.3396],[25.3379,59.3359],[25.3403,59.3352],[25.341,59.335],[25.3438,59.3342]],[[25.3234,59.3405],[25.3299,59.3386]],[[25.6104,59.2862],[25.6259,59.2807]],[[25.6277,59.2801],[25.6283,59.2798],[25.6292,59.2795],[25.6472,59.2731],[25.6495,59.2722],[25.6505,59.2717],[25.6513,59.2713],[25.6592,59.2666],[25.6615,59.2654],[25.6661,59.2636],[25.6689,59.2627],[25.6889,59.2572],[25.6903,59.2569],[25.6918,59.2565],[25.6929,59.2563],[25.6968,59.2557],[25.7008,59.2553],[25.7058,59.255],[25.7538,59.254],[25.8032,59.2529],[25.8078,59.253],[25.8124,59.2534],[25.8512,59.2566],[25.8515,59.2566],[25.9097,59.2615],[25.9182,59.2622]],[[25.3419,59.3348],[25.3863,59.3216],[25.4739,59.2956],[25.4805,59.2941],[25.4876,59.2932],[25.4884,59.2931],[25.5022,59.2925],[25.5034,59.2925],[25.5038,59.2925],[25.543,59.2909],[25.5925,59.2889],[25.6027,59.2884],[25.6039,59.2882],[25.6041,59.2882],[25.6052,59.288],[25.6084,59.2869]],[[25.6112,59.2858],[25.6122,59.2854],[25.624,59.2812],[25.6254,59.2808],[25.6112,59.2858],[25.6104,59.2862],[25.6167,59.2839],[25.626,59.2806],[25.6254,59.2808]],[[25.6283,59.2798],[25.6291,59.2795]],[[25.9306,59.2631],[25.9468,59.2644]],[[25.9499,59.2646],[25.9508,59.2647]],[[25.3394,59.3355],[25.3379,59.3359]],[[25.3385,59.3392],[25.3437,59.338]],[[25.3208,59.3411],[25.3221,59.3408]],[[25.3224,59.3407],[25.3382,59.336]],[[25.3223,59.3407],[25.3242,59.34]],[[25.3235,59.3404],[25.3374,59.3363]],[[25.3184,59.3417],[25.3206,59.3412]],[[25.3225,59.3407],[25.3234,59.3405],[25.3288,59.3389]],[[25.9487,59.2642],[25.948,59.2641],[25.947,59.2639],[25.9464,59.2638],[25.946,59.2638],[25.9455,59.2637],[25.929,59.2623],[25.9285,59.2623],[25.9273,59.2623],[25.9269,59.2623],[25.9266,59.2623],[25.9258,59.2622],[25.9266,59.2623],[25.9224,59.2624]],[[25.9551,59.2647],[25.9527,59.2646],[25.9523,59.2646],[25.9507,59.2644],[25.9489,59.2642]],[[25.9503,59.2645],[25.9511,59.2647]],[[25.3337,59.3387],[25.3351,59.3389]],[[26.4417,59.4097],[26.4423,59.4075]],[[26.4683,59.4475],[26.4379,59.4178],[26.435,59.4142]],[[26.4007,59.3707],[26.3984,59.3679],[26.3981,59.3674]],[[26.1408,59.3379],[26.1419,59.338],[26.16,59.3389],[26.1611,59.3389]],[[26.16,59.3389],[26.1586,59.3389],[26.1419,59.338]],[[25.9756,59.2671],[25.977,59.2677]],[[25.9735,59.2661],[25.9729,59.2662],[25.9726,59.2662]],[[25.9733,59.2661],[25.9729,59.2662],[25.9727,59.2662],[25.9721,59.2663]],[[25.9719,59.2663],[25.9725,59.2662]],[[25.9145,59.26],[25.9179,59.2599]],[[25.916,59.2604],[25.9164,59.2605]],[[25.9628,59.2659],[25.9639,59.2659],[25.9558,59.2652],[25.9572,59.2654],[25.9563,59.2653],[25.949,59.2647],[25.9504,59.2648]],[[25.9454,59.2635],[25.9438,59.2633],[25.9435,59.2632],[25.9397,59.2629],[25.9285,59.262],[25.9273,59.262],[25.9255,59.2621],[25.9262,59.2621],[25.9284,59.2622],[25.9435,59.2634],[25.946,59.2638],[25.9462,59.2638],[25.947,59.2639],[25.9479,59.264]],[[25.9273,59.262],[25.9437,59.2633],[25.9454,59.2635],[25.9463,59.2637],[25.947,59.2639]],[[25.9463,59.2637],[25.9435,59.2633],[25.9289,59.2622],[25.9262,59.2621]],[[25.9255,59.2621],[25.9243,59.2621],[25.9258,59.2622]],[[25.947,59.2639],[25.9273,59.2623],[25.9269,59.2623],[25.9266,59.2623]],[[25.9273,59.2623],[25.9285,59.2623],[25.9462,59.2638],[25.9464,59.2638]],[[25.9455,59.2637],[25.929,59.2623]],[[25.948,59.2641],[25.9473,59.264],[25.9278,59.2624],[25.9269,59.2623],[25.9266,59.2623]],[[25.9278,59.2624],[25.9418,59.2636],[25.9453,59.2639],[25.9465,59.264],[25.9473,59.264]],[[25.9465,59.264],[25.9456,59.2639],[25.9418,59.2636],[25.928,59.2625],[25.9269,59.2623]],[[25.928,59.2625],[25.9444,59.2639],[25.9453,59.2639],[25.9456,59.2639]],[[25.922,59.2624],[25.92,59.2623],[25.9196,59.2622]],[[25.9159,59.2616],[25.9152,59.2616]],[[25.9243,59.2621],[25.9159,59.2616]],[[25.9254,59.2627],[25.9262,59.2628]],[[25.9297,59.2631],[25.9495,59.2647]],[[25.9285,59.2628],[25.9279,59.2628],[25.9273,59.2628],[25.9272,59.2628]],[[25.9273,59.2628],[25.9279,59.2628],[25.9285,59.2629]],[[26.3508,59.3562],[26.3504,59.3561]],[[26.3984,59.3679],[26.4007,59.3707],[26.4035,59.3744]],[[25.949,59.2647],[25.9271,59.2629]],[[25.92,59.2623],[25.9244,59.2626]],[[25.61,59.2863],[25.6104,59.2862]],[[25.609,59.2867],[25.61,59.2863],[25.6076,59.2871]],[[25.6097,59.2865],[25.6104,59.2862]],[[26.0491,59.2003],[26.0486,59.2008]],[[25.626,59.2806],[25.6267,59.2804]],[[26.3598,59.3572],[26.3606,59.3573]],[[25.9553,59.2652],[25.9558,59.2652]],[[25.9574,59.2654],[25.9572,59.2654]],[[26.3605,59.3573],[26.3598,59.3572],[26.3508,59.3562]],[[26.379,59.3594],[26.3786,59.3593]],[[25.9725,59.2665],[25.9741,59.2667],[25.9742,59.2667],[25.9756,59.2671]],[[26.1165,59.1573],[26.1019,59.1654]],[[26.3835,59.36],[26.3823,59.3598]],[[26.3816,59.3597],[26.3812,59.3597],[26.3804,59.3596]],[[25.9639,59.2659],[25.9644,59.266]],[[25.9659,59.2661],[25.9698,59.2665]],[[25.9501,59.2645],[25.9443,59.2639]],[[25.9524,59.2648],[25.9538,59.2649]],[[25.9431,59.2632],[25.9397,59.2629],[25.9375,59.2627],[25.9354,59.2621]],[[25.9699,59.2662],[25.9685,59.2663]],[[25.9743,59.2652],[25.9751,59.265]],[[25.977,59.2676],[25.9774,59.268],[25.9775,59.2681]],[[25.9695,59.2664],[25.97,59.2664]],[[25.9704,59.2664],[25.9715,59.2665],[25.9731,59.2668],[25.975,59.2672]],[[25.9668,59.2658],[25.9675,59.2659]]]},"properties":null}
]}