{"type":"FeatureCollection", "features": [
{"type":"Feature","geometry":{"type":"LineString","coordinates":[[25.6966,59.0263],[25.6956,59.0247],[25.694,59.0247],[25.6928,59.0237],[25.6935,59.0227],[25.6935,59.0226],[25.693,59.0225],[25.6901,59.0226],[25.6896,59.0228],[25.6857,59.0219],[25.6825,59.0216],[25.681,59.0205],[25.6797,59.02],[25.6773,59.0199],[25.674,59.0194],[25.6717,59.0194],[25.6687,59.0174],[25.6676,59.0163],[25.6666,59.0162],[25.6624,59.0147],[25.6619,59.0143],[25.6602,59.014],[25.6581,59.0146],[25.6574,59.014],[25.658,59.0129],[25.6553,59.0121],[25.6542,59.0126],[25.6516,59.012],[25.6506,59.0115],[25.6508,59.0109],[25.6491,59.0101],[25.6493,59.0093],[25.6472,59.0087],[25.6479,59.0067],[25.6501,59.0051],[25.6504,59.0036],[25.6494,59.003],[25.6471,59.0031],[25.6475,59.0021],[25.6485,59.0016],[25.6466,59.0006],[25.6461,58.9996],[25.645,58.9988],[25.6442,58.9977],[25.6427,58.9967],[25.6383,58.9964],[25.6358,58.9958],[25.6336,58.9962],[25.6322,58.9959],[25.6313,58.9963],[25.6313,58.9972],[25.629,58.9973],[25.628,58.9979],[25.6236,58.9987],[25.6245,58.9975],[25.6241,58.9959],[25.6234,58.9947],[25.6232,58.9932],[25.6238,58.9926],[25.625,58.9922]]},"properties":{"name":"Pärnu jõgi"}},
{"type":"Feature","geometry":{"type":"MultiLineString","coordinates":[[[25.4035,59.2851],[25.406,59.2856]],[[26.3321,59.3806],[26.3316,59.3805]],[[25.8825,59.318],[25.8817,59.3187],[25.8802,59.3183],[25.8781,59.3183],[25.8767,59.3188],[25.8764,59.3188],[25.8746,59.3187]],[[25.3731,59.2965],[25.3742,59.2951]],[[26.2265,59.0424],[26.2301,59.0423],[26.2312,59.0418]],[[26.2704,59.0798],[26.2715,59.0803]],[[26.2101,59.1568],[26.2103,59.1569]],[[26.2074,59.0064],[26.2073,59.0078],[26.2068,59.0087],[26.2036,59.0105]],[[26.1924,59.02],[26.1919,59.0206]],[[26.4047,59.0324],[26.4029,59.0335],[26.4028,59.0335],[26.4013,59.0345],[26.4011,59.036],[26.4017,59.0367],[26.401,59.038],[26.4026,59.0387],[26.4021,59.0401],[26.4033,59.0409],[26.4034,59.042],[26.4026,59.0423]],[[26.4039,59.0341],[26.4027,59.0352],[26.402,59.0377],[26.4026,59.0387]],[[25.6943,59.1781],[25.6945,59.178]],[[26.1775,59.1949],[26.1777,59.1949]],[[25.4476,59.2174],[25.4475,59.2157]],[[25.361,59.3074],[25.361,59.3091],[25.3546,59.3112],[25.351,59.3114],[25.3478,59.3119],[25.3471,59.3124]],[[25.6333,59.2668],[25.6352,59.2666],[25.6359,59.2671]],[[25.6673,59.2553],[25.6676,59.2544]],[[26.2255,59.0426],[26.2255,59.0427],[26.2255,59.0428],[26.2265,59.0428],[26.2267,59.0428]],[[25.3422,59.3414],[25.3436,59.3413],[25.3436,59.3412],[25.3428,59.3408]],[[26.2054,58.9977],[26.2058,58.9984]],[[26.4458,59.4261],[26.4459,59.426]],[[26.4522,59.4028],[26.4522,59.4027]]]},"properties":{"name":""}},
{"type":"Feature","geometry":{"type":"MultiLineString","coordinates":[[[25.7682,59.3767],[25.7689,59.3774],[25.7683,59.378],[25.7662,59.378],[25.7635,59.3785],[25.7636,59.3784],[25.765,59.3778],[25.7667,59.3777],[25.7671,59.3771],[25.7697,59.3757],[25.7722,59.3759],[25.7737,59.375],[25.7751,59.3752],[25.7763,59.3743],[25.7794,59.3741],[25.7801,59.3736],[25.7808,59.3733],[25.7803,59.3728],[25.7821,59.3702],[25.7821,59.369],[25.7835,59.3694],[25.7847,59.3689],[25.7851,59.3672],[25.7859,59.3665],[25.7863,59.3655],[25.7879,59.3657],[25.7868,59.3641],[25.7891,59.3636],[25.7889,59.3627],[25.7912,59.3617],[25.7922,59.3602],[25.7922,59.3592],[25.7932,59.3586],[25.7958,59.3578],[25.7958,59.3569],[25.7995,59.357],[25.798,59.3559],[25.7982,59.3552],[25.8,59.3551],[25.801,59.3543],[25.8037,59.3543],[25.8029,59.3532],[25.8061,59.3524],[25.8074,59.3527],[25.8127,59.3524],[25.8154,59.3528],[25.8171,59.3526],[25.821,59.3526],[25.8226,59.3509],[25.8224,59.3492],[25.8237,59.3481],[25.8235,59.3472],[25.82,59.3469],[25.8188,59.3456],[25.8202,59.3439],[25.8216,59.3437],[25.823,59.3429],[25.8264,59.3423],[25.8272,59.3429],[25.8304,59.3439],[25.8304,59.3455],[25.832,59.3457],[25.8346,59.3465],[25.8355,59.3458],[25.8375,59.3457],[25.8401,59.3439],[25.8428,59.3441],[25.8436,59.3438],[25.8422,59.3406],[25.8455,59.3399],[25.8453,59.3388],[25.8453,59.3382],[25.8455,59.3368],[25.8476,59.3358],[25.8494,59.3339],[25.8496,59.3329],[25.8493,59.3307],[25.8501,59.3294],[25.8491,59.3291],[25.849,59.3278],[25.8499,59.3273],[25.851,59.3259],[25.8535,59.3252],[25.8547,59.3258],[25.8557,59.3254],[25.8579,59.3258],[25.8597,59.3244],[25.8648,59.3223],[25.865,59.3217],[25.8675,59.321],[25.8696,59.3207],[25.871,59.3197],[25.874,59.3192],[25.8746,59.3187],[25.8746,59.3183],[25.878,59.3179],[25.8825,59.318],[25.8874,59.3174],[25.8872,59.3159],[25.8862,59.3153],[25.8858,59.314],[25.8895,59.3128],[25.8901,59.3121],[25.8895,59.3108],[25.8902,59.3102],[25.8941,59.3084],[25.8992,59.3058],[25.9,59.3046],[25.9017,59.3055],[25.9037,59.305],[25.9048,59.3034],[25.9069,59.3031],[25.9068,59.3021],[25.9088,59.3025],[25.9098,59.3018],[25.9112,59.3018],[25.9119,59.301],[25.9115,59.3004],[25.9136,59.3],[25.9145,59.2993],[25.9162,59.2994],[25.9165,59.2989],[25.9181,59.2978],[25.9183,59.2967],[25.9194,59.2968],[25.9212,59.2952],[25.9232,59.2945],[25.9238,59.2929],[25.9263,59.2926],[25.9298,59.292],[25.9304,59.2917],[25.9335,59.2923],[25.935,59.2921],[25.9355,59.2915],[25.9406,59.2913],[25.9409,59.2907],[25.9427,59.2894],[25.9452,59.2884],[25.9448,59.2874],[25.9452,59.2864],[25.9464,59.2861],[25.9481,59.2832],[25.9497,59.2827],[25.9496,59.2818],[25.9514,59.2813],[25.9515,59.2796],[25.9532,59.2794],[25.9551,59.2782],[25.956,59.2774],[25.958,59.277],[25.9601,59.276],[25.9613,59.2751],[25.9644,59.2738],[25.9674,59.2724],[25.9687,59.2722],[25.9722,59.2708],[25.9732,59.2708],[25.9749,59.2702],[25.9785,59.2694],[25.9793,59.2689],[25.9815,59.2689],[25.9838,59.2677],[25.9859,59.2681],[25.9873,59.2679],[25.9886,59.2679],[25.9902,59.267],[25.9916,59.2675],[25.9929,59.2674],[25.9939,59.2656],[25.9968,59.2657],[25.9983,59.2643],[25.9979,59.2639],[25.9985,59.2627],[26.0004,59.2625],[26.0021,59.2618],[26.0023,59.2613],[26.0041,59.2598],[26.0067,59.2588],[26.0076,59.2576],[26.0113,59.2569],[26.0139,59.2558],[26.0156,59.256],[26.0185,59.2556],[26.0211,59.2546],[26.0231,59.2546],[26.0266,59.2543],[26.0283,59.2545],[26.0337,59.2543],[26.034,59.2538],[26.0334,59.2532],[26.0355,59.2527],[26.0354,59.2519],[26.0364,59.2517],[26.0367,59.2513],[26.037,59.2511],[26.0371,59.2511],[26.0391,59.2498],[26.0431,59.2486],[26.0448,59.2487],[26.0459,59.2484],[26.0458,59.2472],[26.0466,59.2469],[26.0461,59.246],[26.0467,59.2455],[26.0491,59.2452],[26.0529,59.2453],[26.0537,59.2456],[26.0563,59.2448],[26.0565,59.2448],[26.0612,59.244],[26.0638,59.2439],[26.0653,59.2441],[26.0675,59.2433],[26.0696,59.2432],[26.0729,59.2439],[26.074,59.243],[26.074,59.2425],[26.0785,59.2415],[26.0796,59.2406],[26.079,59.2391],[26.0817,59.238],[26.0825,59.2383],[26.0863,59.2366],[26.0859,59.2352],[26.0872,59.2349],[26.0889,59.2338],[26.094,59.2332],[26.0954,59.2325],[26.0977,59.2326],[26.1012,59.2319],[26.1023,59.2309],[26.1058,59.2308],[26.1067,59.2312],[26.1114,59.2298],[26.1116,59.2293],[26.1143,59.2291],[26.1167,59.2275],[26.1195,59.2262],[26.1217,59.2242],[26.1237,59.2217],[26.1269,59.2199],[26.1311,59.2184],[26.135,59.2143],[26.1364,59.2126],[26.1384,59.2118],[26.1472,59.2091],[26.1474,59.209],[26.1516,59.2066]],[[26.1922,59.1885],[26.192,59.1886],[26.1909,59.1893],[26.1906,59.1895],[26.1895,59.1907],[26.1887,59.1919],[26.1834,59.1928],[26.1777,59.1949]],[[26.1516,59.2066],[26.1565,59.2046],[26.1579,59.2032],[26.1604,59.2022],[26.1619,59.2007],[26.1669,59.1986],[26.1716,59.1973],[26.1745,59.1959],[26.1775,59.1949]],[[25.7585,59.4396],[25.7612,59.4411],[25.7622,59.4419],[25.7606,59.4427]],[[25.7448,59.3906],[25.7433,59.3913],[25.7422,59.3919],[25.7419,59.3931],[25.7428,59.3931],[25.743,59.3936],[25.7441,59.3928],[25.7436,59.3924],[25.744,59.3914],[25.7433,59.3913]],[[25.7456,59.4099],[25.7456,59.41],[25.745,59.4107],[25.7461,59.4113],[25.7444,59.4127],[25.7462,59.413],[25.7458,59.4143],[25.7448,59.4159],[25.7455,59.4161],[25.7463,59.4168],[25.7479,59.4173],[25.7468,59.4187],[25.7477,59.42],[25.7498,59.421],[25.7503,59.4219],[25.7501,59.423],[25.7541,59.4242],[25.7533,59.4252],[25.7553,59.4259],[25.7546,59.4272],[25.757,59.4275],[25.7577,59.4282],[25.7593,59.4288],[25.7605,59.43],[25.7631,59.4306],[25.7626,59.4319],[25.7614,59.432],[25.7606,59.4327],[25.7607,59.4338],[25.7584,59.4339],[25.7593,59.4349],[25.7592,59.4362],[25.7601,59.4374],[25.7583,59.4374],[25.7577,59.4383],[25.7585,59.4396]],[[25.7421,59.3941],[25.7412,59.397],[25.7414,59.3976],[25.7414,59.398],[25.7404,59.3987],[25.741,59.3994],[25.7415,59.3993],[25.7424,59.4002],[25.7418,59.4019],[25.7422,59.4024],[25.7428,59.4025],[25.7423,59.4041],[25.7432,59.4043],[25.7427,59.4052],[25.7434,59.4064],[25.745,59.4064],[25.7446,59.4073],[25.7453,59.4082],[25.7449,59.409],[25.7456,59.4099]],[[25.7422,59.4024],[25.741,59.4035],[25.7423,59.4041]],[[25.743,59.3936],[25.7421,59.394],[25.7419,59.3931]],[[25.7472,59.3901],[25.7456,59.3905],[25.7447,59.3911],[25.7448,59.3906],[25.7459,59.3897],[25.7472,59.3901],[25.748,59.3905],[25.7494,59.3897],[25.7499,59.3893],[25.7535,59.3882],[25.7535,59.3872],[25.7545,59.387],[25.7547,59.3861],[25.7564,59.3861],[25.7578,59.3858],[25.7575,59.385],[25.7584,59.3835],[25.7589,59.3824],[25.7613,59.3812],[25.7604,59.381],[25.7601,59.3801],[25.7611,59.3797],[25.7613,59.3789],[25.7635,59.3785]],[[25.7414,59.398],[25.7422,59.3986],[25.7415,59.3993]],[[25.8453,59.3382],[25.8453,59.3388]],[[25.7859,59.3665],[25.7851,59.3672]],[[25.741,59.3994],[25.7424,59.4002]],[[25.7414,59.3976],[25.7401,59.398],[25.7404,59.3987]],[[25.7448,59.4159],[25.7455,59.4161]],[[25.7808,59.3733],[25.7801,59.3736]],[[25.7447,59.3911],[25.744,59.3914]],[[25.7436,59.3924],[25.7428,59.3931]],[[25.765,59.3778],[25.7636,59.3784]],[[25.7613,59.3812],[25.7614,59.3822],[25.7608,59.3831],[25.7584,59.3835]],[[25.7499,59.3893],[25.7494,59.3897]],[[25.7421,59.394],[25.7421,59.3941]],[[26.0021,59.2618],[26.0004,59.2625]],[[26.0367,59.2513],[26.0364,59.2517]]]},"properties":{"name":"Valgejõgi"}},
{"type":"Feature","geometry":{"type":"MultiLineString","coordinates":[[[25.3622,59.105],[25.3591,59.105],[25.3547,59.1039],[25.3518,59.1043],[25.35,59.1051],[25.3465,59.1089],[25.336,59.1118],[25.3294,59.1171],[25.3199,59.1216],[25.3199,59.122],[25.3246,59.1256],[25.3252,59.126],[25.3259,59.1265],[25.3271,59.1276],[25.327,59.1305],[25.3268,59.1316],[25.3252,59.1365],[25.3249,59.1395],[25.325,59.1399],[25.3271,59.1419],[25.3271,59.142],[25.3244,59.1434],[25.3233,59.1451],[25.323,59.1465],[25.3225,59.1469],[25.3169,59.1467],[25.3161,59.1475],[25.3157,59.1488],[25.3138,59.1476],[25.3127,59.1478],[25.3122,59.1487],[25.3096,59.149],[25.3098,59.1499],[25.3085,59.1503],[25.3084,59.1517],[25.3078,59.1539],[25.3107,59.1546],[25.3111,59.156],[25.3096,59.1561],[25.3084,59.157],[25.3078,59.1583],[25.3068,59.1586],[25.3066,59.1599],[25.3057,59.1607],[25.3025,59.1615],[25.3021,59.1619],[25.2984,59.1614],[25.2955,59.162],[25.295,59.1635],[25.2939,59.1637],[25.2895,59.1668],[25.2869,59.1669],[25.2875,59.1677],[25.2863,59.1682],[25.2831,59.1679],[25.2797,59.1693],[25.2771,59.1708],[25.2762,59.1706],[25.2746,59.1717],[25.2748,59.1744],[25.2741,59.1752],[25.2721,59.1746],[25.2715,59.1745],[25.2683,59.1757],[25.266,59.176],[25.265,59.1764],[25.2619,59.1771],[25.2625,59.1778],[25.2618,59.1786],[25.2631,59.1791],[25.2627,59.1801],[25.2612,59.1808],[25.2592,59.1812],[25.2583,59.1807],[25.2562,59.1817],[25.2535,59.1813],[25.2522,59.1822],[25.2501,59.1822],[25.25,59.1822]],[[25.3025,59.1615],[25.3021,59.1619]]]},"properties":{"name":"Pirita jõgi"}},
{"type":"Feature","geometry":{"type":"MultiLineString","coordinates":[[[25.3471,59.3124],[25.3467,59.3149],[25.351,59.3152],[25.3518,59.3163],[25.3534,59.3176],[25.3533,59.3185],[25.3564,59.3195],[25.3532,59.3211],[25.3529,59.3225],[25.3543,59.3229],[25.3545,59.3244],[25.353,59.3254],[25.3509,59.3252],[25.3511,59.3263],[25.3519,59.3273],[25.3477,59.3271],[25.3436,59.3271],[25.3426,59.3279],[25.3429,59.3287],[25.3421,59.3303],[25.3436,59.3311],[25.3425,59.3315],[25.34,59.3314],[25.3379,59.3317],[25.3367,59.3329],[25.3375,59.3341],[25.3407,59.3351],[25.3419,59.3359],[25.3443,59.336],[25.3454,59.3366],[25.3463,59.3376],[25.3463,59.3381],[25.345,59.3393],[25.3428,59.3408],[25.3422,59.3414],[25.3408,59.3438],[25.34,59.3445],[25.3385,59.3468],[25.3384,59.3478],[25.337,59.3492],[25.3351,59.3499],[25.3347,59.3505],[25.3357,59.3516],[25.3356,59.3524],[25.3331,59.3538],[25.3307,59.3555],[25.3299,59.3565],[25.3294,59.3583],[25.3273,59.3596],[25.3251,59.3623],[25.3228,59.3632],[25.3229,59.3638],[25.328,59.3648],[25.3289,59.3652],[25.3291,59.3675],[25.3306,59.3684],[25.3314,59.3701],[25.3332,59.3712],[25.3331,59.3717],[25.3314,59.3727],[25.3309,59.3749],[25.3315,59.3757],[25.3333,59.3762],[25.3368,59.3763],[25.3383,59.3782],[25.3444,59.3799],[25.3444,59.3807],[25.3402,59.3811],[25.3391,59.3824],[25.3342,59.3851],[25.3325,59.3867],[25.3316,59.3882],[25.3318,59.3901],[25.3312,59.3904],[25.3295,59.39],[25.3284,59.3906],[25.3272,59.3919],[25.3247,59.3937],[25.3212,59.3952],[25.3204,59.3975],[25.3185,59.3983],[25.3161,59.3983],[25.3128,59.3983],[25.3107,59.3995],[25.3088,59.3994],[25.3051,59.4002],[25.3042,59.4013],[25.3037,59.4033],[25.3029,59.4038],[25.2999,59.4039],[25.2984,59.4044],[25.2961,59.4061],[25.2951,59.4064],[25.2909,59.4062],[25.2901,59.4059],[25.2882,59.4064],[25.2882,59.4082],[25.2871,59.4086],[25.284,59.4101],[25.281,59.4096],[25.279,59.4113],[25.2772,59.4119],[25.2738,59.4126],[25.2703,59.4134],[25.2689,59.4146],[25.2686,59.4153],[25.2671,59.4161],[25.2641,59.4163],[25.2624,59.415],[25.2605,59.4143],[25.2589,59.4143],[25.2571,59.4148],[25.2551,59.4151],[25.2527,59.4141],[25.2511,59.4138],[25.2491,59.4142],[25.2485,59.4153],[25.2469,59.416],[25.2442,59.4161],[25.2411,59.4166],[25.24,59.4172],[25.2405,59.4188],[25.2411,59.4198],[25.2413,59.4213],[25.2409,59.4224],[25.2387,59.4243],[25.2376,59.4243]],[[25.361,59.3074],[25.3601,59.3062],[25.3616,59.3051],[25.3614,59.3031],[25.3627,59.3017],[25.3627,59.3009],[25.3618,59.3]],[[25.39,59.2894],[25.3901,59.2901],[25.386,59.2912],[25.3844,59.2913],[25.3824,59.2918],[25.3822,59.2908],[25.3841,59.291],[25.3856,59.2905],[25.3847,59.29],[25.3859,59.2895],[25.388,59.2898],[25.3893,59.2892]],[[25.4104,59.2855],[25.409,59.2849],[25.4094,59.2845],[25.4122,59.2834],[25.4141,59.2804],[25.4156,59.2804],[25.4162,59.2792],[25.4174,59.2784],[25.4192,59.2767],[25.4207,59.2761],[25.4213,59.2759],[25.4229,59.2755]],[[25.3913,59.2866],[25.3913,59.286],[25.3929,59.2861]],[[25.3904,59.2864],[25.3883,59.2867],[25.3918,59.2873],[25.3936,59.2871],[25.3948,59.2864],[25.3956,59.2846],[25.3976,59.2849],[25.3984,59.2856],[25.398,59.2874],[25.3987,59.2877],[25.4008,59.2869],[25.4035,59.2851],[25.4058,59.2842],[25.4071,59.2847],[25.409,59.2849]],[[25.3883,59.2872],[25.3886,59.2878],[25.3874,59.2876],[25.387,59.2868],[25.3858,59.2865],[25.3846,59.2882],[25.3883,59.2885],[25.3886,59.2878]],[[25.7086,59.0955],[25.705,59.092],[25.7011,59.0895],[25.701,59.0894],[25.6986,59.0892],[25.6964,59.0879],[25.6937,59.088],[25.6919,59.0877],[25.6878,59.0884],[25.6876,59.0884],[25.6859,59.0886],[25.6834,59.0862],[25.6825,59.084],[25.682,59.0835],[25.6818,59.0834],[25.6813,59.0829],[25.6801,59.0803],[25.674,59.0783],[25.6738,59.0782],[25.6716,59.0774],[25.6726,59.0753],[25.6718,59.0745],[25.667,59.0722],[25.6634,59.0689],[25.6633,59.0688],[25.6601,59.0658],[25.6604,59.0632],[25.6618,59.0619],[25.6619,59.0618],[25.6608,59.06],[25.6592,59.0594],[25.6601,59.0589],[25.6588,59.0582],[25.6581,59.0571],[25.6564,59.0568],[25.6566,59.0559],[25.6553,59.0555],[25.6563,59.0546],[25.6542,59.0541],[25.6547,59.053],[25.6561,59.0519],[25.6573,59.0515],[25.657,59.0508],[25.6554,59.0503],[25.6562,59.0495],[25.6545,59.0494],[25.6527,59.0481],[25.6516,59.0467],[25.6508,59.047],[25.6478,59.0462],[25.6476,59.0449],[25.6456,59.0444],[25.6441,59.0433],[25.6407,59.0427],[25.6428,59.0416],[25.6422,59.0407],[25.6402,59.0399],[25.638,59.0406],[25.6377,59.0404],[25.6368,59.0391],[25.6327,59.039],[25.6331,59.0374],[25.6324,59.0368],[25.6304,59.0362],[25.6288,59.0361],[25.6284,59.0352],[25.6259,59.0346],[25.6254,59.034],[25.6226,59.034],[25.6206,59.0345],[25.6158,59.0347],[25.6154,59.036],[25.6144,59.0364],[25.6125,59.0363],[25.611,59.0365],[25.6106,59.0368],[25.6105,59.0375],[25.609,59.038],[25.6104,59.0388],[25.6101,59.0394],[25.6089,59.0396],[25.6069,59.0391],[25.6067,59.0401],[25.6052,59.0411],[25.6039,59.0411],[25.6031,59.0404],[25.5996,59.0418],[25.5994,59.0431],[25.5961,59.0427],[25.5949,59.0434],[25.5929,59.0427],[25.5909,59.0425],[25.5899,59.0419],[25.5888,59.0423],[25.5878,59.0419],[25.5861,59.0421],[25.5856,59.0426],[25.5855,59.0432],[25.5837,59.0433],[25.5829,59.0448],[25.5821,59.045],[25.5808,59.044],[25.5792,59.0451],[25.5771,59.0455],[25.577,59.0464],[25.5755,59.0463],[25.5753,59.0472],[25.5718,59.0473],[25.5706,59.0465],[25.5691,59.0468],[25.5668,59.0461],[25.5649,59.0463],[25.5644,59.0454],[25.5623,59.0468],[25.5601,59.0472],[25.5571,59.0462],[25.5565,59.0468],[25.554,59.0461],[25.5513,59.0471],[25.5507,59.0481],[25.5479,59.0484],[25.5467,59.0491],[25.5463,59.0503],[25.5448,59.0522],[25.5451,59.0535],[25.5434,59.0543],[25.542,59.0554],[25.5392,59.0557],[25.5377,59.0553],[25.5364,59.0552],[25.5324,59.0549],[25.5289,59.0553],[25.5255,59.056],[25.5236,59.0586],[25.5244,59.0591],[25.5257,59.0607],[25.5246,59.0621],[25.5239,59.0636],[25.5264,59.0655],[25.529,59.0675],[25.5299,59.0706],[25.5309,59.0711],[25.5316,59.0728],[25.5316,59.0738],[25.5321,59.0755],[25.5338,59.0765],[25.536,59.0785],[25.5394,59.0818],[25.5405,59.0828],[25.5442,59.0864],[25.5482,59.0875],[25.5523,59.0878],[25.555,59.0903],[25.5547,59.091],[25.5559,59.0926],[25.5591,59.095],[25.5619,59.0962],[25.5631,59.0982],[25.5666,59.1006],[25.5669,59.101],[25.5671,59.1034],[25.5687,59.108],[25.5702,59.1163],[25.5697,59.1168],[25.5635,59.12],[25.5613,59.1211],[25.5518,59.1221],[25.5487,59.1224],[25.5469,59.1229],[25.5473,59.1237],[25.5448,59.1257],[25.5447,59.1261],[25.5428,59.1267],[25.5408,59.1277],[25.5408,59.1285],[25.5397,59.1291],[25.5384,59.1326],[25.5373,59.1328],[25.5363,59.134],[25.5345,59.1344],[25.534,59.1373],[25.5335,59.1377],[25.5333,59.1395],[25.531,59.1405],[25.5298,59.1406],[25.5274,59.1418],[25.5261,59.1422],[25.5264,59.1428],[25.5231,59.1438],[25.5223,59.1444],[25.5224,59.1455],[25.5219,59.147],[25.5226,59.1483],[25.5213,59.1494],[25.5163,59.1511],[25.5151,59.1512],[25.5145,59.1503],[25.5125,59.1503],[25.5114,59.1511],[25.5081,59.1519],[25.5054,59.1538],[25.5018,59.1539],[25.4995,59.155],[25.4984,59.1567],[25.4961,59.1577],[25.4954,59.1585],[25.4938,59.1597],[25.4919,59.1616],[25.4894,59.1634],[25.4844,59.1679],[25.4837,59.1691],[25.4837,59.1707],[25.4844,59.1713],[25.484,59.1725],[25.4851,59.1729],[25.4851,59.1741],[25.4845,59.1749],[25.4857,59.1763],[25.4846,59.1776],[25.4827,59.1786],[25.4832,59.1797],[25.4819,59.1816],[25.4795,59.1826],[25.4778,59.1837],[25.4742,59.1851],[25.473,59.1864],[25.4729,59.1874],[25.4711,59.1888],[25.4701,59.1891],[25.4662,59.1909],[25.463,59.1904],[25.4606,59.1907],[25.4601,59.1898],[25.4587,59.1893],[25.4568,59.1891],[25.4546,59.1896],[25.4506,59.1894],[25.4474,59.1902],[25.4474,59.1912],[25.4489,59.193],[25.4484,59.1941],[25.4495,59.1945],[25.4504,59.1955],[25.4524,59.197],[25.4517,59.1979],[25.4522,59.1999],[25.4519,59.2004],[25.4499,59.2005],[25.4466,59.2013],[25.4443,59.2015],[25.446,59.2033],[25.4459,59.2038],[25.4418,59.2053],[25.4386,59.2061],[25.4361,59.2077],[25.4357,59.209],[25.4363,59.21],[25.4378,59.2108],[25.4405,59.2112],[25.4419,59.212],[25.4427,59.2134],[25.4451,59.2121],[25.4479,59.214],[25.4486,59.2148],[25.4475,59.2157],[25.4466,59.2163],[25.4476,59.2174],[25.448,59.2181],[25.451,59.2197],[25.4514,59.2202],[25.4517,59.2203],[25.4528,59.2208],[25.4543,59.2219],[25.4526,59.2236],[25.4516,59.2241],[25.4517,59.2252],[25.4512,59.2259],[25.4523,59.2272],[25.4533,59.2278],[25.4557,59.2271],[25.4574,59.2275],[25.4593,59.2304],[25.4575,59.2313],[25.4563,59.2322],[25.4583,59.2328],[25.4569,59.2348],[25.4573,59.2359],[25.4544,59.2369],[25.4551,59.2385],[25.4539,59.2404],[25.453,59.2407],[25.4528,59.2416],[25.4514,59.2424],[25.4519,59.2438],[25.453,59.2454],[25.4516,59.2462],[25.4506,59.2472],[25.4493,59.2479],[25.4484,59.2494],[25.4486,59.2513],[25.4512,59.2522],[25.4495,59.2538],[25.4496,59.2545],[25.4506,59.256],[25.4484,59.2567],[25.4493,59.258],[25.4489,59.2585],[25.4471,59.2588],[25.4474,59.2598],[25.446,59.2612],[25.4459,59.262],[25.4474,59.2632],[25.4465,59.2639],[25.4448,59.2636],[25.4452,59.2646],[25.4457,59.2655],[25.4457,59.2663],[25.4467,59.2667],[25.4468,59.2678],[25.4445,59.2681],[25.4419,59.2677],[25.439,59.2677],[25.435,59.2691],[25.4346,59.27],[25.4339,59.271],[25.4324,59.272],[25.4288,59.272],[25.4279,59.2728],[25.4246,59.2747],[25.4229,59.275],[25.4213,59.2759]],[[25.24,59.4172],[25.2395,59.4181],[25.2405,59.4188]],[[25.3883,59.2867],[25.3876,59.2867],[25.387,59.2868]],[[25.3846,59.2882],[25.3832,59.2893],[25.3829,59.2902],[25.3833,59.2902],[25.3847,59.29]],[[25.3841,59.291],[25.3844,59.2913]],[[25.386,59.2912],[25.3857,59.2921],[25.3845,59.2922],[25.3788,59.2947],[25.376,59.2962],[25.3749,59.2966],[25.3731,59.2965],[25.3713,59.2963],[25.3678,59.2976],[25.3682,59.2989],[25.3671,59.3015],[25.3656,59.3017],[25.3636,59.3014],[25.3627,59.3017]],[[25.3829,59.2902],[25.3822,59.2908]],[[25.3833,59.2902],[25.3841,59.291]],[[25.3913,59.286],[25.3889,59.2856],[25.3876,59.2867]],[[25.4457,59.2655],[25.4467,59.2667]],[[25.5434,59.0543],[25.5423,59.0544],[25.5415,59.0552],[25.5402,59.0549],[25.5392,59.0557]]]},"properties":{"name":"Jägala jõgi"}},
{"type":"Feature","geometry":{"type":"MultiLineString","coordinates":[[[26.2305,59.3521],[26.2273,59.3566],[26.2273,59.3567],[26.2297,59.3604],[26.2301,59.3613],[26.2349,59.3629],[26.2432,59.3664],[26.2432,59.3673],[26.2452,59.3705],[26.2477,59.3712],[26.2491,59.3697],[26.2503,59.3691],[26.2519,59.369],[26.2622,59.3704],[26.2623,59.3704],[26.272,59.3724],[26.2752,59.3736],[26.2777,59.3736],[26.2868,59.3753],[26.2871,59.3753],[26.2891,59.3757],[26.2901,59.3753],[26.291,59.3747],[26.2928,59.3747],[26.295,59.3751],[26.2963,59.3751],[26.2982,59.3743],[26.2995,59.3746],[26.3006,59.3743],[26.3026,59.3747],[26.3034,59.374],[26.3056,59.3748],[26.3061,59.3765],[26.3072,59.3771],[26.3091,59.3771],[26.3104,59.3777],[26.3127,59.3773],[26.3142,59.3774],[26.3141,59.3783],[26.3157,59.3784],[26.3189,59.3791],[26.3204,59.3791],[26.3254,59.381],[26.3267,59.3812],[26.3298,59.3808],[26.3316,59.3805],[26.3321,59.3806],[26.3364,59.3816],[26.3378,59.3823],[26.3394,59.3826],[26.342,59.3825],[26.3423,59.3836],[26.3449,59.384],[26.3456,59.3845],[26.3462,59.386],[26.3492,59.3871],[26.3506,59.3881],[26.3541,59.3875],[26.354,59.3868],[26.355,59.3863],[26.3551,59.3862],[26.3566,59.3859],[26.3584,59.3841],[26.3593,59.3843],[26.3616,59.3836],[26.3626,59.3836],[26.3622,59.3826],[26.3628,59.3822],[26.3653,59.3826],[26.3657,59.3819],[26.3671,59.382],[26.3714,59.383],[26.3711,59.3847],[26.372,59.3868],[26.3753,59.389],[26.3754,59.3894],[26.3775,59.3902],[26.3783,59.3908],[26.3786,59.3929],[26.38,59.3937],[26.3805,59.3938],[26.3822,59.3937],[26.3827,59.3937],[26.3836,59.3931],[26.3857,59.3929],[26.3877,59.3923],[26.3884,59.3906],[26.39,59.3905],[26.3918,59.3909],[26.3938,59.391],[26.3949,59.3915],[26.3995,59.3918],[26.3976,59.393],[26.3981,59.3938],[26.3976,59.3946],[26.3991,59.3951],[26.3982,59.3957],[26.3994,59.3965],[26.3987,59.3975],[26.4002,59.3984],[26.3999,59.3995],[26.4038,59.3992],[26.4053,59.4],[26.4049,59.4006],[26.4039,59.4017],[26.4038,59.4031],[26.4014,59.4068],[26.4012,59.408],[26.3997,59.4085],[26.3991,59.4096],[26.3973,59.4105],[26.3958,59.4109],[26.3945,59.4138],[26.3927,59.4143],[26.3923,59.415],[26.3939,59.4157],[26.3929,59.4167],[26.3931,59.4189],[26.3925,59.4193],[26.3926,59.4215],[26.3912,59.4221],[26.3911,59.4243],[26.3901,59.4253],[26.39,59.4269],[26.3878,59.4282],[26.3878,59.4291],[26.3863,59.4301],[26.383,59.4311],[26.3824,59.4328],[26.3815,59.4341],[26.3816,59.4359],[26.3788,59.4385],[26.3774,59.4388],[26.3781,59.4405],[26.376,59.4411],[26.3774,59.4425],[26.3773,59.4432],[26.3753,59.4439],[26.3751,59.4445],[26.3721,59.4454],[26.3713,59.4468],[26.3708,59.447]],[[26.3805,59.3938],[26.381,59.3941],[26.3827,59.3937]],[[26.38,59.3937],[26.381,59.3941]],[[26.355,59.3863],[26.3551,59.3862]],[[26.3775,59.3902],[26.3783,59.3908]],[[26.3822,59.3937],[26.3836,59.3931]]]},"properties":{"name":"Selja jõgi"}},
{"type":"Feature","geometry":{"type":"MultiLineString","coordinates":[[[26.0981,59.0412],[26.0986,59.0409],[26.0987,59.0408],[26.0993,59.0401],[26.1012,59.0392],[26.1027,59.0388],[26.1042,59.0384],[26.1057,59.0369],[26.1058,59.0361],[26.1061,59.0361],[26.1064,59.0362],[26.1079,59.0361],[26.108,59.0361],[26.1091,59.0363],[26.11,59.0356],[26.1105,59.0345],[26.1118,59.0338],[26.1143,59.0304],[26.1174,59.0284],[26.1172,59.0268],[26.1166,59.0258],[26.1166,59.0257],[26.1162,59.0249],[26.1183,59.0242],[26.1208,59.024],[26.1259,59.0158],[26.1282,59.0119],[26.1246,59.011],[26.1217,59.01],[26.1119,59.0095],[26.1092,59.008],[26.1091,59.0079],[26.109,59.0069],[26.1122,59.0044],[26.1132,59.0025],[26.1129,59.0016],[26.1138,59.0005],[26.1169,58.9988],[26.1184,58.9985],[26.1185,58.9984],[26.1211,58.9976],[26.1232,58.9977],[26.1252,58.9974],[26.1274,58.9976],[26.1284,58.9966]],[[26.1057,59.0369],[26.1064,59.0362]],[[26.0986,59.0409],[26.0984,59.0397],[26.1012,59.0392]],[[26.0987,59.0408],[26.1027,59.0388]],[[26.1058,59.0361],[26.1061,59.0361]]]},"properties":{"name":"Preedi jõgi"}},
{"type":"Feature","geometry":{"type":"MultiLineString","coordinates":[[[26.2046,58.9971],[26.2046,58.9973],[26.2054,58.9977],[26.2058,58.9984],[26.2063,58.9991],[26.208,59.0003],[26.2068,59.001],[26.2077,59.002],[26.2091,59.0038],[26.2084,59.0051],[26.209,59.0055],[26.2074,59.0064]],[[26.2036,59.0105],[26.2034,59.0117],[26.2023,59.0129],[26.2011,59.0129],[26.2004,59.0136],[26.2006,59.0154],[26.1975,59.0166],[26.1967,59.0183],[26.1976,59.0192],[26.1924,59.02]],[[26.2101,59.1568],[26.2101,59.1553],[26.2094,59.1542],[26.2107,59.1509],[26.2114,59.1489],[26.2112,59.1472],[26.2114,59.1449],[26.21,59.1418],[26.2098,59.1387],[26.2087,59.1383],[26.2086,59.136],[26.2074,59.134],[26.2076,59.132],[26.2074,59.1301],[26.2086,59.1284],[26.2087,59.1249],[26.2098,59.1232],[26.2103,59.1208],[26.2103,59.1207],[26.2108,59.1193],[26.2108,59.1192],[26.2108,59.1191],[26.2099,59.1184],[26.2099,59.1169],[26.2084,59.1161],[26.2079,59.115],[26.207,59.1145],[26.2055,59.1134],[26.2042,59.113],[26.203,59.1112],[26.2011,59.1094],[26.2003,59.1075],[26.1996,59.1066],[26.1994,59.1065],[26.1974,59.1053],[26.1958,59.1049],[26.1879,59.1036],[26.1877,59.1036],[26.1831,59.1033],[26.1804,59.1028],[26.1773,59.1025],[26.1746,59.1016],[26.1711,59.1017],[26.171,59.1009],[26.1692,59.0991],[26.1692,59.0979],[26.1707,59.0968],[26.1714,59.0968],[26.1727,59.095],[26.1743,59.0935],[26.1739,59.0932],[26.176,59.0921],[26.1793,59.0907],[26.1794,59.0906],[26.1804,59.0899],[26.182,59.0896],[26.1847,59.0871],[26.1861,59.0845],[26.1857,59.0843],[26.1857,59.0818],[26.1885,59.0798],[26.1894,59.0761],[26.1913,59.0755],[26.192,59.0731],[26.1918,59.0713],[26.1911,59.0711],[26.1908,59.0697],[26.1832,59.0672],[26.1772,59.0625],[26.1769,59.0617],[26.1771,59.0588],[26.1771,59.0587],[26.1779,59.0566],[26.18,59.0554],[26.1805,59.0548],[26.1798,59.0533],[26.1815,59.0527],[26.1802,59.052],[26.1809,59.0511],[26.1822,59.0507],[26.1835,59.0509],[26.1846,59.0495],[26.1846,59.0488],[26.1857,59.0482],[26.1871,59.047],[26.1876,59.0458],[26.1868,59.0456],[26.1889,59.0442],[26.1883,59.0436],[26.1895,59.0432],[26.1915,59.0412],[26.1906,59.0391],[26.1881,59.038],[26.1879,59.0372],[26.1866,59.036],[26.1834,59.0339],[26.1835,59.0334],[26.1825,59.0321],[26.183,59.0311],[26.1818,59.0308],[26.1831,59.03],[26.1828,59.0292],[26.1857,59.029],[26.1868,59.0285],[26.1885,59.0281],[26.1875,59.0274],[26.1912,59.026],[26.1903,59.0253],[26.1918,59.0244],[26.1905,59.0232],[26.1922,59.0222],[26.1921,59.0218],[26.1919,59.0206]]]},"properties":{"name":"Põltsamaa jõgi"}},
{"type":"Feature","geometry":{"type":"MultiLineString","coordinates":[[[26.1827,59.2893],[26.1824,59.2898],[26.1823,59.2899],[26.1814,59.2912],[26.1803,59.2916],[26.1798,59.2926],[26.1767,59.2944],[26.1735,59.2958],[26.171,59.2973],[26.1715,59.2981],[26.1709,59.2988],[26.1683,59.2998],[26.1673,59.3006],[26.1671,59.3015],[26.1672,59.3017],[26.1684,59.3016],[26.1686,59.3033],[26.1696,59.3046],[26.1688,59.3058],[26.1693,59.306],[26.169,59.3067],[26.1703,59.3082],[26.1695,59.3096],[26.1688,59.3104],[26.1681,59.3106],[26.1664,59.3103],[26.1661,59.3123],[26.1657,59.3123],[26.1637,59.3135],[26.1629,59.3147],[26.1614,59.3154],[26.1595,59.3159],[26.1576,59.3178],[26.1548,59.3181],[26.154,59.319],[26.1536,59.3203],[26.1527,59.3207],[26.1508,59.3206],[26.1498,59.3215],[26.1505,59.3223],[26.1475,59.3227],[26.1469,59.3233],[26.146,59.3241],[26.1433,59.3269],[26.1432,59.327],[26.1424,59.3284],[26.1399,59.3295],[26.1392,59.3319],[26.1366,59.334],[26.1325,59.3356],[26.1314,59.3369],[26.1305,59.3369],[26.1305,59.3377],[26.1291,59.3381],[26.1279,59.3399],[26.126,59.3406],[26.126,59.3411],[26.1231,59.3423],[26.1218,59.3424],[26.1217,59.3432],[26.1215,59.3433],[26.1188,59.345],[26.1185,59.3462],[26.1164,59.3473],[26.1134,59.3472],[26.1147,59.3488],[26.1134,59.3491],[26.1111,59.349],[26.108,59.3505],[26.1073,59.3512],[26.1049,59.3526],[26.1045,59.354],[26.1036,59.3549],[26.1015,59.355],[26.098,59.3558],[26.0974,59.3574],[26.0958,59.3588],[26.0947,59.3593],[26.0943,59.3609],[26.0931,59.3614],[26.0934,59.3633],[26.0932,59.3634],[26.092,59.3641],[26.0838,59.367],[26.0815,59.367],[26.0797,59.3674],[26.0782,59.3685],[26.0764,59.3686],[26.0766,59.3693],[26.0757,59.3697],[26.0727,59.3697],[26.0704,59.37],[26.0689,59.3712],[26.0659,59.3724],[26.0666,59.3757],[26.0664,59.3763],[26.0648,59.377],[26.0647,59.3778],[26.0645,59.3783],[26.0621,59.3801],[26.0614,59.3814],[26.0587,59.3839],[26.0591,59.385],[26.0587,59.3857],[26.0575,59.3864],[26.0574,59.3877],[26.055,59.3883],[26.0542,59.3879],[26.0523,59.3886],[26.0508,59.3883],[26.0471,59.389],[26.0467,59.3894],[26.0448,59.3899],[26.0442,59.3915],[26.045,59.3922],[26.042,59.3929],[26.0404,59.3939],[26.0406,59.3949],[26.0398,59.3958],[26.0394,59.3974],[26.0372,59.3972],[26.0373,59.3987],[26.0345,59.4004],[26.0342,59.4018],[26.0324,59.4035],[26.0325,59.4045],[26.0318,59.4054],[26.0312,59.406],[26.0319,59.4069],[26.0327,59.4113],[26.0316,59.4121],[26.0328,59.414],[26.0292,59.414],[26.0292,59.4147],[26.0306,59.4155],[26.029,59.4166],[26.0271,59.4173],[26.0245,59.4172],[26.0254,59.4188],[26.0228,59.4194],[26.0226,59.4195],[26.0226,59.4196],[26.0202,59.4208],[26.0198,59.4209],[26.0184,59.4215],[26.0174,59.4225],[26.0145,59.4235],[26.0137,59.4252],[26.0111,59.4257],[26.011,59.4264],[26.0092,59.427],[26.0101,59.4276],[26.0065,59.4279],[26.0064,59.4291],[26.0038,59.4289],[26.0029,59.4295],[26.0008,59.4296],[26.0005,59.4305],[25.9982,59.4298],[25.9943,59.4317],[25.9929,59.4316],[25.9898,59.4321],[25.9879,59.4328],[25.9875,59.4336],[25.9859,59.4343],[25.9862,59.4351],[25.9854,59.4356],[25.9868,59.436],[25.9866,59.4367],[25.9882,59.4373],[25.9876,59.438],[25.9874,59.4381],[25.9869,59.4387],[25.9876,59.4395],[25.985,59.4401],[25.982,59.44],[25.9794,59.4401],[25.9785,59.4396],[25.9756,59.4399],[25.9748,59.4392],[25.9746,59.4383],[25.9731,59.4388],[25.9708,59.4381],[25.9689,59.4389],[25.965,59.4393],[25.9637,59.4397],[25.9633,59.4404],[25.9648,59.4412],[25.9667,59.4421],[25.9693,59.4425],[25.9682,59.4442],[25.9682,59.4445]],[[26.1688,59.3104],[26.1687,59.3106],[26.1685,59.3119],[26.1661,59.3123]],[[26.1469,59.3233],[26.146,59.3241],[26.146,59.3248],[26.1473,59.3251],[26.1474,59.3262],[26.1462,59.3265],[26.1456,59.3278],[26.1455,59.3279],[26.1448,59.3283],[26.1424,59.3284]],[[26.0198,59.4209],[26.0205,59.4219],[26.0184,59.4215]],[[25.965,59.4415],[25.965,59.4416],[25.9667,59.4421]],[[26.0325,59.4045],[26.0341,59.405],[26.0333,59.4058],[26.0318,59.4054]],[[26.0226,59.4195],[26.0246,59.4205],[26.0226,59.421],[26.0202,59.4208]],[[26.1687,59.3106],[26.1681,59.3106]],[[25.9648,59.4412],[25.965,59.4415]],[[26.1671,59.3015],[26.1672,59.3017]]]},"properties":{"name":"Loobu jõgi"}},
{"type":"Feature","geometry":{"type":"MultiLineString","coordinates":[[[25.3372,59.2008],[25.336,59.2024],[25.3365,59.203],[25.3378,59.2031],[25.3397,59.2037],[25.3415,59.2044],[25.342,59.2052],[25.3439,59.2055],[25.3451,59.2062],[25.3471,59.2066],[25.3521,59.2098],[25.3551,59.21],[25.357,59.2119],[25.3574,59.2128],[25.355,59.2158],[25.3549,59.218],[25.3565,59.2201],[25.3565,59.2221],[25.3551,59.2241],[25.3578,59.2271],[25.3606,59.228],[25.3615,59.2306],[25.3606,59.2356],[25.3552,59.2424],[25.3551,59.2426],[25.3547,59.2434],[25.3497,59.2463],[25.3471,59.2468],[25.3453,59.248],[25.3402,59.2494],[25.3382,59.2508],[25.3355,59.2516],[25.3312,59.2515],[25.3275,59.2521],[25.3232,59.2541],[25.3229,59.2542],[25.3149,59.2577],[25.3145,59.2592],[25.3135,59.2598],[25.3091,59.2604],[25.3072,59.2628],[25.3071,59.2629],[25.305,59.2635],[25.3017,59.2634],[25.2969,59.2658],[25.2966,59.2659],[25.2945,59.2671],[25.2912,59.2676],[25.2842,59.267],[25.2825,59.2682],[25.2818,59.2684],[25.2792,59.2689],[25.2771,59.2703],[25.2755,59.2701],[25.2742,59.2708],[25.2749,59.2717],[25.2747,59.2726],[25.2736,59.2726],[25.2744,59.2738],[25.2744,59.2739],[25.2734,59.2747],[25.2733,59.2754],[25.2719,59.2764],[25.2721,59.277],[25.2707,59.2776],[25.2698,59.2789],[25.2683,59.2795],[25.2664,59.2799],[25.2664,59.2804],[25.2644,59.281],[25.2643,59.282],[25.263,59.2825],[25.2622,59.2819],[25.2603,59.2819],[25.2587,59.2827],[25.2588,59.2837],[25.2565,59.2843],[25.2519,59.2859],[25.2517,59.2871],[25.2506,59.2871],[25.2487,59.2886],[25.2489,59.2897],[25.2469,59.2909],[25.2456,59.2911],[25.2458,59.2925],[25.2469,59.2926],[25.2483,59.2934],[25.2485,59.2945],[25.2485,59.2948],[25.2478,59.2965],[25.2472,59.2969],[25.2467,59.2988],[25.2482,59.2997],[25.2485,59.302],[25.2519,59.3038],[25.2503,59.305],[25.2493,59.3073],[25.2504,59.3084],[25.2505,59.3084],[25.251,59.3093],[25.2532,59.3107],[25.2533,59.3119],[25.2527,59.3124],[25.247,59.3138],[25.2449,59.3151],[25.2439,59.3153],[25.2432,59.3153]],[[25.2825,59.2682],[25.2818,59.2684]]]},"properties":{"name":"Jõelähtme jõgi"}},
{"type":"Feature","geometry":{"type":"LineString","coordinates":[[25.4078,59.0533],[25.4072,59.0446],[25.4071,59.0436],[25.4058,59.0401],[25.4042,59.0359],[25.4048,59.0282],[25.4011,59.0221],[25.401,59.0219],[25.4003,59.0208],[25.3823,59.0109],[25.3847,59.0037],[25.3847,59.0036],[25.3868,58.9975],[25.3888,58.9916],[25.3879,58.9895]]},"properties":{"name":"Lintsi jõgi"}},
{"type":"Feature","geometry":{"type":"MultiLineString","coordinates":[[[25.2585,59.0163],[25.2587,59.0162],[25.2585,59.016]],[[25.2586,59.0141],[25.2612,59.0126],[25.2611,59.0107],[25.2604,59.0099],[25.2615,59.009],[25.2646,59.0069],[25.2624,59.0061],[25.2655,59.0041],[25.2608,59.0024],[25.2599,59.0016],[25.2598,59.0015],[25.2593,59.001]]]},"properties":{"name":"Käru jõgi"}},
{"type":"Feature","geometry":{"type":"MultiLineString","coordinates":[[[25.3312,59.3904],[25.3333,59.3906],[25.333,59.3899],[25.3346,59.3896],[25.3335,59.3886],[25.3345,59.3883],[25.3366,59.3894],[25.3364,59.3904],[25.3375,59.3906],[25.3387,59.39],[25.3421,59.3897],[25.343,59.3889],[25.3443,59.3886],[25.3457,59.389],[25.3482,59.3879],[25.3505,59.3883],[25.3509,59.3896],[25.3521,59.39],[25.3536,59.39],[25.3544,59.3911],[25.3568,59.3894],[25.3582,59.3895],[25.3594,59.3903],[25.3604,59.3893],[25.3625,59.3892],[25.364,59.388],[25.3666,59.3881],[25.3683,59.3888],[25.3693,59.3879],[25.3711,59.3874],[25.3717,59.388],[25.374,59.3888],[25.3748,59.3897],[25.3765,59.3898],[25.3813,59.3888],[25.3837,59.3891],[25.3899,59.3892],[25.3913,59.3896],[25.3934,59.3888],[25.3932,59.3899],[25.3942,59.392],[25.3933,59.3929],[25.3905,59.3933],[25.3914,59.3941],[25.3943,59.3949],[25.3957,59.3949],[25.3972,59.394],[25.3969,59.3936],[25.3969,59.3932],[25.3988,59.3923],[25.3995,59.3912],[25.4013,59.3908],[25.4028,59.3896],[25.4043,59.388],[25.4032,59.3875],[25.403,59.3864],[25.4037,59.386],[25.402,59.3849],[25.4022,59.3844],[25.4061,59.3839],[25.4061,59.3831],[25.4091,59.3817],[25.4118,59.3816],[25.4126,59.3826],[25.4146,59.3812],[25.4173,59.3804],[25.4176,59.3794],[25.4196,59.3785],[25.4206,59.3804],[25.4218,59.3812],[25.4235,59.3812],[25.4246,59.3797],[25.4255,59.38],[25.4258,59.3809],[25.4278,59.3813],[25.4287,59.3823],[25.4297,59.3816],[25.4315,59.3816],[25.4327,59.3812],[25.4359,59.3808],[25.4385,59.3808],[25.4394,59.3813],[25.4407,59.381],[25.4414,59.3815],[25.441,59.3828],[25.4426,59.3826],[25.4428,59.3815],[25.4441,59.3814],[25.4461,59.3822],[25.4472,59.3814],[25.4501,59.3813],[25.4502,59.3795],[25.4513,59.379],[25.4534,59.3787],[25.4541,59.3794],[25.4562,59.3801],[25.4582,59.3798],[25.4601,59.3803],[25.4605,59.3812],[25.4613,59.3817],[25.4633,59.3817],[25.4632,59.3824],[25.4633,59.3824],[25.4635,59.3826],[25.4669,59.3839],[25.4682,59.3848],[25.4697,59.3851],[25.4701,59.3852],[25.4726,59.386],[25.4775,59.3868],[25.4815,59.387],[25.4872,59.3867],[25.491,59.3856],[25.4985,59.3838],[25.5053,59.3833],[25.513,59.3849],[25.5172,59.3875],[25.5241,59.3896],[25.5293,59.3906],[25.5354,59.3909],[25.5401,59.3907],[25.5451,59.3909],[25.5497,59.3914],[25.5532,59.3921],[25.5563,59.3939],[25.558,59.3945],[25.5613,59.3945],[25.5637,59.3948],[25.5666,59.3964],[25.5699,59.3967],[25.5731,59.3968],[25.5792,59.3979],[25.5872,59.3975],[25.5894,59.3965],[25.5916,59.3962],[25.5948,59.3966],[25.5959,59.3957],[25.5987,59.3964],[25.6002,59.396],[25.6013,59.396],[25.6005,59.3957],[25.6014,59.396],[25.6013,59.396]],[[25.9329,59.1861],[25.9308,59.1869],[25.9256,59.1875],[25.9249,59.1869],[25.9197,59.1883],[25.9211,59.1912],[25.924,59.1915],[25.9264,59.1937],[25.9292,59.1959],[25.9267,59.1989],[25.9228,59.199],[25.9212,59.2014],[25.9167,59.203],[25.9099,59.2063],[25.9097,59.2064],[25.9049,59.2077],[25.9073,59.2143],[25.908,59.218],[25.9022,59.2192],[25.9021,59.2192],[25.9005,59.2195],[25.8973,59.2213],[25.8971,59.2213],[25.8936,59.2213],[25.8929,59.2221],[25.8927,59.2223],[25.8926,59.2238],[25.8892,59.2261],[25.8872,59.2263],[25.8871,59.2263],[25.8848,59.2264],[25.8828,59.2275],[25.8815,59.2274],[25.8805,59.2279],[25.8784,59.2302],[25.877,59.2308],[25.8735,59.2316],[25.8707,59.2309],[25.8688,59.2296],[25.8643,59.2294],[25.8626,59.23],[25.8616,59.2377],[25.8615,59.2397],[25.8594,59.2398],[25.8592,59.2398],[25.8568,59.2399],[25.8539,59.2407],[25.8527,59.2408],[25.8496,59.2416],[25.8468,59.2429],[25.8471,59.2442],[25.8437,59.2456],[25.8431,59.2461],[25.8439,59.2488],[25.8469,59.251],[25.8481,59.2517],[25.8518,59.2546],[25.8514,59.2565],[25.8513,59.2566],[25.8512,59.257],[25.8476,59.2587],[25.844,59.2615],[25.8444,59.2627],[25.8436,59.2628],[25.8419,59.2643],[25.841,59.2647],[25.8408,59.2648],[25.8398,59.2654],[25.8382,59.268],[25.8363,59.2681],[25.8355,59.2676],[25.8315,59.2679],[25.8292,59.2672],[25.8261,59.267],[25.8237,59.2662],[25.8205,59.2666],[25.8174,59.27],[25.8156,59.2697],[25.8151,59.2702],[25.8133,59.2697],[25.8103,59.2702],[25.8084,59.272],[25.8099,59.2741],[25.8116,59.2752],[25.8121,59.2774],[25.8133,59.2791],[25.8134,59.2809],[25.8127,59.2816],[25.8111,59.2842],[25.8117,59.2851],[25.8112,59.2885],[25.811,59.2918],[25.8108,59.2925],[25.8082,59.2937],[25.8056,59.2941],[25.8029,59.2939],[25.8025,59.2946],[25.8008,59.2955],[25.7991,59.2955],[25.799,59.2963],[25.7958,59.2962],[25.7948,59.2966],[25.7954,59.2986],[25.794,59.2995],[25.7928,59.2993],[25.7917,59.3021],[25.7929,59.3028],[25.7925,59.3036],[25.7942,59.3063],[25.7941,59.307],[25.7952,59.3079],[25.7955,59.3087],[25.7945,59.3092],[25.7926,59.3088],[25.7915,59.3083],[25.7886,59.3082],[25.7856,59.3098],[25.7856,59.3108],[25.784,59.3122],[25.7843,59.3132],[25.783,59.3136],[25.7824,59.3148],[25.7806,59.316],[25.78,59.317],[25.7776,59.3175],[25.7761,59.3184],[25.7749,59.3196],[25.7735,59.3204],[25.7725,59.3203],[25.7709,59.3212],[25.7698,59.3208],[25.7689,59.3215],[25.7673,59.3217],[25.7655,59.3216],[25.7659,59.3226],[25.7633,59.3231],[25.7619,59.3242],[25.7617,59.3245],[25.7607,59.3253],[25.7613,59.3262],[25.7606,59.3275],[25.7595,59.3274],[25.7581,59.329],[25.7585,59.3294],[25.7565,59.3305],[25.7558,59.3318],[25.7546,59.3326],[25.7512,59.3331],[25.7502,59.3328],[25.7495,59.3328],[25.7494,59.3335],[25.7484,59.3346],[25.7464,59.3342],[25.7458,59.3352],[25.7463,59.3361],[25.7463,59.3368],[25.7454,59.3377],[25.7428,59.3391],[25.738,59.34],[25.7373,59.3408],[25.7349,59.3411],[25.7343,59.3418],[25.7326,59.3424],[25.7316,59.3419],[25.7291,59.3425],[25.7285,59.343],[25.7264,59.3432],[25.7265,59.3441],[25.7253,59.3458],[25.7242,59.3462],[25.7242,59.3468],[25.7217,59.3478],[25.7209,59.3474],[25.7192,59.3475],[25.7183,59.3472],[25.7165,59.3471],[25.7166,59.3477],[25.7161,59.3482],[25.7152,59.3488],[25.7136,59.3489],[25.7125,59.3496],[25.7103,59.3501],[25.7094,59.3513],[25.7084,59.3516],[25.7078,59.3524],[25.7079,59.3529],[25.7053,59.3539],[25.7056,59.3542],[25.7039,59.3545],[25.7037,59.3555],[25.7037,59.3565],[25.7011,59.3567],[25.7006,59.3574],[25.6978,59.3584],[25.6969,59.3584],[25.6974,59.3598],[25.6954,59.3603],[25.6944,59.3621],[25.6953,59.3629],[25.694,59.3633],[25.6939,59.3655],[25.6946,59.3663],[25.6952,59.3671],[25.6973,59.3687],[25.6983,59.3689],[25.7013,59.3698],[25.7009,59.3706],[25.702,59.3712],[25.7016,59.3723],[25.7001,59.3727],[25.7,59.373],[25.7002,59.3733],[25.7002,59.3734],[25.7001,59.3744],[25.6993,59.3751],[25.6999,59.3762],[25.6989,59.3764],[25.6997,59.3774],[25.6994,59.3781],[25.7003,59.379],[25.7003,59.381],[25.6998,59.382],[25.6971,59.3821],[25.6959,59.3825],[25.694,59.3821],[25.6934,59.3829],[25.692,59.3832],[25.6908,59.3856],[25.6893,59.3857],[25.6876,59.3866],[25.6868,59.387],[25.6841,59.3871],[25.6826,59.3884],[25.6824,59.3894],[25.6791,59.3905],[25.6731,59.3915],[25.6701,59.3929],[25.6695,59.3936],[25.668,59.3936],[25.6665,59.3944],[25.665,59.3938],[25.6616,59.3948],[25.6605,59.3969],[25.6593,59.3973],[25.6568,59.397],[25.6558,59.3963],[25.6536,59.3965],[25.6518,59.3959],[25.6503,59.396],[25.6472,59.3969],[25.6455,59.3971],[25.6437,59.3968],[25.6426,59.3961],[25.641,59.3963],[25.6405,59.3971],[25.6389,59.3977],[25.6367,59.3973],[25.6356,59.3978],[25.6339,59.3978],[25.6331,59.3982],[25.6309,59.398],[25.6296,59.3971],[25.6283,59.3972],[25.6265,59.398],[25.6241,59.3986],[25.6226,59.3982],[25.6213,59.3974],[25.6212,59.3963],[25.6191,59.3964],[25.6178,59.3956],[25.6159,59.3964],[25.6152,59.3959],[25.6135,59.3962],[25.6114,59.3956],[25.6087,59.3953],[25.6073,59.3959],[25.6055,59.3961],[25.604,59.3953],[25.6014,59.396]],[[25.6005,59.3957],[25.6002,59.396]],[[25.668,59.3936],[25.6663,59.3932],[25.665,59.3938]],[[25.6939,59.3655],[25.696,59.3662],[25.6952,59.3671]],[[25.7056,59.3542],[25.7048,59.3552],[25.7037,59.3555]],[[25.7484,59.3346],[25.7487,59.3349],[25.7491,59.3358],[25.7463,59.3368]],[[25.7487,59.3349],[25.747,59.3353],[25.7463,59.3361]],[[25.7606,59.3275],[25.7609,59.3281],[25.7606,59.33],[25.7594,59.3319],[25.7565,59.3321],[25.7558,59.3318]],[[25.4632,59.3824],[25.4613,59.3817]],[[25.4605,59.3812],[25.4604,59.3806],[25.4601,59.3803]],[[25.7165,59.3471],[25.7166,59.3477]],[[25.7192,59.3475],[25.7183,59.3472]],[[25.7619,59.3242],[25.7617,59.3245]],[[25.7001,59.3727],[25.7002,59.3733],[25.7002,59.3734]],[[25.7581,59.329],[25.7558,59.3288],[25.7549,59.329],[25.7531,59.3286],[25.7524,59.3299],[25.7504,59.3306],[25.7487,59.3323],[25.7495,59.3328]],[[25.7009,59.3706],[25.702,59.3712]],[[25.694,59.3821],[25.6932,59.382],[25.692,59.3832]],[[25.7,59.373],[25.7002,59.3733]],[[25.7161,59.3482],[25.7152,59.3488]],[[25.7084,59.3516],[25.7078,59.3524]]]},"properties":{"name":"Soodla jõgi"}},
{"type":"Feature","geometry":{"type":"MultiLineString","coordinates":[[[26.4458,59.4261],[26.4451,59.4271],[26.4454,59.428],[26.4432,59.4297],[26.4431,59.4298],[26.4485,59.4326],[26.4486,59.4327],[26.4507,59.4359],[26.4546,59.4406],[26.4567,59.4413],[26.4591,59.4424],[26.4607,59.4437],[26.4619,59.446],[26.4647,59.4473],[26.4647,59.4475]],[[26.4459,59.426],[26.4462,59.426],[26.4463,59.4259],[26.4467,59.4256],[26.4473,59.4247],[26.4463,59.4237],[26.4458,59.4212],[26.4479,59.4202],[26.4499,59.4189],[26.4513,59.4184],[26.4528,59.4173],[26.4535,59.4163],[26.4528,59.4155],[26.4527,59.4154],[26.4508,59.4134],[26.4553,59.4096],[26.4545,59.4088],[26.452,59.404],[26.4522,59.4028]],[[26.4721,59.3751],[26.4665,59.3785],[26.465,59.3816],[26.465,59.3817],[26.4638,59.3842],[26.4636,59.3854],[26.4636,59.3855],[26.4632,59.3882],[26.4632,59.3883],[26.4627,59.391],[26.4627,59.3911],[26.4623,59.3933],[26.4619,59.3948],[26.4591,59.3966],[26.4579,59.3983],[26.4537,59.4017],[26.4522,59.4027]]]},"properties":{"name":"Toolse jõgi"}},
{"type":"Feature","geometry":{"type":"LineString","coordinates":[[25.5033,58.9909],[25.5042,58.9929],[25.5087,59.0023],[25.511,59.005],[25.511,59.0051],[25.5142,59.0083],[25.5152,59.0086],[25.5176,59.0104],[25.5196,59.0129],[25.5196,59.0134],[25.5196,59.0135],[25.5205,59.0193],[25.5279,59.028],[25.5229,59.0315],[25.5231,59.0318],[25.5222,59.032],[25.5204,59.0333],[25.52,59.0336],[25.5199,59.0336],[25.5198,59.0338],[25.5165,59.036],[25.5051,59.0348],[25.4981,59.0383],[25.487,59.0437],[25.4883,59.0461],[25.4882,59.0463],[25.4831,59.0477],[25.483,59.0478],[25.4823,59.0486],[25.4836,59.0523],[25.4829,59.0528],[25.4776,59.0538],[25.4718,59.0608]]},"properties":{"name":"Reopalu jõgi"}},
{"type":"Feature","geometry":{"type":"MultiLineString","coordinates":[[[25.4468,59.2678],[25.4486,59.268],[25.4496,59.2669],[25.4532,59.2674],[25.4552,59.2674],[25.4569,59.2676],[25.4566,59.2683],[25.4624,59.268],[25.4634,59.2685],[25.4648,59.268],[25.4669,59.2685],[25.4685,59.2683],[25.4706,59.2685],[25.4712,59.2687],[25.4722,59.2682],[25.4743,59.2684],[25.4761,59.2675],[25.477,59.2683],[25.4803,59.2677],[25.4829,59.2677],[25.4846,59.2683],[25.4847,59.2684],[25.4862,59.2677],[25.4871,59.2685],[25.489,59.2691],[25.4926,59.2693],[25.495,59.2684],[25.4986,59.2682],[25.4998,59.2687],[25.501,59.2681],[25.5032,59.2687],[25.5054,59.2687],[25.5057,59.268],[25.5069,59.2674],[25.5086,59.2675],[25.5101,59.2666],[25.5103,59.2656],[25.5116,59.2659],[25.5168,59.2653],[25.5184,59.2647],[25.5261,59.2638],[25.5286,59.2639],[25.5324,59.263],[25.5327,59.2625],[25.5355,59.2623],[25.5364,59.263],[25.5383,59.2637],[25.5379,59.2649],[25.5412,59.2658],[25.5428,59.266],[25.5457,59.266],[25.5484,59.2674],[25.5496,59.2675],[25.5505,59.2685],[25.5517,59.2688],[25.5545,59.2688],[25.5558,59.2696],[25.558,59.2704],[25.5592,59.2706],[25.5599,59.2714],[25.561,59.2713],[25.5629,59.2727],[25.5649,59.2726],[25.5663,59.2732],[25.5685,59.2732],[25.5695,59.2722],[25.5713,59.2725],[25.5724,59.2719],[25.5763,59.2716],[25.5769,59.2712],[25.5811,59.27],[25.5824,59.27],[25.5825,59.2699],[25.5843,59.2688],[25.5855,59.2683],[25.5874,59.2683],[25.5902,59.2687],[25.594,59.2683],[25.5977,59.2668],[25.5982,59.2662],[25.6,59.266],[25.6,59.2651],[25.6015,59.2647],[25.6016,59.2639],[25.6029,59.2631],[25.6046,59.2628],[25.6056,59.2622],[25.6086,59.2621],[25.6089,59.261],[25.6106,59.2595],[25.6154,59.2584],[25.6155,59.2574],[25.6191,59.2575],[25.621,59.2585],[25.6226,59.2588],[25.6227,59.2597],[25.6245,59.2606],[25.6236,59.2615],[25.6251,59.2623],[25.6259,59.2632],[25.6255,59.2643],[25.6272,59.2649],[25.6286,59.2664],[25.6311,59.2665],[25.6325,59.266],[25.6333,59.2668],[25.6359,59.2671],[25.6367,59.2673],[25.6385,59.2666],[25.6407,59.2651],[25.6405,59.2642],[25.6422,59.2636],[25.6438,59.2625],[25.6444,59.2616],[25.6462,59.2613],[25.6475,59.262],[25.6495,59.2618],[25.6508,59.2611],[25.6524,59.2612],[25.6541,59.2597],[25.6577,59.2591],[25.6579,59.26],[25.6594,59.2602],[25.6609,59.2596],[25.6614,59.2587],[25.663,59.2584],[25.6627,59.257],[25.6648,59.2568],[25.6639,59.2562],[25.6669,59.2559],[25.6673,59.2553],[25.6676,59.2544],[25.6697,59.254],[25.6708,59.2533],[25.6702,59.2527],[25.6706,59.2516],[25.6729,59.2503],[25.6735,59.249]],[[25.7599,59.1916],[25.7536,59.1941],[25.7526,59.1964],[25.7483,59.1965],[25.7473,59.1971],[25.7456,59.199],[25.745,59.1992],[25.7447,59.1993],[25.7422,59.2004],[25.7397,59.202],[25.7362,59.2027],[25.7359,59.2027],[25.7347,59.2032],[25.7341,59.204],[25.7319,59.2058],[25.7266,59.2081],[25.7218,59.2113],[25.7217,59.2114],[25.7181,59.2128],[25.7179,59.2128],[25.7156,59.2138],[25.7148,59.216],[25.7141,59.219],[25.7135,59.2203],[25.711,59.221],[25.7108,59.221],[25.7087,59.2213],[25.7075,59.2225],[25.7067,59.2256],[25.7037,59.2294],[25.6995,59.2297],[25.6985,59.2299],[25.696,59.2327],[25.6932,59.2334],[25.6893,59.2367],[25.6876,59.2378],[25.6847,59.241],[25.6839,59.2414],[25.6813,59.2426],[25.6812,59.2434],[25.6804,59.2442],[25.6789,59.2444],[25.6764,59.2454],[25.6755,59.2469],[25.6745,59.2481],[25.6743,59.2482],[25.6737,59.2488],[25.6737,59.2489]]]},"properties":{"name":"Jänijõgi"}},
{"type":"Feature","geometry":{"type":"LineString","coordinates":[[26.4039,59.0341],[26.4039,59.034],[26.4047,59.0337],[26.4047,59.0324],[26.4056,59.0317],[26.4078,59.0309],[26.4091,59.0298],[26.4107,59.0296],[26.4121,59.0299],[26.4136,59.0307],[26.4146,59.0304],[26.4174,59.0312],[26.4183,59.0308],[26.4193,59.029],[26.4209,59.0283],[26.4206,59.0271],[26.4223,59.026],[26.4226,59.0247],[26.4236,59.0236],[26.4255,59.0227],[26.4255,59.0221],[26.4275,59.0209],[26.4274,59.0202],[26.4302,59.0192],[26.4286,59.0175],[26.4305,59.0175],[26.431,59.0163],[26.4303,59.0154],[26.4326,59.0152],[26.433,59.0139],[26.4325,59.0132],[26.435,59.0127],[26.4354,59.012],[26.4345,59.0114],[26.4351,59.0103],[26.4379,59.0095],[26.4384,59.0103],[26.4374,59.0109],[26.4383,59.0114],[26.4413,59.0103],[26.4421,59.0102],[26.4425,59.0091],[26.446,59.0085],[26.4463,59.0081],[26.4453,59.007],[26.4425,59.0054],[26.4405,59.0054],[26.441,59.0047],[26.4408,59.0037],[26.4427,59.0025],[26.4451,59.0028],[26.4468,59.0026],[26.449,59.0018],[26.4495,59.0005],[26.4513,59.0002],[26.452,58.999],[26.4514,58.9985],[26.4514,58.9984]]},"properties":{"name":"Pedja jõgi"}},
{"type":"Feature","geometry":{"type":"LineString","coordinates":[[25.7052,58.9931],[25.7055,58.9955],[25.706,58.997],[25.7061,58.9971],[25.7112,58.9969],[25.7134,59.0015],[25.7142,59.0029],[25.7148,59.0055],[25.7186,59.007],[25.7215,59.0075],[25.7217,59.0075],[25.7285,59.0088],[25.7287,59.0088],[25.7294,59.0089],[25.7308,59.0078],[25.7314,59.006],[25.7326,59.0041],[25.7324,59.0009],[25.7411,59.0002]]},"properties":{"name":"Vodja jõgi"}},
{"type":"Feature","geometry":{"type":"LineString","coordinates":[[25.4207,59.2761],[25.4218,59.2765],[25.425,59.2765],[25.4293,59.2762],[25.4309,59.2768],[25.432,59.2765],[25.4329,59.2772],[25.435,59.2776],[25.4372,59.2777],[25.4388,59.2783],[25.4388,59.279],[25.441,59.2792],[25.4429,59.2787],[25.4441,59.2794],[25.4437,59.2801],[25.4451,59.2803],[25.4458,59.2797],[25.4475,59.2806],[25.4488,59.2798],[25.4507,59.2812],[25.4523,59.2814],[25.4535,59.2806],[25.4561,59.2805],[25.4577,59.2812],[25.4586,59.2811],[25.4588,59.2811],[25.4635,59.2818],[25.4668,59.2822],[25.468,59.2827],[25.4703,59.2824],[25.4729,59.2831],[25.4733,59.2825],[25.4776,59.2832],[25.478,59.2846],[25.4801,59.2851],[25.4808,59.2843],[25.4836,59.2853],[25.4845,59.2844],[25.4894,59.285],[25.4893,59.2862],[25.4966,59.2882],[25.4986,59.2889],[25.4999,59.2898],[25.499,59.2901],[25.502,59.2917],[25.5036,59.292],[25.5036,59.2928],[25.5054,59.2928],[25.5052,59.2936],[25.5078,59.2942],[25.5126,59.2962],[25.5133,59.2958],[25.5153,59.2961],[25.5162,59.2973],[25.5177,59.2976],[25.5196,59.2971],[25.5231,59.298],[25.5239,59.2994],[25.5255,59.3001],[25.525,59.3009],[25.5269,59.3015],[25.5284,59.3013],[25.5298,59.3024],[25.5313,59.3019],[25.5331,59.3018],[25.5345,59.3032],[25.538,59.3034],[25.5385,59.3043],[25.5406,59.3054],[25.5438,59.3062],[25.5445,59.3069],[25.5462,59.3066],[25.5474,59.3076],[25.5482,59.307],[25.5495,59.3079],[25.5509,59.3076],[25.554,59.3086],[25.5545,59.3095],[25.5567,59.3105],[25.559,59.311],[25.5597,59.3105],[25.561,59.3104],[25.5612,59.3105],[25.5644,59.3098],[25.5674,59.31],[25.5684,59.3096],[25.5712,59.3096],[25.574,59.31],[25.5754,59.3097],[25.5771,59.3104],[25.5794,59.3097],[25.5799,59.3101],[25.5828,59.3097],[25.5839,59.3101],[25.5884,59.3089],[25.591,59.309],[25.5929,59.3087],[25.5947,59.3091],[25.597,59.3086],[25.5995,59.3089],[25.6002,59.308],[25.6045,59.3081],[25.6061,59.3077],[25.6067,59.3072],[25.6095,59.3064],[25.6104,59.3055],[25.6095,59.305],[25.6116,59.3027],[25.6114,59.3019],[25.6135,59.3012],[25.6134,59.2993],[25.6136,59.2981],[25.6138,59.2978],[25.6135,59.2971],[25.6139,59.296],[25.6148,59.2955],[25.614,59.2946],[25.615,59.2941],[25.6149,59.2933],[25.618,59.2905],[25.6197,59.2893],[25.6206,59.2891],[25.622,59.2877],[25.6218,59.2867],[25.6236,59.2861],[25.6248,59.2863],[25.6279,59.285],[25.6301,59.2847],[25.6303,59.2847],[25.6336,59.2836],[25.6332,59.2826],[25.6313,59.2816],[25.6316,59.2804],[25.6323,59.2796],[25.6348,59.2786],[25.6346,59.278],[25.6369,59.278],[25.639,59.2774],[25.6402,59.2768],[25.6413,59.2769],[25.6433,59.2759],[25.6444,59.2754],[25.6484,59.2746],[25.6489,59.275],[25.6521,59.2739],[25.6534,59.2741],[25.6553,59.2749],[25.6587,59.2752],[25.6602,59.2755],[25.6625,59.2747],[25.6631,59.2755],[25.6645,59.275],[25.6669,59.275],[25.6676,59.2743],[25.67,59.2744],[25.6714,59.2747],[25.6726,59.2741],[25.6756,59.2744],[25.6773,59.2744],[25.6813,59.2754],[25.6825,59.2753],[25.6844,59.2765],[25.6846,59.2774],[25.6847,59.2775],[25.6871,59.2781],[25.6886,59.2789],[25.6894,59.28],[25.6921,59.2809],[25.694,59.2821],[25.698,59.2836],[25.701,59.2845],[25.702,59.2845],[25.7057,59.283],[25.7059,59.283],[25.7098,59.2829],[25.7119,59.2824],[25.7124,59.2817],[25.7162,59.2818],[25.7176,59.2821],[25.7177,59.2822]]},"properties":{"name":"Mustjõgi"}},
{"type":"Feature","geometry":{"type":"MultiLineString","coordinates":[[[26.4038,59.3992],[26.4018,59.397],[26.4024,59.3958],[26.4023,59.3946],[26.404,59.3934],[26.4071,59.3916],[26.4079,59.3908],[26.4092,59.3903],[26.4093,59.3897],[26.4116,59.389],[26.4118,59.3882],[26.4135,59.3871],[26.4146,59.3868],[26.4153,59.3859],[26.4153,59.3846],[26.4164,59.384],[26.4174,59.3824],[26.421,59.3802],[26.4223,59.3788],[26.4222,59.3781],[26.425,59.3771],[26.4253,59.3765],[26.4269,59.3751],[26.4297,59.3735],[26.4313,59.3733],[26.432,59.3722],[26.4345,59.3699],[26.4355,59.3699],[26.4396,59.3677],[26.4408,59.3651],[26.4409,59.3651],[26.4411,59.3649],[26.4417,59.3639],[26.4435,59.363],[26.4435,59.3625],[26.4415,59.3598],[26.4417,59.3584],[26.454,59.3527],[26.4539,59.3522],[26.4539,59.3521],[26.4539,59.352],[26.4575,59.3472],[26.459,59.346],[26.4607,59.3456],[26.4606,59.3446],[26.4636,59.3417],[26.465,59.3402],[26.4651,59.3401],[26.4652,59.34],[26.4664,59.339],[26.4727,59.3347]],[[26.4729,59.3212],[26.47,59.3204],[26.47,59.3199],[26.4699,59.3198],[26.4694,59.3192],[26.467,59.3182],[26.4638,59.3179],[26.4616,59.3173],[26.4606,59.3164],[26.4591,59.3165],[26.458,59.3153],[26.4567,59.3148],[26.4566,59.3146],[26.4568,59.3138],[26.4603,59.3132],[26.4603,59.3118],[26.4556,59.3108],[26.4551,59.3096],[26.4531,59.3087],[26.4525,59.3061],[26.4524,59.3061],[26.4524,59.306],[26.4525,59.3045],[26.4524,59.3036],[26.4537,59.3014],[26.4536,59.3014],[26.4505,59.2994],[26.4496,59.298],[26.4485,59.2971],[26.448,59.2964]],[[26.4253,59.3765],[26.425,59.3771]]]},"properties":{"name":"Sõmeru jõgi"}},
{"type":"Feature","geometry":{"type":"LineString","coordinates":[[25.4708,59.4344],[25.4709,59.4345],[25.4724,59.4363],[25.4725,59.4378],[25.4717,59.4396]]},"properties":{"name":"Loo jõgi"}},
{"type":"Feature","geometry":{"type":"MultiLineString","coordinates":[[[26.2704,59.0798],[26.2687,59.0792],[26.2684,59.0781],[26.269,59.0777],[26.2671,59.0765],[26.2678,59.0752],[26.2678,59.0741],[26.2632,59.0736],[26.2628,59.0727],[26.2597,59.0726],[26.257,59.0727],[26.2553,59.0724],[26.2552,59.0724],[26.2549,59.072],[26.2548,59.0719],[26.2545,59.0715],[26.2544,59.0708],[26.2544,59.0701],[26.2544,59.07],[26.255,59.0698],[26.2554,59.0691],[26.2557,59.0678],[26.2569,59.0672],[26.2567,59.0667],[26.2561,59.0656],[26.2544,59.0649],[26.2544,59.0639],[26.2577,59.063],[26.2616,59.0612],[26.2604,59.0598],[26.2595,59.0544],[26.2582,59.0538],[26.2563,59.0543],[26.2522,59.0542],[26.251,59.0535],[26.2518,59.0512],[26.2509,59.0499],[26.2505,59.048],[26.2521,59.0462],[26.2525,59.0441],[26.2514,59.0428],[26.2494,59.0425],[26.2472,59.0431],[26.2466,59.044],[26.2414,59.0462],[26.2393,59.045],[26.239,59.045],[26.2374,59.0455],[26.2353,59.0433],[26.234,59.0432],[26.2334,59.0423],[26.2312,59.0418]],[[26.2265,59.0424],[26.2255,59.0426],[26.2245,59.0412],[26.226,59.0404],[26.2273,59.0385],[26.2296,59.032],[26.2296,59.0271],[26.2289,59.0267],[26.2271,59.024],[26.2245,59.0222],[26.2219,59.0219],[26.2192,59.0194],[26.2166,59.0191],[26.216,59.0186],[26.2165,59.0175],[26.218,59.0169],[26.2181,59.0156],[26.2192,59.0154],[26.2192,59.0143],[26.2206,59.0138],[26.2211,59.013],[26.2236,59.0127],[26.2243,59.0118],[26.2234,59.011],[26.2237,59.0101],[26.2203,59.009],[26.2171,59.0083],[26.2134,59.0069],[26.211,59.0056],[26.2091,59.0038]],[[26.2627,59.0699],[26.2628,59.0698],[26.263,59.0695],[26.2616,59.0669],[26.2614,59.0669],[26.2567,59.0667]],[[26.2629,59.0725],[26.2629,59.0724],[26.2632,59.0712],[26.2627,59.0699]],[[26.255,59.0698],[26.2554,59.0691]],[[26.2628,59.0727],[26.2629,59.0725]],[[26.2545,59.0715],[26.2544,59.0708]]]},"properties":{"name":"Nõmme jõgi"}},
{"type":"Feature","geometry":{"type":"MultiLineString","coordinates":[[[25.8827,59.1685],[25.8826,59.1686],[25.88,59.1708],[25.88,59.1726],[25.8774,59.1771],[25.8773,59.1797],[25.8758,59.1802],[25.8703,59.1806],[25.8671,59.1801],[25.8637,59.1789],[25.8617,59.1787],[25.8596,59.1778],[25.8555,59.1773],[25.8486,59.1788],[25.8389,59.1814],[25.8368,59.1856],[25.8364,59.1872],[25.8354,59.1881],[25.8352,59.1891],[25.8358,59.1903],[25.836,59.1916],[25.8353,59.1929],[25.8353,59.193],[25.8341,59.1938],[25.8346,59.1959],[25.8341,59.1967],[25.8329,59.1974],[25.8327,59.1975],[25.8292,59.1988],[25.8284,59.2006],[25.8265,59.2026],[25.8246,59.2032],[25.8179,59.201],[25.8158,59.2005],[25.8134,59.1995],[25.811,59.1989],[25.8089,59.1989],[25.8064,59.1995],[25.8048,59.1995],[25.8014,59.201],[25.7954,59.1997],[25.7952,59.1996],[25.7945,59.1995],[25.7843,59.1996],[25.7838,59.1995],[25.7797,59.1952],[25.7781,59.1941],[25.7761,59.1932],[25.7734,59.1932],[25.7732,59.1932],[25.7717,59.1929],[25.7688,59.1907],[25.7675,59.1905],[25.7627,59.1904],[25.7601,59.1902],[25.7553,59.1902],[25.7547,59.1908],[25.7521,59.1907],[25.7504,59.1913],[25.7484,59.1909],[25.7483,59.1908],[25.7431,59.1898],[25.7426,59.1889],[25.7413,59.1883],[25.74,59.1882],[25.7372,59.1865],[25.7373,59.186],[25.7359,59.1854],[25.7346,59.1844],[25.7319,59.1839],[25.7306,59.1832],[25.7307,59.1823],[25.7298,59.1813],[25.7287,59.1807],[25.7268,59.1788],[25.7243,59.1782],[25.7208,59.1771],[25.7205,59.1772],[25.7191,59.1778],[25.7149,59.1777],[25.7128,59.1783],[25.7112,59.1781],[25.7068,59.1753],[25.7012,59.1742],[25.7007,59.1742],[25.699,59.175],[25.6978,59.177],[25.6945,59.178]],[[25.5635,59.12],[25.5646,59.1206],[25.5653,59.1222],[25.5637,59.1222],[25.5645,59.1236],[25.5654,59.1236],[25.5659,59.1247],[25.5703,59.1243],[25.5726,59.1246],[25.5856,59.13],[25.5911,59.1311],[25.5972,59.1336],[25.5995,59.134],[25.6015,59.1354],[25.6017,59.1355],[25.6025,59.1359],[25.6173,59.1367],[25.6226,59.1375],[25.6278,59.1389],[25.6347,59.1439],[25.6386,59.1449],[25.6423,59.1468],[25.6463,59.1477],[25.6499,59.1478],[25.6516,59.1483],[25.6534,59.1503],[25.6549,59.1509],[25.6568,59.1524],[25.6565,59.1533],[25.6554,59.1536],[25.6562,59.1554],[25.6562,59.1555],[25.657,59.1562],[25.6565,59.1571],[25.658,59.1577],[25.6585,59.1588],[25.6624,59.1633],[25.6653,59.1642],[25.6676,59.1659],[25.6737,59.1682],[25.6738,59.1693],[25.6746,59.17],[25.6774,59.1706],[25.6797,59.1729],[25.68,59.1748],[25.6814,59.1755],[25.6867,59.1762],[25.6907,59.1783],[25.6932,59.1783],[25.6943,59.1781]],[[25.5518,59.1221],[25.5532,59.1226],[25.5545,59.1236],[25.5548,59.1244],[25.5563,59.124],[25.5577,59.1244],[25.5605,59.1261],[25.562,59.1258],[25.5629,59.1257],[25.5643,59.125],[25.5659,59.1247]],[[25.5629,59.1257],[25.562,59.1258]],[[25.5563,59.124],[25.5545,59.1236]]]},"properties":{"name":"Ambla jõgi"}},
{"type":"Feature","geometry":{"type":"MultiLineString","coordinates":[[[25.8951,59.4439],[25.8946,59.4432],[25.8953,59.4425],[25.8946,59.442],[25.8946,59.4419],[25.8934,59.4414],[25.893,59.4411],[25.8884,59.4389],[25.8884,59.4377],[25.889,59.4356],[25.8883,59.4342],[25.8892,59.4329],[25.896,59.4297],[25.8973,59.4274],[25.9004,59.4268],[25.904,59.4224],[25.9069,59.4203],[25.9082,59.4199],[25.9106,59.4181],[25.9121,59.4176],[25.9159,59.4168],[25.9204,59.4165],[25.9259,59.4179],[25.9292,59.4179],[25.9325,59.4173],[25.9333,59.4164],[25.9335,59.4163],[25.9345,59.4158],[25.9373,59.4151]],[[25.893,59.4411],[25.8934,59.4414]]]},"properties":{"name":"Läsna jõgi"}},
{"type":"Feature","geometry":{"type":"LineString","coordinates":[[26.2612,59.0334],[26.2547,59.0347],[26.2512,59.0329],[26.2463,59.0297],[26.2451,59.0298],[26.2441,59.029],[26.244,59.0289],[26.2434,59.0278],[26.2465,59.0245],[26.25,59.0212],[26.2501,59.0211],[26.2509,59.0204],[26.2546,59.0194],[26.257,59.0193],[26.258,59.0183],[26.2582,59.0173],[26.2582,59.0172],[26.2589,59.0164],[26.265,59.0105],[26.2718,59.0066],[26.2719,59.0065],[26.2769,59.0037],[26.2771,59.0032],[26.2739,59.0013],[26.2754,58.9999],[26.2759,58.9988],[26.276,58.9986],[26.2766,58.9975]]},"properties":{"name":"Onga jõgi"}},
{"type":"Feature","geometry":{"type":"MultiLineString","coordinates":[[[25.4496,59.2669],[25.4489,59.2663],[25.4498,59.2657],[25.4506,59.2642],[25.4529,59.2641],[25.4537,59.2634],[25.4548,59.2636],[25.4574,59.2623],[25.4642,59.2614],[25.4646,59.2609],[25.4679,59.2604],[25.4682,59.2594],[25.4696,59.2586],[25.4699,59.2584],[25.4705,59.2562],[25.4703,59.2539],[25.472,59.2504],[25.473,59.25],[25.4762,59.2499],[25.4782,59.2501],[25.4786,59.2492],[25.4799,59.2491],[25.4812,59.2485],[25.4826,59.2489],[25.4851,59.2472],[25.4866,59.2469],[25.4861,59.2461],[25.4869,59.2457],[25.4883,59.246],[25.4913,59.2456],[25.4925,59.2445],[25.494,59.2441],[25.4967,59.2449],[25.5001,59.2439],[25.5014,59.2444],[25.5035,59.2436],[25.5035,59.2448],[25.505,59.2451],[25.5074,59.2448],[25.5078,59.2444],[25.508,59.2419],[25.5091,59.2406],[25.5106,59.2401],[25.5092,59.2388],[25.5098,59.2384],[25.5095,59.2369],[25.5109,59.2364],[25.5123,59.2347],[25.5104,59.2344],[25.5092,59.233],[25.511,59.2311],[25.5116,59.2295],[25.5127,59.2295],[25.5127,59.2286],[25.5142,59.2276],[25.5139,59.2272],[25.5142,59.227],[25.5153,59.2261],[25.5168,59.2259],[25.5169,59.2257],[25.5177,59.2248],[25.5168,59.224],[25.5195,59.2235],[25.5194,59.223],[25.5194,59.2229],[25.52,59.2226],[25.5225,59.2198],[25.5224,59.2187],[25.5216,59.2174],[25.5222,59.2165],[25.5245,59.2154],[25.5274,59.2146],[25.5281,59.2131],[25.529,59.2131],[25.5306,59.2115],[25.5324,59.2115],[25.5331,59.2103],[25.5331,59.2101],[25.5331,59.2095],[25.5352,59.2091],[25.537,59.2076],[25.5384,59.2076],[25.5399,59.2072],[25.5415,59.2073],[25.5434,59.2056],[25.5428,59.2045],[25.5434,59.2035],[25.547,59.2009],[25.5489,59.2005],[25.5517,59.2002],[25.5554,59.2004],[25.5585,59.1997],[25.5604,59.1979],[25.5606,59.1969],[25.5601,59.1961],[25.5634,59.1952],[25.5645,59.1958],[25.5697,59.1947],[25.5709,59.1939],[25.5733,59.193],[25.5735,59.1914],[25.5741,59.1897],[25.5757,59.1893],[25.5767,59.1885],[25.577,59.1861],[25.5778,59.1851],[25.5764,59.1817]],[[25.4699,59.2584],[25.4696,59.2586]],[[25.5194,59.2229],[25.5194,59.223]],[[25.5169,59.2257],[25.5168,59.2259]],[[25.5142,59.227],[25.5139,59.2272]]]},"properties":{"name":"Tarvasjõgi"}},
{"type":"Feature","geometry":{"type":"MultiLineString","coordinates":[[[26.1921,59.0218],[26.1917,59.0218],[26.1691,59.0219],[26.1689,59.0219],[26.1659,59.0273],[26.168,59.0281],[26.1679,59.0281],[26.168,59.0308],[26.1667,59.032],[26.1656,59.0321],[26.1657,59.0322],[26.165,59.0325],[26.1656,59.0321]],[[26.1918,59.0244],[26.1905,59.0245],[26.1869,59.0254],[26.1847,59.0241],[26.1818,59.0242],[26.18,59.0237],[26.1775,59.0235],[26.1765,59.0234],[26.1747,59.0232],[26.1734,59.024],[26.1724,59.0243],[26.1701,59.0258],[26.1702,59.0267],[26.1693,59.0277],[26.1692,59.028],[26.1687,59.0282],[26.1687,59.0283],[26.1682,59.0291],[26.1684,59.0309],[26.1667,59.0323],[26.1657,59.0322]],[[26.1329,59.0979],[26.1325,59.0972],[26.1299,59.0965],[26.127,59.0966],[26.1268,59.0973],[26.1251,59.0969],[26.122,59.0978],[26.12,59.0978],[26.1188,59.0971],[26.1172,59.0975],[26.1166,59.0966],[26.1166,59.0959],[26.1169,59.0948],[26.1155,59.094],[26.1152,59.0934],[26.1141,59.0925],[26.1154,59.0915],[26.1147,59.0902],[26.1144,59.0894],[26.1132,59.0889],[26.114,59.088],[26.115,59.0873],[26.1157,59.0867],[26.1163,59.0862],[26.1175,59.0822],[26.1186,59.0815],[26.1184,59.0804],[26.1193,59.0795],[26.1188,59.0782],[26.1195,59.0772],[26.1207,59.0765],[26.1203,59.0739],[26.1219,59.073],[26.122,59.0729],[26.1249,59.0722],[26.1258,59.0717],[26.1254,59.0706],[26.1262,59.0694],[26.1258,59.0682],[26.1266,59.068],[26.1279,59.0661],[26.1301,59.0645],[26.1313,59.0642],[26.1326,59.0633],[26.1324,59.0619],[26.1305,59.0617],[26.1306,59.0609],[26.132,59.0606],[26.1332,59.0596],[26.1339,59.0581],[26.1336,59.0571],[26.1367,59.0558],[26.1366,59.0548],[26.1384,59.0537],[26.1382,59.053],[26.1394,59.0521],[26.1406,59.0519],[26.1426,59.0523],[26.1459,59.0515],[26.1455,59.0495],[26.1495,59.0492],[26.1504,59.0486],[26.1502,59.0479],[26.1535,59.0474],[26.1543,59.047],[26.1545,59.0457],[26.1543,59.0452],[26.1555,59.0441],[26.1561,59.042],[26.1554,59.0408],[26.1569,59.04],[26.1583,59.0379],[26.1597,59.0374],[26.1595,59.0369],[26.1612,59.0358],[26.1603,59.0349],[26.1621,59.0346],[26.1628,59.0338],[26.164,59.0337],[26.165,59.0325]],[[26.1166,59.0966],[26.1166,59.0959]],[[26.1734,59.024],[26.1737,59.024],[26.1724,59.0243]],[[26.1262,59.0694],[26.1253,59.0687],[26.1258,59.0682]],[[26.1692,59.028],[26.1693,59.0277]],[[26.1737,59.024],[26.1747,59.0232]],[[26.1765,59.0234],[26.1775,59.0235]],[[26.1147,59.0902],[26.1131,59.0901],[26.1124,59.0894],[26.1132,59.0889]],[[26.114,59.088],[26.115,59.0873]],[[26.1155,59.094],[26.1152,59.0934]]]},"properties":{"name":"Ilmandu jõgi"}},
{"type":"Feature","geometry":{"type":"LineString","coordinates":[[26.3012,59.0755],[26.3037,59.0734],[26.3038,59.0733],[26.3104,59.0677],[26.3117,59.0664],[26.3067,59.0622],[26.3066,59.0622],[26.298,59.0586],[26.2926,59.0582],[26.2925,59.0582],[26.2906,59.058],[26.2886,59.0572],[26.2884,59.0572],[26.2837,59.0567],[26.2828,59.0561],[26.2804,59.0559],[26.2787,59.0554],[26.2784,59.0546],[26.2757,59.0538],[26.2749,59.0533],[26.2744,59.0519],[26.2685,59.0513],[26.2671,59.0514],[26.2643,59.0526],[26.2613,59.0533],[26.2599,59.0532],[26.2582,59.0538]]},"properties":{"name":"Kärsa jõgi"}}
]}