{"type":"FeatureCollection", "features": [
{"type":"Feature","geometry":{"type":"MultiLineString","coordinates":[[[26.3769,59.3421],[26.3772,59.342],[26.3782,59.3416],[26.379,59.3413],[26.3797,59.341],[26.3811,59.3404],[26.3812,59.3404],[26.3819,59.34],[26.3821,59.3399],[26.3827,59.3397],[26.3831,59.3395],[26.3834,59.3394],[26.3837,59.3392],[26.3841,59.339],[26.3851,59.3386],[26.3858,59.3383],[26.3863,59.3381],[26.3868,59.3378],[26.3879,59.3375],[26.3885,59.3373],[26.3905,59.3366],[26.391,59.3364],[26.3914,59.3363],[26.3918,59.3362],[26.3929,59.3358],[26.3942,59.3354],[26.3954,59.335],[26.3959,59.3349],[26.3965,59.3347],[26.3979,59.3342],[26.3994,59.3337],[26.3999,59.3335],[26.4014,59.3331],[26.4029,59.3326],[26.4032,59.3325],[26.4037,59.3324],[26.404,59.3324]],[[26.3615,59.3477],[26.3614,59.3478],[26.3608,59.3483],[26.3602,59.3488],[26.3599,59.3491],[26.3592,59.3496],[26.3592,59.3497],[26.3579,59.3507],[26.3572,59.3512],[26.3571,59.3514],[26.3569,59.3513],[26.3563,59.3511],[26.356,59.3509],[26.3558,59.3509]],[[26.3766,59.3422],[26.3725,59.3438],[26.3723,59.3438],[26.3717,59.3441],[26.3715,59.3442],[26.3709,59.3444],[26.3705,59.3446],[26.3704,59.3447],[26.3703,59.3447],[26.3697,59.345],[26.3688,59.3453],[26.3686,59.3455],[26.3682,59.3456],[26.3681,59.3456]],[[26.4044,59.3322],[26.4049,59.332],[26.4042,59.3321]],[[26.4038,59.3323],[26.4037,59.3323],[26.4032,59.3325]],[[26.3625,59.3493],[26.3625,59.3492],[26.3629,59.3489],[26.3631,59.3488],[26.3635,59.3483],[26.3639,59.348],[26.3644,59.3476],[26.3645,59.3475],[26.3646,59.3474],[26.3647,59.3473],[26.3651,59.3471],[26.3654,59.3468],[26.3655,59.3467],[26.3656,59.3467],[26.3657,59.3466],[26.366,59.3463],[26.3655,59.3465],[26.3654,59.3466],[26.3654,59.3467],[26.3653,59.3468],[26.365,59.347],[26.3647,59.3472],[26.3647,59.3473]],[[26.3679,59.3457],[26.3678,59.3457],[26.3676,59.3458],[26.3673,59.3459],[26.3669,59.346],[26.3663,59.3462],[26.366,59.3463]],[[26.473,59.3178],[26.4705,59.3176],[26.4672,59.317],[26.4633,59.316],[26.4613,59.3155],[26.4561,59.3146],[26.4518,59.3145],[26.4492,59.3147],[26.4488,59.3147],[26.445,59.3155],[26.4404,59.3174],[26.4368,59.3197],[26.433,59.3219],[26.4328,59.322],[26.4326,59.3221],[26.4307,59.323],[26.4282,59.3242],[26.4248,59.3254],[26.4175,59.3278],[26.4172,59.3279],[26.4137,59.329],[26.4115,59.3298],[26.407,59.3313],[26.4062,59.3315],[26.4057,59.3317],[26.4049,59.332]]]},"properties":{"ref":"88"}},
{"type":"Feature","geometry":{"type":"MultiLineString","coordinates":[[[26.3586,59.3383],[26.3586,59.3384],[26.3587,59.3384],[26.3588,59.3387],[26.3588,59.3388],[26.3591,59.3393],[26.3591,59.3394],[26.3592,59.3395],[26.3593,59.3396],[26.3595,59.3399],[26.3596,59.3402],[26.3597,59.3404],[26.3595,59.3412],[26.3595,59.3413],[26.3595,59.3414],[26.3597,59.3418]],[[26.3595,59.347],[26.3595,59.3469],[26.3595,59.3462],[26.3595,59.3456],[26.3595,59.3452],[26.3596,59.3447],[26.3596,59.3446],[26.3596,59.344],[26.3596,59.3436],[26.3596,59.3431],[26.3597,59.3426],[26.3597,59.3419]],[[26.3592,59.347],[26.3592,59.3469],[26.3592,59.3456],[26.3592,59.3452],[26.3592,59.3451],[26.3592,59.3447],[26.3593,59.3435],[26.3593,59.3431],[26.3593,59.3421],[26.3595,59.3419]],[[26.3709,59.3208],[26.3703,59.3211],[26.3705,59.3207]],[[26.3707,59.3204],[26.3714,59.3201],[26.3712,59.3205]],[[26.3595,59.3382],[26.3594,59.338],[26.3597,59.3376],[26.3603,59.3364],[26.361,59.3347],[26.3616,59.3338],[26.3623,59.3329],[26.3632,59.3315],[26.3634,59.3305],[26.3635,59.3299],[26.3637,59.3286],[26.3638,59.3283],[26.3638,59.3282],[26.3638,59.328],[26.3639,59.3277],[26.364,59.327],[26.364,59.3269],[26.3641,59.3264],[26.3645,59.3259],[26.365,59.3255],[26.3654,59.3251],[26.3655,59.3251],[26.3661,59.3246],[26.3662,59.3246],[26.3681,59.3232],[26.3682,59.3231],[26.3684,59.3229],[26.3687,59.3226],[26.3691,59.3223],[26.3693,59.322],[26.3697,59.3217],[26.37,59.3214],[26.3703,59.3211]],[[26.3595,59.3418],[26.3595,59.3414]],[[26.3855,59.3123],[26.3905,59.3102],[26.3948,59.3087],[26.3954,59.3085],[26.3999,59.3067],[26.404,59.3047],[26.4054,59.3036],[26.4061,59.3019],[26.4063,59.3011],[26.4064,59.3009],[26.4065,59.3007],[26.4065,59.3006],[26.4066,59.3004],[26.4085,59.2944],[26.4088,59.2928],[26.4089,59.2918],[26.409,59.2893],[26.4091,59.2888],[26.4092,59.2879],[26.4092,59.287],[26.4093,59.2867],[26.4095,59.2859],[26.4095,59.2857],[26.4101,59.2851],[26.4109,59.2846],[26.4112,59.2844],[26.4125,59.2839],[26.4126,59.2839],[26.4137,59.2835],[26.4138,59.2835],[26.4147,59.2832],[26.4152,59.283],[26.4158,59.2829],[26.4159,59.2828],[26.4166,59.2826],[26.4176,59.2824],[26.4181,59.2823],[26.4196,59.2819],[26.4225,59.2812],[26.4227,59.2811],[26.4263,59.28],[26.4283,59.2792],[26.4296,59.2784],[26.4326,59.2765],[26.4345,59.2747],[26.4355,59.2737],[26.437,59.272],[26.4383,59.2706],[26.4395,59.2693],[26.4414,59.2677],[26.4424,59.2671],[26.4494,59.2639],[26.4504,59.2633],[26.4534,59.2619],[26.4546,59.261],[26.4547,59.2609],[26.4574,59.2584],[26.4592,59.2574],[26.4598,59.257],[26.4615,59.2559],[26.463,59.2552],[26.4645,59.2546],[26.4651,59.2544],[26.4652,59.2544],[26.4659,59.2542],[26.4653,59.2544],[26.4652,59.2544],[26.4651,59.2545],[26.4645,59.2546]],[[26.474,59.2492],[26.4695,59.2522],[26.4691,59.2525],[26.4687,59.2527],[26.4681,59.2531],[26.4674,59.2535],[26.4673,59.2536],[26.4666,59.2539],[26.4659,59.2542]],[[26.3742,59.3179],[26.3801,59.316],[26.3822,59.315],[26.3855,59.3123]],[[26.3716,59.3199],[26.3724,59.3192],[26.3728,59.3189],[26.3728,59.3188],[26.3742,59.3179]],[[26.3714,59.3201],[26.3716,59.3199]]]},"properties":{"ref":"21"}},
{"type":"Feature","geometry":{"type":"MultiLineString","coordinates":[[[26.35,59.3483],[26.3498,59.3486],[26.3497,59.3489],[26.3497,59.3491],[26.35,59.3496],[26.3499,59.3496],[26.3502,59.3497]],[[26.3681,59.3456],[26.3679,59.3457]],[[25.9428,59.2574],[25.9426,59.2579],[25.9426,59.258],[25.9427,59.2589],[25.9429,59.2591],[25.9456,59.2601],[25.9486,59.2612],[25.951,59.262],[25.9514,59.2622],[25.9521,59.2624],[25.9534,59.2628],[25.9549,59.2634],[25.9567,59.264],[25.9568,59.2641],[25.9585,59.2646],[25.9586,59.2647],[25.9597,59.265],[25.9598,59.265],[25.9604,59.2651],[25.961,59.2649],[25.9611,59.2649],[25.9616,59.2649],[25.9617,59.2649],[25.9618,59.2648],[25.962,59.2647],[25.9624,59.2644],[25.962,59.2646],[25.9617,59.2647],[25.9616,59.2647],[25.9615,59.2647],[25.9616,59.2649]],[[26.3615,59.3477],[26.3613,59.3476],[26.3609,59.3475],[26.3603,59.3474],[26.3598,59.3472],[26.3595,59.347],[26.3593,59.3471],[26.3592,59.3471],[26.3591,59.347],[26.3592,59.347],[26.3595,59.347]],[[25.9425,59.2574],[25.9426,59.2579]],[[25.9635,59.2634],[25.9633,59.2635],[25.9628,59.2641],[25.9627,59.2641],[25.9624,59.2644]],[[26.3349,59.3589],[26.335,59.3581],[26.3349,59.3578]],[[26.3571,59.3514],[26.3572,59.3514],[26.3582,59.3517],[26.3583,59.3518],[26.3587,59.3519],[26.3592,59.3521],[26.3592,59.352],[26.3594,59.3518],[26.3596,59.3517],[26.3601,59.3513],[26.3613,59.3503],[26.3625,59.3493]],[[26.3227,59.3801],[26.3228,59.3799]],[[26.3598,59.3472],[26.3596,59.3472],[26.3593,59.3471]],[[25.9611,59.2649],[25.9613,59.2648],[25.9615,59.2647]],[[26.3359,59.3632],[26.3361,59.3631],[26.3363,59.3633],[26.336,59.3633],[26.3359,59.3632]],[[26.2698,59.4225],[26.2699,59.4227],[26.2694,59.4228],[26.2693,59.4227],[26.2693,59.4224],[26.2694,59.4224],[26.2697,59.4224],[26.2698,59.4225]],[[26.2696,59.4252],[26.2699,59.4251],[26.27,59.4252],[26.27,59.4254],[26.2697,59.4254],[26.2696,59.4254],[26.2695,59.4252],[26.2696,59.4252]],[[26.3766,59.3422],[26.3767,59.3421],[26.3769,59.3421],[26.3769,59.3422],[26.3766,59.3422]],[[26.3595,59.3418],[26.3597,59.3418],[26.3597,59.3419],[26.3595,59.3419],[26.3595,59.3418]],[[25.9617,59.2647],[25.9618,59.2648]]]},"properties":{"ref":""}},
{"type":"Feature","geometry":{"type":"MultiLineString","coordinates":[[[25.952,59.4443],[25.9531,59.4434],[25.9534,59.4432],[25.956,59.4411],[25.9581,59.4395],[25.9611,59.4372],[25.964,59.4354],[25.9758,59.4292],[25.9768,59.4287],[25.9789,59.4276],[25.9831,59.4264],[25.9833,59.4263],[25.9862,59.4252],[25.9881,59.4243],[25.9896,59.4232],[25.9916,59.4201],[25.995,59.4169],[25.9957,59.4164],[25.9989,59.414],[26.0001,59.4127],[26.0013,59.4104],[26.0031,59.4067],[26.0045,59.405],[26.0068,59.4032],[26.0111,59.4011],[26.0128,59.3994],[26.0134,59.3956],[26.0134,59.3953],[26.0135,59.3949],[26.0135,59.3948],[26.0135,59.3946],[26.0136,59.3939],[26.0136,59.3938],[26.0139,59.3931],[26.0161,59.3898],[26.0167,59.3881],[26.0167,59.3867],[26.0161,59.385],[26.0145,59.383],[26.013,59.3818],[26.0091,59.3795],[26.0053,59.3775],[26.0035,59.3762],[26.0024,59.3748],[26.0018,59.3718],[26.0008,59.3637],[26.0001,59.3592],[25.9999,59.3567],[26.0007,59.3551],[26.0023,59.3525],[26.0036,59.3505],[26.0044,59.3492],[26.0056,59.3471],[26.0054,59.3454],[26.0054,59.3453],[26.0046,59.3444],[26.0007,59.341],[25.9997,59.3391],[25.9999,59.3349],[26.0003,59.3301],[26.0013,59.3274],[26.0022,59.3259],[26.0028,59.325],[26.0037,59.3234],[26.0041,59.3206],[26.0044,59.3176],[26.0043,59.3166],[26.0034,59.3146],[26.0029,59.3136],[26.0009,59.3094],[26.0002,59.3057],[25.9997,59.303],[25.9982,59.2938],[25.9981,59.293],[25.9981,59.2929],[25.998,59.2927],[25.9973,59.2882],[25.9969,59.2866],[25.9956,59.2843],[25.9941,59.2814],[25.9926,59.2792],[25.9907,59.2776],[25.989,59.2766],[25.9855,59.2753],[25.9825,59.2746],[25.9731,59.2731],[25.9712,59.2727],[25.969,59.2721],[25.9688,59.272],[25.968,59.2717],[25.9677,59.2716],[25.9658,59.2708],[25.9657,59.2708],[25.9628,59.2696],[25.9637,59.269],[25.9644,59.2685],[25.9646,59.2684],[25.9649,59.2676],[25.9651,59.2669],[25.9653,59.2663],[25.9656,59.2655],[25.9648,59.2655],[25.9647,59.2654],[25.9642,59.265],[25.9642,59.2649],[25.9641,59.2648],[25.9639,59.2644],[25.9639,59.2643],[25.9639,59.2642],[25.9636,59.2636],[25.9635,59.2635],[25.9635,59.2634],[25.9633,59.263],[25.9631,59.2626],[25.9629,59.2621],[25.9629,59.262],[25.963,59.2619],[25.9632,59.2617],[25.9634,59.2615],[25.9637,59.2613],[25.9641,59.261],[25.9648,59.2605],[25.9668,59.2592],[25.967,59.2591],[25.9671,59.259],[25.9678,59.2586],[25.969,59.2577],[25.9712,59.2563],[25.9719,59.2558],[25.9717,59.2555]],[[25.972,59.2555],[25.9719,59.2558]]]},"properties":{"ref":"24"}},
{"type":"Feature","geometry":{"type":"MultiLineString","coordinates":[[[26.35,59.3263],[26.3499,59.3268],[26.3496,59.3264]],[[26.3495,59.3258],[26.3494,59.3257],[26.349,59.3253],[26.3491,59.3258],[26.3491,59.326]],[[26.2585,58.9974],[26.2567,59.0003],[26.2562,59.0017],[26.2567,59.004],[26.2566,59.0054],[26.256,59.0066],[26.2512,59.0125],[26.2508,59.0133],[26.2506,59.0137],[26.2497,59.0177],[26.2478,59.0207],[26.2472,59.0213],[26.2437,59.0248],[26.2405,59.0273],[26.2391,59.0285],[26.2383,59.0294],[26.2379,59.0313],[26.2379,59.0335],[26.2383,59.0351],[26.24,59.0386],[26.24,59.0392],[26.2389,59.0463],[26.2385,59.0483],[26.2378,59.0493],[26.2348,59.0529],[26.2344,59.054],[26.2346,59.0564],[26.2347,59.0572],[26.2356,59.06],[26.2365,59.0617],[26.2368,59.0623],[26.237,59.0626],[26.2386,59.0655],[26.2386,59.0666],[26.2379,59.0688],[26.2378,59.07],[26.2388,59.0724],[26.2389,59.0726],[26.2395,59.0736],[26.2399,59.0757],[26.2398,59.0797],[26.2393,59.0818],[26.2383,59.0846],[26.2377,59.0862],[26.2367,59.0874],[26.2352,59.0888],[26.2331,59.0902],[26.2304,59.0923],[26.2298,59.0934],[26.2276,59.0987],[26.2275,59.0991],[26.2274,59.0996],[26.2276,59.1003],[26.2277,59.1005],[26.2277,59.1006],[26.2283,59.1012],[26.2285,59.1014],[26.2292,59.1021],[26.2297,59.1026],[26.2299,59.103],[26.2313,59.1046],[26.2331,59.107],[26.2343,59.1082],[26.2361,59.1097],[26.2362,59.1099],[26.2372,59.1107],[26.2381,59.1115],[26.2389,59.1122],[26.2394,59.1125],[26.2408,59.1132],[26.2417,59.1135],[26.242,59.1137],[26.2427,59.1139],[26.2451,59.115],[26.2457,59.1155],[26.2467,59.1169],[26.2471,59.1185],[26.2474,59.1199],[26.2476,59.1205],[26.2477,59.1211],[26.2478,59.1215],[26.2479,59.122],[26.2481,59.1228],[26.2484,59.124],[26.2487,59.1249],[26.2487,59.125],[26.2488,59.1254],[26.2493,59.1261],[26.2495,59.1263],[26.2498,59.1265],[26.2499,59.1265],[26.2505,59.1268],[26.2507,59.1269],[26.2512,59.1272],[26.2518,59.1277],[26.252,59.1284],[26.2521,59.1291],[26.2522,59.1292],[26.2522,59.1295],[26.2525,59.1299],[26.2527,59.1301],[26.2531,59.1305],[26.2532,59.1306],[26.2533,59.1307],[26.2534,59.1308],[26.254,59.1315],[26.2547,59.1322],[26.2549,59.1324],[26.255,59.1325],[26.2551,59.1326],[26.2565,59.1338],[26.2574,59.1346],[26.2586,59.1359],[26.2593,59.1369],[26.2596,59.1375],[26.2606,59.1401],[26.2628,59.1456],[26.2632,59.1467],[26.2636,59.1485],[26.2636,59.1507],[26.2636,59.1512],[26.2636,59.1522],[26.2637,59.155],[26.2639,59.1589],[26.2639,59.159],[26.265,59.1608],[26.2663,59.1629],[26.267,59.1661],[26.2674,59.1681],[26.268,59.1708],[26.268,59.1724],[26.2666,59.1805],[26.2654,59.1878],[26.2653,59.1902],[26.2658,59.193],[26.2673,59.1983],[26.2699,59.2081],[26.27,59.2084],[26.2702,59.2093],[26.2703,59.2096],[26.2703,59.2098],[26.2703,59.2099],[26.2704,59.2105],[26.2703,59.2112],[26.2698,59.2154],[26.2691,59.2179],[26.2675,59.2214],[26.2666,59.2226],[26.2661,59.2233],[26.2658,59.2237],[26.2646,59.2252],[26.2639,59.2261],[26.2637,59.2264],[26.2634,59.2268],[26.2623,59.2281],[26.2617,59.229],[26.2614,59.2305],[26.2615,59.2308],[26.2622,59.232],[26.2631,59.2337],[26.2648,59.2363],[26.2685,59.2404],[26.2716,59.2436],[26.2722,59.2442],[26.2772,59.2477],[26.2787,59.249],[26.279,59.2494],[26.2796,59.2501],[26.2799,59.2504],[26.2801,59.2507],[26.2805,59.2513],[26.2817,59.2536],[26.2827,59.2565],[26.2838,59.2598],[26.284,59.2605],[26.2842,59.2613],[26.2844,59.2631],[26.2845,59.2688],[26.2845,59.2692],[26.2845,59.27],[26.2845,59.2702],[26.2845,59.2706],[26.2845,59.271],[26.2845,59.2712],[26.2846,59.2715],[26.2847,59.2725],[26.2866,59.2755],[26.2872,59.2761],[26.2897,59.2784],[26.2909,59.2791],[26.2931,59.2804],[26.294,59.2809],[26.295,59.2814],[26.2992,59.284],[26.3015,59.2855],[26.3068,59.2891],[26.307,59.2893],[26.3073,59.2897],[26.3109,59.294],[26.3112,59.2944],[26.3118,59.2952],[26.3123,59.2958],[26.3127,59.2963],[26.3185,59.3033],[26.325,59.311],[26.3253,59.3113],[26.3259,59.3121],[26.3264,59.3127],[26.3285,59.3152],[26.3301,59.3166],[26.3311,59.3171],[26.3349,59.3184],[26.3371,59.3191],[26.34,59.3201],[26.3446,59.3221],[26.3453,59.3224],[26.3454,59.3225],[26.3464,59.3229],[26.3468,59.3231],[26.3469,59.3232],[26.3471,59.3234],[26.3475,59.3237],[26.3477,59.3239],[26.3477,59.324],[26.3476,59.3239],[26.3474,59.3237],[26.3471,59.3234]],[[26.3558,59.3509],[26.3555,59.3508],[26.3539,59.3505],[26.3537,59.3505],[26.3535,59.3504],[26.3532,59.3504],[26.3531,59.3504],[26.3528,59.3503],[26.352,59.35],[26.3515,59.3499],[26.3502,59.3497],[26.3502,59.3496],[26.3499,59.3486],[26.35,59.3483],[26.3502,59.3481],[26.3502,59.348],[26.3505,59.3476],[26.3505,59.3472],[26.3506,59.3471],[26.3506,59.347],[26.3504,59.3464],[26.35,59.3459],[26.3496,59.3455],[26.3495,59.3454],[26.3492,59.3451],[26.3489,59.3447],[26.3488,59.3443],[26.3488,59.3442],[26.3487,59.344],[26.3487,59.3437],[26.3486,59.3428],[26.3486,59.3426],[26.3486,59.3425],[26.3486,59.3423],[26.3486,59.3421],[26.3486,59.3419],[26.3489,59.3407],[26.349,59.3402],[26.349,59.3399],[26.3489,59.3393],[26.3489,59.339],[26.3488,59.3384],[26.3488,59.3378],[26.3488,59.3375],[26.3488,59.3368],[26.3484,59.3363],[26.3481,59.3357],[26.3478,59.335],[26.3478,59.334],[26.3478,59.3335],[26.3478,59.3328],[26.348,59.3324],[26.3486,59.332],[26.349,59.3318],[26.3493,59.3317],[26.3495,59.3316],[26.3497,59.3307],[26.3497,59.3298],[26.35,59.3271],[26.3499,59.3268]],[[26.349,59.3253],[26.3484,59.3247],[26.3481,59.3244],[26.3479,59.3242],[26.3477,59.324]]]},"properties":{"ref":"22"}},
{"type":"Feature","geometry":{"type":"LineString","coordinates":[[26.3409,59.4166],[26.3402,59.4165],[26.3401,59.4164],[26.3396,59.4161],[26.34,59.4164],[26.3401,59.4164],[26.3409,59.4166],[26.342,59.4168],[26.344,59.4175],[26.3459,59.4182],[26.3463,59.4183],[26.3475,59.4188],[26.3479,59.4189],[26.3492,59.4194],[26.3519,59.4203],[26.3539,59.4211],[26.3561,59.4225],[26.3592,59.4248],[26.3602,59.4256],[26.363,59.4278],[26.3665,59.4306],[26.3672,59.4312],[26.3682,59.432],[26.3683,59.4321],[26.3686,59.4323],[26.3696,59.433],[26.3708,59.4337],[26.3713,59.4339],[26.3714,59.434],[26.374,59.435],[26.3802,59.4369],[26.3807,59.437],[26.3855,59.4386],[26.3873,59.4392],[26.3884,59.4395],[26.4007,59.4441],[26.4019,59.4445],[26.4091,59.4472]]},"properties":{"ref":"20"}},
{"type":"Feature","geometry":{"type":"LineString","coordinates":[[25.7613,59.1807],[25.7617,59.1812],[25.7623,59.182],[25.7628,59.1827],[25.7632,59.1832],[25.7642,59.1861],[25.7643,59.1876],[25.7643,59.1883],[25.7643,59.1889],[25.7643,59.189],[25.7641,59.1902],[25.764,59.1903],[25.7638,59.1907],[25.7634,59.1912],[25.7633,59.1913],[25.7632,59.1915],[25.7615,59.1939],[25.76,59.1955],[25.7595,59.1966],[25.7589,59.1988],[25.758,59.2001],[25.7578,59.2004],[25.7553,59.2028],[25.7529,59.2042],[25.752,59.2053],[25.751,59.2063],[25.7494,59.2074],[25.7462,59.2088],[25.7434,59.2098],[25.742,59.2104],[25.7358,59.2128],[25.7327,59.2141],[25.7297,59.2156],[25.7293,59.2158],[25.7274,59.2173],[25.7262,59.2182],[25.7232,59.2191],[25.7218,59.2199],[25.7208,59.2211],[25.7205,59.2221],[25.7206,59.2235],[25.7202,59.2247],[25.7191,59.2256],[25.7184,59.226],[25.7156,59.2274],[25.7148,59.2281],[25.7139,59.2293],[25.7136,59.2297],[25.7133,59.23],[25.7132,59.2301],[25.7123,59.2309],[25.7112,59.2315],[25.7098,59.2322],[25.7072,59.2334],[25.7052,59.2349],[25.7034,59.2366],[25.701,59.2385],[25.6989,59.2398],[25.6976,59.2406],[25.6957,59.2424],[25.6949,59.243],[25.6937,59.2437],[25.6933,59.2438],[25.6919,59.2444],[25.6908,59.2449],[25.6894,59.2454],[25.689,59.2455],[25.6876,59.2461],[25.6873,59.2462],[25.6865,59.2465],[25.6836,59.2476],[25.6834,59.2476],[25.6818,59.2485],[25.6799,59.25],[25.6771,59.2513],[25.6736,59.2525],[25.6723,59.2535],[25.6708,59.2545],[25.6692,59.2554],[25.6683,59.2559],[25.6646,59.2576],[25.6621,59.2595],[25.6597,59.2607],[25.6586,59.2612],[25.6559,59.2626],[25.6554,59.2634],[25.6554,59.2642],[25.6559,59.265],[25.6566,59.2658],[25.6566,59.2659],[25.657,59.2668],[25.6557,59.2676],[25.6516,59.2697],[25.6514,59.2699],[25.6497,59.2715],[25.6483,59.2721],[25.647,59.2721],[25.6446,59.2717],[25.6443,59.2717],[25.6434,59.2715],[25.6411,59.271],[25.6404,59.2709],[25.6401,59.2708],[25.6394,59.2707],[25.6385,59.2707],[25.6361,59.2713],[25.6319,59.2736],[25.6312,59.2739],[25.6307,59.274],[25.63,59.2743],[25.6297,59.2744],[25.6286,59.2749],[25.6278,59.2752],[25.6263,59.2755],[25.6248,59.2758],[25.6238,59.2761],[25.6233,59.2763],[25.6228,59.2764],[25.6212,59.277],[25.6192,59.2781],[25.619,59.2782],[25.6174,59.2792],[25.6163,59.28],[25.6157,59.2806],[25.6153,59.2809],[25.6152,59.2811],[25.6146,59.2815],[25.6134,59.2826],[25.6134,59.2831],[25.6133,59.2835],[25.6132,59.2837],[25.6128,59.2843],[25.6123,59.2848],[25.611,59.2855],[25.6108,59.2856],[25.6106,59.2856],[25.6105,59.2856],[25.6101,59.2858],[25.6098,59.2859],[25.609,59.2861],[25.6067,59.2871],[25.6073,59.2877],[25.6073,59.2878],[25.6071,59.2882],[25.6069,59.2884],[25.6065,59.2888],[25.6064,59.2889],[25.606,59.2894],[25.6063,59.2902],[25.607,59.2912],[25.6071,59.2915],[25.6071,59.2916],[25.6076,59.2935],[25.6085,59.2952],[25.6092,59.2959],[25.6095,59.2961],[25.6105,59.2967],[25.6113,59.2972],[25.6146,59.2982],[25.6161,59.2986],[25.6171,59.2988],[25.6172,59.2988],[25.6182,59.2989],[25.6188,59.299],[25.6203,59.2992],[25.6207,59.2992],[25.6227,59.2995],[25.6236,59.2996],[25.6246,59.2997],[25.6254,59.2997],[25.6263,59.2998],[25.6276,59.2998],[25.6326,59.2998],[25.6352,59.3004],[25.6379,59.3015],[25.6409,59.3027],[25.6429,59.3038],[25.6447,59.3056],[25.6478,59.3072],[25.6488,59.308],[25.6495,59.3095],[25.6506,59.3157],[25.6508,59.3177],[25.6507,59.3206],[25.65,59.3244],[25.6497,59.3255],[25.6486,59.3288],[25.6479,59.3302],[25.6478,59.3303],[25.6467,59.3324],[25.6449,59.3348],[25.6428,59.337],[25.6416,59.3382],[25.6402,59.3392],[25.6369,59.3414],[25.6344,59.3428],[25.6318,59.344],[25.6285,59.3453],[25.6233,59.3469],[25.6188,59.3482],[25.6128,59.3497],[25.607,59.351],[25.6061,59.3512],[25.6058,59.3513],[25.6056,59.3513],[25.6054,59.3514],[25.6043,59.3516],[25.5979,59.3529],[25.5965,59.3532],[25.5855,59.3552],[25.5844,59.3554],[25.584,59.3555],[25.5835,59.3556],[25.5823,59.3559],[25.5786,59.357],[25.5748,59.3586],[25.5704,59.3609],[25.5699,59.3613],[25.566,59.3638],[25.564,59.3648],[25.559,59.3665],[25.5553,59.3673],[25.5451,59.3686],[25.5404,59.3694],[25.5346,59.3708],[25.5323,59.3715],[25.5313,59.3718],[25.531,59.3718],[25.5307,59.3719],[25.5305,59.372],[25.5294,59.3723],[25.5272,59.3728],[25.526,59.3731],[25.5216,59.3741],[25.5089,59.3769],[25.5063,59.3775],[25.501,59.3787],[25.4966,59.3796],[25.4961,59.3797],[25.4957,59.3798],[25.4951,59.3799],[25.494,59.3801],[25.4884,59.3808],[25.4869,59.381],[25.4831,59.3811],[25.4778,59.381],[25.4705,59.3803],[25.4679,59.38],[25.4646,59.3797],[25.4573,59.3789],[25.4511,59.3783],[25.4501,59.3783],[25.4497,59.3782],[25.4494,59.3782],[25.4481,59.3782],[25.4445,59.378],[25.4292,59.3778],[25.4247,59.3777],[25.4234,59.3777],[25.4221,59.3777],[25.4214,59.3777],[25.4156,59.3781],[25.412,59.3787],[25.4117,59.3788],[25.4065,59.3803],[25.4017,59.3824],[25.4012,59.3827],[25.3984,59.384],[25.3942,59.3854],[25.3919,59.3859],[25.3918,59.3859],[25.3865,59.3867],[25.3812,59.3869],[25.3797,59.3869],[25.374,59.3868],[25.3732,59.3868],[25.3685,59.3867],[25.3671,59.3867],[25.3667,59.3867],[25.3664,59.3867],[25.3654,59.3867],[25.3648,59.3867],[25.3641,59.3867],[25.3571,59.3869],[25.3524,59.3872],[25.3519,59.3872],[25.351,59.3873],[25.3467,59.3876],[25.343,59.3879],[25.34,59.3879],[25.3373,59.3878],[25.3359,59.3877],[25.3354,59.3876],[25.3345,59.3875],[25.3339,59.3874],[25.3327,59.3872],[25.3318,59.387],[25.3312,59.3869],[25.3311,59.3869],[25.3268,59.3868],[25.3237,59.3875],[25.3146,59.3903],[25.3126,59.3909],[25.3088,59.3921],[25.3024,59.3941],[25.3015,59.3944],[25.3009,59.3946],[25.2935,59.3969],[25.2913,59.3976],[25.2778,59.4017],[25.276,59.4023],[25.2756,59.4024],[25.2752,59.4026],[25.2741,59.4029],[25.2733,59.4031],[25.2719,59.4036],[25.2715,59.4037],[25.2713,59.4038],[25.2708,59.4039],[25.2706,59.404],[25.2671,59.4051],[25.2654,59.4056],[25.2609,59.407],[25.2562,59.4088],[25.2504,59.411],[25.2444,59.4125],[25.2396,59.4133],[25.239,59.4134],[25.2381,59.4136]]},"properties":{"ref":"13"}},
{"type":"Feature","geometry":{"type":"LineString","coordinates":[[25.2756,59.402],[25.2775,59.4005],[25.2788,59.3991],[25.2789,59.3988],[25.2802,59.397],[25.2839,59.3946],[25.2859,59.3931],[25.2874,59.3908],[25.288,59.3898],[25.2887,59.3887],[25.2902,59.3872],[25.294,59.3841],[25.2942,59.384],[25.2944,59.3839],[25.2967,59.3826],[25.2968,59.3825],[25.2969,59.3824],[25.2972,59.3823],[25.2987,59.3815],[25.2989,59.3813],[25.2994,59.381],[25.3001,59.3805],[25.3006,59.38],[25.3009,59.3798],[25.3017,59.3793],[25.3022,59.3789],[25.3028,59.3787],[25.3029,59.3786],[25.3035,59.3783],[25.3044,59.378],[25.3046,59.3779],[25.3047,59.3778],[25.3057,59.3774],[25.3058,59.3773],[25.306,59.3773],[25.3064,59.3771],[25.3071,59.3768],[25.308,59.3764],[25.3088,59.3761],[25.3089,59.376],[25.3103,59.3754],[25.3133,59.374],[25.3147,59.373],[25.3151,59.3728],[25.3158,59.3722],[25.3161,59.372],[25.3169,59.3714],[25.3178,59.3708],[25.318,59.3706],[25.3196,59.3693],[25.3198,59.3691],[25.3204,59.3675],[25.3209,59.3656],[25.3209,59.3655],[25.3211,59.3651],[25.3212,59.3644],[25.3216,59.3627],[25.3225,59.3592],[25.3231,59.3565],[25.3231,59.3562],[25.3231,59.356],[25.3231,59.3558],[25.3231,59.3556],[25.3227,59.3542],[25.3217,59.3526],[25.3187,59.3498],[25.315,59.3465],[25.3141,59.3458],[25.3137,59.3454],[25.3134,59.3451],[25.3119,59.3438],[25.3117,59.3436],[25.3112,59.3432],[25.3106,59.3427],[25.3104,59.3425],[25.31,59.342],[25.3094,59.3409],[25.3094,59.3407],[25.3095,59.3404],[25.3126,59.3339],[25.3137,59.3326],[25.3143,59.3322],[25.3148,59.3318],[25.3166,59.3309],[25.318,59.3303],[25.3205,59.3294],[25.3206,59.3294],[25.3208,59.3293],[25.3211,59.3292],[25.328,59.3264],[25.3285,59.3262],[25.3309,59.3252],[25.3335,59.3241],[25.3348,59.3235],[25.3393,59.3217],[25.3409,59.321],[25.3423,59.3201],[25.3425,59.3199],[25.3436,59.3182],[25.3436,59.3158],[25.3436,59.3156],[25.3436,59.3149],[25.3436,59.3142],[25.3436,59.3133],[25.3436,59.313],[25.3441,59.3123],[25.3443,59.3121],[25.3445,59.312],[25.3455,59.3114],[25.3462,59.3111],[25.3475,59.3105],[25.3531,59.3079],[25.3554,59.3067],[25.3556,59.3066],[25.3574,59.305],[25.3578,59.3045],[25.36,59.3012],[25.3612,59.3],[25.3632,59.2989],[25.3715,59.2955],[25.3739,59.2943],[25.3751,59.2932],[25.3755,59.2926],[25.3756,59.2905],[25.3755,59.29],[25.3743,59.2838],[25.3741,59.2827],[25.374,59.2823],[25.3738,59.282],[25.3726,59.2807],[25.3715,59.2801],[25.3693,59.279],[25.3688,59.2788],[25.3676,59.2781],[25.3645,59.2765],[25.3597,59.2741],[25.3591,59.2737],[25.3572,59.2721],[25.3563,59.2705],[25.3545,59.2674],[25.3526,59.2638],[25.3505,59.262],[25.3483,59.2612],[25.3408,59.2593],[25.3344,59.2569],[25.3291,59.2555],[25.3264,59.2549],[25.3253,59.2547],[25.3249,59.2546],[25.3247,59.2546],[25.3244,59.2545],[25.3241,59.2544],[25.3231,59.2542],[25.3229,59.2541],[25.3216,59.2537],[25.3151,59.251],[25.3118,59.2496],[25.3041,59.2463],[25.3016,59.2451],[25.298,59.243],[25.2937,59.24],[25.2934,59.2398],[25.293,59.2395],[25.2854,59.2342],[25.2849,59.2339],[25.2846,59.2337],[25.2844,59.2335],[25.2842,59.2333],[25.2747,59.2268],[25.2736,59.2263],[25.2714,59.2251],[25.2669,59.2236],[25.2633,59.2228],[25.2596,59.2223],[25.2556,59.222],[25.2552,59.222],[25.2532,59.2218],[25.2518,59.2217],[25.2516,59.2217],[25.25,59.2216],[25.248,59.2214]]},"properties":{"ref":"12"}},
{"type":"Feature","geometry":{"type":"MultiLineString","coordinates":[[[25.819,59.098],[25.8152,59.1015],[25.813,59.1031],[25.8073,59.106],[25.805,59.1071],[25.7992,59.1098],[25.7977,59.1107],[25.796,59.1122],[25.7928,59.1166],[25.7895,59.12],[25.7894,59.1201],[25.787,59.1225],[25.7851,59.1245],[25.7786,59.1311],[25.7768,59.1329],[25.7767,59.1331],[25.7748,59.135],[25.7736,59.1362],[25.7699,59.1395]],[[25.8782,59.0482],[25.8792,59.0489],[25.8825,59.0515],[25.8831,59.0523],[25.8831,59.0529],[25.8829,59.054],[25.8822,59.0551],[25.8793,59.057],[25.8777,59.0587],[25.8762,59.0603],[25.8747,59.0609],[25.8733,59.0613],[25.8703,59.0623],[25.8676,59.0635],[25.8582,59.0697],[25.8548,59.0724],[25.8517,59.0756],[25.8505,59.0767],[25.8473,59.0791],[25.8434,59.0813],[25.8403,59.0834],[25.8359,59.0871],[25.8336,59.0891],[25.8306,59.0912],[25.8256,59.0941],[25.8253,59.0942],[25.822,59.0959],[25.819,59.098]],[[25.9515,58.9953],[25.9504,58.9956],[25.9478,58.9962],[25.9433,58.9972],[25.9415,58.9981],[25.9374,59.0007],[25.9362,59.0011],[25.9336,59.002],[25.9326,59.0026],[25.9308,59.0043],[25.9306,59.0045],[25.9292,59.0059],[25.9258,59.0088],[25.9235,59.0103],[25.9216,59.0113],[25.9192,59.013],[25.9179,59.0137],[25.9129,59.0157],[25.9092,59.0173],[25.9032,59.0203],[25.9,59.0225],[25.8996,59.0227],[25.8975,59.0243],[25.896,59.0283],[25.8958,59.0287],[25.8956,59.029],[25.8951,59.0295],[25.8938,59.0304],[25.8925,59.0311],[25.8911,59.0319],[25.8908,59.0321],[25.8896,59.0327],[25.888,59.0328],[25.8875,59.0329],[25.8854,59.033],[25.8853,59.0331],[25.8842,59.0332],[25.8835,59.0332],[25.8831,59.0332],[25.8829,59.0332],[25.8813,59.0333],[25.8805,59.0333],[25.8796,59.0333],[25.8786,59.0334],[25.8782,59.0345],[25.878,59.0348],[25.8779,59.0353],[25.8781,59.0362],[25.8783,59.0367],[25.8789,59.0373],[25.879,59.0374],[25.8791,59.0376],[25.8793,59.0378],[25.8795,59.0379],[25.8799,59.0383],[25.8805,59.039],[25.8806,59.0392],[25.8807,59.0394],[25.8806,59.0396],[25.8806,59.0399],[25.8809,59.041],[25.8818,59.0416],[25.8822,59.0431],[25.8823,59.0435],[25.883,59.0443],[25.8831,59.0444],[25.8829,59.0451],[25.8825,59.0457],[25.8821,59.0462],[25.8818,59.0465],[25.8806,59.0473],[25.8796,59.0477],[25.8782,59.0482]]]},"properties":{"ref":"39"}},
{"type":"Feature","geometry":{"type":"MultiLineString","coordinates":[[[26.3351,59.3578],[26.3351,59.3581],[26.3349,59.3589],[26.3347,59.3593],[26.3347,59.3594],[26.3346,59.3596],[26.3345,59.3606],[26.3345,59.3607],[26.3346,59.3609],[26.3346,59.361],[26.3349,59.3615],[26.3354,59.3624],[26.3358,59.3629],[26.3358,59.363],[26.3359,59.3632]],[[26.3228,59.3799],[26.3231,59.3798],[26.324,59.3791],[26.3244,59.3788],[26.3263,59.3775],[26.3265,59.3773],[26.3304,59.3745],[26.3305,59.3745],[26.3331,59.3727],[26.3344,59.3714],[26.3352,59.3701],[26.3357,59.3695],[26.336,59.3691],[26.3363,59.3686],[26.3367,59.368],[26.3371,59.3675],[26.3372,59.3673],[26.3373,59.3669],[26.3373,59.3665],[26.3373,59.3656],[26.3369,59.3648],[26.3366,59.3641],[26.3363,59.3637],[26.3363,59.3633]],[[26.336,59.3633],[26.3363,59.3637]],[[26.3361,59.3631],[26.336,59.363],[26.3358,59.3629]],[[26.3227,59.3801],[26.3217,59.3807],[26.3206,59.3815],[26.3198,59.3821],[26.3193,59.3826],[26.3186,59.3834],[26.3174,59.3849],[26.3155,59.3871],[26.3143,59.3885],[26.312,59.3914],[26.3116,59.3921],[26.3094,59.3952],[26.306,59.3994],[26.3024,59.4032],[26.3014,59.404],[26.3008,59.4045],[26.2989,59.4061],[26.295,59.4094],[26.2925,59.4128],[26.2922,59.4132],[26.2913,59.414],[26.2909,59.4143],[26.2894,59.4152],[26.2869,59.4169],[26.2862,59.4173],[26.2861,59.4174],[26.2849,59.4182],[26.2831,59.4193],[26.2825,59.4197],[26.2811,59.4206],[26.2793,59.4214],[26.2764,59.422],[26.2749,59.4222],[26.2731,59.4224],[26.2723,59.4225],[26.2716,59.4225],[26.2707,59.4226],[26.2698,59.4225]],[[26.2694,59.4228],[26.2696,59.4231],[26.2699,59.4227],[26.2707,59.4226]],[[26.2696,59.4252],[26.2697,59.4247],[26.2697,59.4248],[26.2699,59.4251]],[[26.2696,59.4235],[26.2697,59.4244],[26.2697,59.4247]],[[26.2696,59.4231],[26.2696,59.4235]]]},"properties":{"ref":"23"}}
]}