{"type":"FeatureCollection", "features": [
{"type":"Feature","geometry":{"type":"MultiLineString","coordinates":[[[26.3498,59.3258],[26.3501,59.3258],[26.3508,59.3256],[26.3502,59.3259],[26.3501,59.326]],[[26.3491,59.3262],[26.3485,59.3265],[26.3494,59.3263]],[[26.3394,59.349],[26.3395,59.3485],[26.3392,59.349]],[[26.3394,59.3492],[26.3391,59.3496],[26.3391,59.3491]],[[26.1269,59.3456],[26.128,59.3461],[26.1268,59.3458]],[[26.1264,59.3455],[26.1261,59.3455],[26.1252,59.3452],[26.1245,59.3449],[26.1238,59.3446],[26.122,59.3435],[26.1205,59.342],[26.1199,59.3402],[26.1194,59.3373],[26.1193,59.337],[26.1192,59.3366],[26.119,59.3363],[26.1185,59.3356],[26.116,59.3337],[26.1098,59.3315],[26.1017,59.3288],[26.0982,59.3274],[26.0961,59.3262],[26.0948,59.3251],[26.0905,59.3211],[26.0894,59.32],[26.0867,59.3176],[26.0847,59.3157],[26.084,59.3151],[26.0838,59.3149],[26.0831,59.3142],[26.0829,59.314],[26.0807,59.3117],[26.0791,59.3102],[26.0761,59.3074],[26.0737,59.3057],[26.0597,59.2985],[26.0586,59.2979],[26.0536,59.2952],[26.0523,59.2941],[26.0484,59.2892],[26.0449,59.2863],[26.0416,59.2826],[26.0409,59.2812],[26.0408,59.28],[26.0408,59.2777],[26.0399,59.2756],[26.0383,59.2741],[26.0344,59.2707],[26.0336,59.2702],[26.0302,59.2682],[26.0258,59.266],[26.0252,59.2657],[26.025,59.2656],[26.0247,59.2655],[26.0242,59.2653],[26.0224,59.2648],[26.0203,59.2643],[26.0167,59.2634],[26.0091,59.2617],[26.0063,59.2609],[26.0061,59.2608],[26.0041,59.26],[26.0039,59.2598],[26.0028,59.2594],[26.002,59.259],[26.0016,59.2588],[26.0013,59.2586],[26.0007,59.2583],[25.9991,59.2576],[25.9984,59.2574],[25.9968,59.2567],[25.9958,59.2562],[25.9929,59.255],[25.9903,59.2544],[25.988,59.2541],[25.9875,59.2541],[25.9869,59.254],[25.9856,59.2539],[25.985,59.2538],[25.9841,59.2537],[25.9826,59.2536],[25.9822,59.2535],[25.9783,59.2531],[25.9768,59.2531],[25.9764,59.2531],[25.976,59.2532],[25.9757,59.2533],[25.975,59.2537],[25.9738,59.2546],[25.9736,59.2547],[25.9727,59.2553],[25.972,59.2555],[25.9717,59.2555],[25.9702,59.2554],[25.9689,59.2552],[25.9686,59.2551],[25.9651,59.2547],[25.9637,59.2549],[25.9624,59.2556],[25.9604,59.2572],[25.9602,59.2573],[25.9571,59.2575],[25.9568,59.2575],[25.9524,59.2574],[25.9502,59.2574],[25.9498,59.2574],[25.9483,59.2574],[25.9477,59.2574],[25.9456,59.2574],[25.9449,59.2574],[25.9445,59.2574],[25.9443,59.2574],[25.9429,59.2574],[25.9428,59.2574],[25.9425,59.2574],[25.9424,59.2572],[25.9428,59.2571],[25.9426,59.2568],[25.9425,59.2565],[25.9422,59.2558],[25.9403,59.2541],[25.9391,59.2525],[25.939,59.2523],[25.9388,59.2518],[25.9386,59.2515],[25.938,59.2504],[25.9376,59.25],[25.9372,59.2498],[25.9351,59.2487],[25.935,59.2487],[25.9323,59.2473],[25.9322,59.2472],[25.9318,59.247],[25.9303,59.2455],[25.9275,59.2416],[25.9272,59.2414],[25.9267,59.2411],[25.9264,59.2409],[25.9259,59.2406],[25.9245,59.2397],[25.922,59.2381],[25.9182,59.2357],[25.9022,59.2254],[25.9002,59.2243],[25.8963,59.2231],[25.8954,59.2229],[25.8922,59.2221],[25.8911,59.2218],[25.891,59.2217],[25.8899,59.2214],[25.8888,59.221],[25.8878,59.2205],[25.885,59.2184],[25.8827,59.2166],[25.8799,59.2144],[25.8797,59.2142],[25.8796,59.2141],[25.879,59.2137],[25.8788,59.2135],[25.8775,59.2126],[25.8753,59.2116],[25.8713,59.2108],[25.8606,59.2102],[25.8582,59.2098],[25.8579,59.2098],[25.8562,59.2093],[25.8558,59.2092],[25.8549,59.2088],[25.8547,59.2087],[25.8533,59.208],[25.8498,59.2055],[25.8483,59.2043],[25.8452,59.2023],[25.8416,59.2006],[25.828,59.1957],[25.8235,59.1942],[25.8217,59.1935],[25.8042,59.1873],[25.7862,59.1809],[25.7845,59.1804],[25.7822,59.1799],[25.7772,59.1794],[25.7736,59.1795],[25.7672,59.1802],[25.7622,59.1807],[25.7618,59.1807],[25.7613,59.1807],[25.7609,59.1801],[25.7606,59.1795],[25.7604,59.1791],[25.7594,59.1773],[25.7591,59.1767],[25.759,59.1765],[25.7579,59.1738],[25.7576,59.1724],[25.7576,59.1719],[25.7575,59.1714],[25.7575,59.1711],[25.7575,59.1709],[25.758,59.1685],[25.7594,59.1655],[25.7635,59.1597],[25.7662,59.156],[25.7689,59.152],[25.7701,59.1493],[25.7702,59.1492],[25.7705,59.1477],[25.7711,59.143],[25.7709,59.1416],[25.7693,59.1399],[25.768,59.1391],[25.7622,59.1372],[25.7585,59.1356],[25.7582,59.1355],[25.7569,59.1347],[25.7567,59.1346],[25.7556,59.1337],[25.7507,59.1302],[25.7502,59.1298],[25.7498,59.1296],[25.7487,59.1289],[25.7466,59.128],[25.7452,59.1276],[25.745,59.1275],[25.7427,59.1267],[25.7403,59.1254],[25.7402,59.1254],[25.7381,59.1237],[25.7368,59.1219],[25.7363,59.1207],[25.7348,59.1176],[25.7329,59.1156],[25.7309,59.114],[25.7281,59.1124],[25.728,59.1123],[25.726,59.1113],[25.7254,59.1109],[25.7228,59.1095],[25.7226,59.1094],[25.7221,59.1092],[25.7209,59.1085],[25.7194,59.1077],[25.7162,59.1062],[25.7139,59.1053],[25.7126,59.1048],[25.708,59.1025],[25.7063,59.1016],[25.6998,59.0983],[25.6984,59.0976],[25.6972,59.0969],[25.6963,59.0963],[25.6949,59.0954],[25.692,59.093],[25.69,59.0912],[25.6872,59.0877],[25.6857,59.0856],[25.6844,59.0826],[25.6843,59.0823],[25.6836,59.0794],[25.6836,59.0763],[25.6836,59.0737],[25.6837,59.0731],[25.6837,59.0721],[25.6837,59.072],[25.6841,59.0707],[25.6849,59.0692],[25.6887,59.0646],[25.6914,59.0613],[25.6925,59.06],[25.6932,59.0592],[25.6955,59.057],[25.6979,59.0553],[25.6985,59.055],[25.7003,59.0539],[25.7047,59.0512],[25.7056,59.0504],[25.7069,59.0485],[25.7074,59.0436],[25.7074,59.0434],[25.7075,59.0421],[25.7075,59.0418],[25.7077,59.0403],[25.7077,59.0402],[25.7078,59.039],[25.7076,59.037],[25.7071,59.0353],[25.7068,59.0342],[25.7066,59.0336],[25.7059,59.0326],[25.7058,59.0325],[25.7046,59.0316],[25.7031,59.0303],[25.7029,59.0299],[25.7028,59.0295],[25.7028,59.0294],[25.7028,59.0293],[25.7028,59.0292],[25.7027,59.0288],[25.7027,59.0292],[25.7027,59.0294],[25.7027,59.0295],[25.7029,59.0299]],[[26.396,59.3556],[26.3962,59.3556],[26.3968,59.3558],[26.3962,59.3557],[26.3959,59.3557]],[[26.3384,59.3512],[26.3385,59.3511],[26.3388,59.3507],[26.3387,59.3512],[26.3387,59.3513]],[[26.3386,59.3516],[26.3378,59.3524],[26.3369,59.3543],[26.3367,59.3548],[26.3358,59.3568],[26.3355,59.3573],[26.3352,59.3575]],[[26.3382,59.3515],[26.338,59.352],[26.3378,59.3524]],[[26.3347,59.3577],[26.3343,59.3576],[26.3341,59.3576],[26.3333,59.3575],[26.334,59.3575],[26.3343,59.3575],[26.3347,59.3576]],[[26.3424,59.3398],[26.3426,59.3397],[26.3427,59.3395],[26.3427,59.3396],[26.3429,59.3398]],[[26.3428,59.3402],[26.3426,59.3405],[26.3425,59.3402]],[[26.4038,59.3322],[26.4035,59.3318],[26.404,59.3321]],[[26.4044,59.3323],[26.4045,59.3324],[26.4047,59.3327],[26.4044,59.3325],[26.4042,59.3324]],[[26.3712,59.3207],[26.3722,59.3207],[26.3712,59.3205]],[[26.3705,59.3205],[26.3702,59.3206],[26.3695,59.3205],[26.3702,59.3206],[26.3705,59.3207]],[[26.1263,59.3457],[26.126,59.3456],[26.1252,59.3452]],[[26.4315,59.3655],[26.4324,59.3656],[26.4332,59.3657],[26.4327,59.3655],[26.4315,59.3654]],[[26.431,59.3654],[26.4306,59.3653],[26.4297,59.3653],[26.4272,59.365],[26.424,59.3645],[26.423,59.3643],[26.4223,59.3641],[26.4213,59.3639],[26.419,59.3633],[26.4186,59.3632],[26.4184,59.3631],[26.4173,59.3628],[26.4168,59.3626],[26.4153,59.3621],[26.4148,59.3619],[26.4128,59.361],[26.4122,59.3608],[26.408,59.3589],[26.4076,59.3587],[26.4073,59.3586],[26.4038,59.3572],[26.4017,59.3567],[26.3986,59.3561],[26.3984,59.356],[26.3979,59.356],[26.3974,59.3559],[26.397,59.3558],[26.3968,59.3558]],[[26.3959,59.3554],[26.3962,59.3551],[26.3956,59.3554]],[[26.335,59.3575],[26.3353,59.3573],[26.3358,59.3568]],[[26.431,59.3655],[26.4306,59.3654],[26.4297,59.3653]],[[25.9429,59.2572],[25.9443,59.2574]],[[25.943,59.2573],[25.9429,59.2574]],[[26.3391,59.3496],[26.3388,59.3507]],[[26.332,59.3574],[26.3317,59.3573],[26.3305,59.3572],[26.3301,59.3571],[26.3287,59.3569],[26.3277,59.3567],[26.3245,59.3558],[26.3198,59.354],[26.314,59.3526],[26.3129,59.3524],[26.3126,59.3523],[26.3123,59.3522],[26.3111,59.3521],[26.298,59.3505],[26.2904,59.3497],[26.2841,59.3489],[26.2802,59.3485],[26.2791,59.3485],[26.278,59.3484],[26.2772,59.3484],[26.2763,59.3485],[26.2759,59.3485],[26.2743,59.3485],[26.2736,59.3485],[26.2704,59.3486],[26.27,59.3486],[26.2689,59.3486],[26.2677,59.3486],[26.2654,59.3486],[26.256,59.3488],[26.2516,59.349],[26.2498,59.3491],[26.2482,59.3492],[26.2466,59.3493],[26.2322,59.3501],[26.2264,59.3506],[26.2252,59.3507],[26.2264,59.3506]],[[26.2067,59.3536],[26.1954,59.3553],[26.1946,59.3554],[26.1941,59.3555],[26.188,59.356],[26.187,59.3561],[26.1868,59.3561],[26.1862,59.3561],[26.1848,59.3562],[26.1847,59.3562],[26.1845,59.3562],[26.179,59.3563],[26.1758,59.3559],[26.1701,59.3547],[26.1689,59.3544],[26.1685,59.3543],[26.1672,59.354],[26.1652,59.3536],[26.1609,59.3526],[26.1541,59.3516],[26.1467,59.351],[26.1419,59.3503],[26.1402,59.35],[26.1358,59.3487],[26.128,59.3461]],[[26.3469,59.3273],[26.344,59.329],[26.3433,59.3296],[26.3423,59.3315],[26.3423,59.3333],[26.3426,59.3391],[26.3427,59.3395]],[[25.9424,59.2572],[25.9425,59.2565]],[[25.6736,58.9927],[25.6754,58.9959],[25.6758,58.9965],[25.6763,58.9973],[25.6777,58.9997],[25.6797,59.0021],[25.6816,59.0039],[25.6841,59.0055],[25.6881,59.0079],[25.6899,59.0089],[25.6964,59.0126],[25.6973,59.0132],[25.7002,59.0151],[25.7016,59.0164],[25.7032,59.0186],[25.7034,59.0189],[25.704,59.0198],[25.7043,59.0204],[25.7049,59.0212],[25.7052,59.0217],[25.7053,59.0219],[25.7053,59.0235],[25.7048,59.0248],[25.7042,59.0265],[25.704,59.027],[25.7031,59.0282],[25.7029,59.0285],[25.7028,59.0287],[25.7027,59.0288]],[[26.3526,59.3249],[26.3538,59.3244],[26.3557,59.3237],[26.3588,59.3224],[26.3592,59.3223],[26.3618,59.3214],[26.3651,59.3207],[26.3676,59.3205],[26.3678,59.3205],[26.3695,59.3205]],[[26.3399,59.3475],[26.3395,59.3485]],[[26.4104,59.337],[26.411,59.3377],[26.4118,59.3395],[26.4114,59.3418],[26.4107,59.3429],[26.4077,59.3456],[26.3972,59.3542],[26.3965,59.3548],[26.3962,59.3551]],[[26.3735,59.321],[26.3839,59.3235],[26.3875,59.3244],[26.3894,59.325],[26.3901,59.3253],[26.3947,59.327],[26.3961,59.3276],[26.397,59.328],[26.4006,59.3299],[26.4015,59.3305],[26.4025,59.3311],[26.4032,59.3316],[26.4035,59.3318]],[[26.4047,59.3327],[26.4049,59.3328],[26.4059,59.3335],[26.4089,59.3357],[26.4104,59.337]],[[26.3508,59.3256],[26.3526,59.3249]],[[26.3423,59.3417],[26.3408,59.3456],[26.3407,59.3457],[26.3406,59.3458],[26.3404,59.3463],[26.3399,59.3475]],[[25.7613,59.1807],[25.7618,59.1807],[25.7622,59.1807]],[[26.2165,59.3521],[26.2159,59.3522],[26.2152,59.3523],[26.2135,59.3526],[26.2132,59.3526],[26.2106,59.353],[26.2105,59.353],[26.2104,59.353],[26.2085,59.3533],[26.2104,59.353]],[[26.3425,59.3411],[26.3423,59.3417]],[[26.3426,59.3405],[26.3425,59.3411]],[[26.3485,59.3265],[26.3478,59.3268],[26.3471,59.3272],[26.3469,59.3273]],[[26.3722,59.3207],[26.3735,59.321]],[[26.2085,59.3533],[26.2067,59.3536]],[[25.9428,59.2571],[25.9429,59.2572],[25.943,59.2573]],[[26.3332,59.3575],[26.3322,59.3574],[26.332,59.3574]],[[26.3333,59.3575],[26.3332,59.3575]],[[26.2252,59.3507],[26.225,59.3508],[26.2227,59.3511],[26.2224,59.3512],[26.2223,59.3512],[26.2194,59.3516],[26.2189,59.3517],[26.2184,59.3518],[26.2178,59.3519],[26.2174,59.3519],[26.2172,59.3519],[26.2165,59.3521],[26.2169,59.352],[26.2172,59.352],[26.2178,59.3519]],[[26.0028,59.2594],[26.0015,59.2588],[26.0013,59.2587],[26.0011,59.2587],[26.0006,59.2584],[26.0002,59.2582],[25.999,59.2577],[25.9984,59.2574]]]},"properties":{"fclass":"primary","ref":"5"}},
{"type":"Feature","geometry":{"type":"MultiLineString","coordinates":[[[26.3498,59.3258],[26.3501,59.326],[26.3501,59.3262],[26.35,59.3263],[26.3496,59.3264],[26.3494,59.3263],[26.3491,59.3262],[26.3491,59.326],[26.3495,59.3258],[26.3498,59.3258]],[[26.3394,59.349],[26.3395,59.3491],[26.3394,59.3492],[26.3391,59.3491],[26.3392,59.349],[26.3394,59.349]],[[26.1263,59.3457],[26.1264,59.3455],[26.1269,59.3456],[26.1268,59.3458],[26.1263,59.3457]],[[26.335,59.3575],[26.3352,59.3575],[26.3351,59.3578],[26.3349,59.3578],[26.3347,59.3577],[26.3347,59.3576],[26.335,59.3575]],[[26.3386,59.3516],[26.3382,59.3515],[26.3381,59.3514],[26.3384,59.3512],[26.3387,59.3513],[26.3388,59.3515],[26.3386,59.3516]],[[26.3424,59.3398],[26.3429,59.3398],[26.343,59.3399],[26.3429,59.3401],[26.3428,59.3402],[26.3425,59.3402],[26.3422,59.34],[26.3424,59.3398]],[[26.404,59.3321],[26.4042,59.3321],[26.4044,59.3322],[26.4044,59.3323],[26.4042,59.3324],[26.404,59.3324],[26.4038,59.3323],[26.4038,59.3322],[26.404,59.3321]],[[26.3705,59.3207],[26.3705,59.3205],[26.3707,59.3204],[26.3712,59.3205],[26.3712,59.3207],[26.3709,59.3208],[26.3705,59.3207]],[[26.3959,59.3554],[26.396,59.3556],[26.3959,59.3557],[26.3957,59.3558],[26.3952,59.3557],[26.3951,59.3557],[26.3952,59.3555],[26.3956,59.3554],[26.3959,59.3554]],[[26.431,59.3655],[26.431,59.3654],[26.4312,59.3653],[26.4315,59.3653],[26.4315,59.3654],[26.4315,59.3655],[26.4313,59.3656],[26.4311,59.3655],[26.431,59.3655]]]},"properties":{"fclass":"primary","ref":""}},
{"type":"Feature","geometry":{"type":"MultiLineString","coordinates":[[[26.0901,59.4454],[26.0905,59.4453],[26.0927,59.4449],[26.1106,59.4418],[26.1174,59.4407],[26.1244,59.4399],[26.1338,59.4389],[26.1358,59.4387],[26.1418,59.4381],[26.1476,59.4374],[26.1524,59.4369],[26.2454,59.4266],[26.2602,59.425],[26.2632,59.4246],[26.2724,59.4236],[26.2776,59.423],[26.278,59.423],[26.2804,59.4227],[26.2856,59.4221],[26.2863,59.422],[26.2902,59.4216],[26.2945,59.4212],[26.2915,59.4216],[26.29,59.4217],[26.2797,59.4229],[26.2774,59.4232],[26.2638,59.4247],[26.2455,59.4267],[26.1511,59.4372],[26.1483,59.4375],[26.1422,59.4381],[26.1396,59.4384],[26.1362,59.4387],[26.1324,59.4391],[26.1245,59.44],[26.1154,59.4413],[26.1107,59.442],[26.0951,59.4447],[26.0938,59.4449],[26.0928,59.4451],[26.0912,59.4454]],[[26.4097,59.3816],[26.4089,59.3819],[26.4047,59.3835],[26.3999,59.3862],[26.3946,59.3891],[26.393,59.39],[26.3917,59.3907],[26.3913,59.3909],[26.39,59.3917],[26.3868,59.3933],[26.3829,59.3949],[26.3822,59.3952],[26.3818,59.3954],[26.3814,59.3955],[26.3808,59.3958],[26.3791,59.3965],[26.3769,59.3975],[26.3728,59.3993],[26.3723,59.3996],[26.3701,59.4009],[26.3685,59.4023],[26.3683,59.4025],[26.368,59.4028],[26.3675,59.4032],[26.3673,59.4034],[26.367,59.4037],[26.3653,59.4051],[26.3648,59.4056],[26.3634,59.4067],[26.3622,59.4078],[26.3603,59.4093],[26.3581,59.4106],[26.3565,59.4113],[26.354,59.4125],[26.3481,59.4146],[26.3435,59.4156],[26.3415,59.4159],[26.3396,59.4161],[26.3359,59.4165],[26.3357,59.4166],[26.3349,59.4167],[26.301,59.4204],[26.2979,59.4208],[26.2945,59.4212]],[[26.4421,59.365],[26.4413,59.365],[26.4372,59.3649],[26.4362,59.365],[26.4352,59.3651],[26.4332,59.3657],[26.4322,59.3662],[26.4316,59.3667],[26.431,59.3672],[26.4305,59.368],[26.4304,59.3682],[26.4293,59.3698],[26.4283,59.3711],[26.4264,59.3729],[26.4227,59.3754],[26.4202,59.3768],[26.4177,59.378],[26.4169,59.3784],[26.4153,59.3791],[26.415,59.3792],[26.4148,59.3793],[26.4142,59.3796],[26.4139,59.3798],[26.4097,59.3816]],[[26.4722,59.3661],[26.4629,59.3658],[26.4609,59.3657],[26.4592,59.3656],[26.4465,59.3652],[26.4456,59.3652],[26.4421,59.365]]]},"properties":{"fclass":"trunk","ref":"1"}},
{"type":"Feature","geometry":{"type":"MultiLineString","coordinates":[[[25.2523,59.138],[25.2529,59.1376],[25.2531,59.1375],[25.2579,59.134],[25.2669,59.1277],[25.2714,59.1252],[25.2715,59.1251],[25.2754,59.1234],[25.2776,59.1226],[25.2784,59.1224],[25.2816,59.1214],[25.294,59.1184],[25.2972,59.1175],[25.3,59.1165],[25.3032,59.1151],[25.3064,59.1134],[25.3082,59.1122],[25.3108,59.11],[25.3121,59.1086],[25.313,59.1075],[25.3139,59.1059],[25.3153,59.1026],[25.3192,59.0935],[25.3214,59.0896],[25.324,59.0866],[25.3262,59.0845],[25.3283,59.083],[25.3287,59.0827],[25.3306,59.0814],[25.3326,59.0802],[25.3336,59.0797],[25.3368,59.0781],[25.3408,59.0765],[25.3436,59.0754],[25.3449,59.0749],[25.3452,59.0748],[25.3601,59.0695],[25.3609,59.0692],[25.3697,59.066],[25.3745,59.0644],[25.3796,59.0629],[25.384,59.0618],[25.3853,59.0615],[25.3903,59.0605],[25.3997,59.0585],[25.3999,59.0584],[25.4035,59.0575],[25.4068,59.0564],[25.4097,59.0552],[25.4124,59.0539],[25.4155,59.0523],[25.4239,59.0473],[25.4292,59.0442],[25.4362,59.0401],[25.4403,59.0381],[25.4404,59.038],[25.4416,59.0376],[25.4443,59.0366],[25.4494,59.0352],[25.4535,59.0344],[25.4611,59.0334],[25.4628,59.0332],[25.4693,59.0324],[25.4728,59.032],[25.4818,59.031],[25.4868,59.0305],[25.491,59.0305],[25.4954,59.0307],[25.4962,59.0307],[25.4966,59.0307],[25.508,59.032],[25.5112,59.0322],[25.5122,59.0323],[25.5188,59.0321],[25.5227,59.0317],[25.5273,59.031],[25.5314,59.03],[25.5361,59.0284],[25.5409,59.0262],[25.5439,59.0242],[25.5458,59.0228],[25.5545,59.0145],[25.5576,59.012],[25.5599,59.0103],[25.5645,59.0073],[25.5841,58.9963],[25.5859,58.9952],[25.586,58.9951],[25.5884,58.9935],[25.5893,58.9929],[25.5901,58.9924],[25.5908,58.9919]],[[25.5906,58.9919],[25.59,58.9923],[25.589,58.993],[25.5858,58.9951],[25.5855,58.9953],[25.5821,58.9972],[25.5641,59.0074],[25.5597,59.0102],[25.5564,59.0127],[25.5543,59.0145],[25.5458,59.0225],[25.544,59.024],[25.5414,59.0257],[25.539,59.027],[25.5364,59.0282],[25.5329,59.0294],[25.5287,59.0306],[25.5242,59.0314],[25.5212,59.0318],[25.516,59.0321],[25.5124,59.0322],[25.5111,59.0321],[25.5059,59.0317],[25.4975,59.0308],[25.4966,59.0307],[25.4954,59.0307],[25.4911,59.0304],[25.4867,59.0304],[25.4832,59.0307],[25.4802,59.031],[25.4731,59.0319],[25.47,59.0322],[25.4672,59.0325],[25.4618,59.0332],[25.4535,59.0343],[25.4493,59.0351],[25.4442,59.0366],[25.4416,59.0376],[25.4403,59.0381],[25.4391,59.0385],[25.436,59.04],[25.4301,59.0434],[25.4291,59.044],[25.4281,59.0446],[25.4253,59.0463],[25.4237,59.0472],[25.4236,59.0473],[25.4137,59.0532],[25.4096,59.0552],[25.4067,59.0563],[25.4034,59.0574],[25.3999,59.0583],[25.3996,59.0584],[25.392,59.06],[25.3903,59.0603],[25.3852,59.0614],[25.3838,59.0617],[25.3817,59.0622],[25.3794,59.0629],[25.3745,59.0643],[25.3721,59.065],[25.3696,59.0659],[25.3607,59.0691],[25.36,59.0694],[25.3451,59.0748],[25.3448,59.0749],[25.3391,59.077],[25.3367,59.078],[25.3325,59.0801],[25.3298,59.0818],[25.3291,59.0822],[25.3282,59.0828],[25.3261,59.0845],[25.3229,59.0876],[25.3212,59.0896],[25.3194,59.0926],[25.3159,59.1008],[25.3141,59.105],[25.3136,59.106],[25.3133,59.1065],[25.3116,59.109],[25.3099,59.1107],[25.3081,59.1121],[25.3045,59.1143],[25.2999,59.1165],[25.2939,59.1183],[25.2831,59.1209],[25.2783,59.1223],[25.2775,59.1225],[25.2738,59.1239],[25.2714,59.1251],[25.2713,59.1251],[25.2668,59.1277],[25.258,59.1339],[25.2529,59.1374],[25.2527,59.1375],[25.2523,59.1378]]]},"properties":{"fclass":"trunk","ref":"2"}}
]}