{"type":"FeatureCollection", "features": [
{"type":"Feature","geometry":{"type":"Polygon","coordinates":[[[26.032,59.1715],[26.0324,59.1707],[26.0334,59.1703],[26.0387,59.1705],[26.0392,59.1702],[26.0395,59.1692],[26.039,59.1675],[26.0399,59.1673],[26.0402,59.1667],[26.0392,59.1652],[26.0407,59.1657],[26.0418,59.1672],[26.0416,59.168],[26.0427,59.1684],[26.0448,59.1682],[26.0462,59.1684],[26.0466,59.169],[26.0447,59.1692],[26.0455,59.1716],[26.0451,59.1725],[26.0459,59.1732],[26.0456,59.1737],[26.0438,59.1749],[26.0458,59.1756],[26.0474,59.1766],[26.0501,59.1765],[26.0514,59.1767],[26.0517,59.1779],[26.0505,59.1794],[26.0458,59.1793],[26.0422,59.1794],[26.0407,59.179],[26.0398,59.1783],[26.0424,59.1775],[26.0431,59.1771],[26.043,59.1759],[26.0411,59.1737],[26.0369,59.1733],[26.0358,59.1737],[26.0329,59.173],[26.0321,59.1722],[26.032,59.1715]]]},"properties":{"fclass":"water"}},
{"type":"Feature","geometry":{"type":"Polygon","coordinates":[[[25.9437,59.3348],[25.9441,59.3334],[25.9452,59.3315],[25.9461,59.331],[25.9479,59.3305],[25.9515,59.3298],[25.9533,59.3297],[25.9557,59.3301],[25.9578,59.3306],[25.9588,59.3316],[25.9602,59.3334],[25.9604,59.3348],[25.9596,59.3364],[25.9579,59.3359],[25.9565,59.3358],[25.9552,59.3364],[25.9547,59.3376],[25.9532,59.3382],[25.9504,59.3381],[25.9494,59.3383],[25.9469,59.3382],[25.9454,59.3379],[25.9442,59.3368],[25.9437,59.3348]]]},"properties":{"fclass":"water"}},
{"type":"Feature","geometry":{"type":"Polygon","coordinates":[[[25.3454,59.1097],[25.347,59.1093],[25.3502,59.1057],[25.3519,59.1047],[25.3534,59.1043],[25.3548,59.1043],[25.3588,59.1053],[25.3598,59.1054],[25.3632,59.1054],[25.3651,59.1056],[25.369,59.1062],[25.3713,59.1065],[25.3734,59.1074],[25.3741,59.1074],[25.3777,59.1072],[25.3792,59.1073],[25.3799,59.1086],[25.3822,59.109],[25.3835,59.1091],[25.3839,59.1085],[25.3849,59.1084],[25.386,59.1102],[25.3859,59.1108],[25.3824,59.1119],[25.3809,59.1128],[25.3803,59.1135],[25.3789,59.1136],[25.3784,59.1141],[25.3769,59.1142],[25.3762,59.1148],[25.3761,59.1163],[25.3751,59.1167],[25.3724,59.1168],[25.3726,59.1176],[25.372,59.1181],[25.3689,59.1192],[25.3658,59.1198],[25.3638,59.1204],[25.3628,59.1211],[25.3571,59.1216],[25.3591,59.1217],[25.3591,59.122],[25.3544,59.1222],[25.3544,59.1227],[25.3566,59.1226],[25.3532,59.124],[25.3522,59.1237],[25.3522,59.1229],[25.3507,59.1228],[25.3487,59.1237],[25.347,59.1243],[25.3458,59.1243],[25.3457,59.1237],[25.3435,59.1234],[25.3421,59.1227],[25.3433,59.1221],[25.3406,59.1222],[25.3392,59.1221],[25.3388,59.1212],[25.3365,59.1221],[25.3337,59.1228],[25.3329,59.1233],[25.3331,59.1236],[25.3311,59.124],[25.3269,59.1253],[25.3255,59.1255],[25.3252,59.1252],[25.3209,59.122],[25.3208,59.1216],[25.3288,59.1179],[25.3299,59.1174],[25.3323,59.1155],[25.3364,59.1121],[25.3379,59.1117],[25.3392,59.1115],[25.3405,59.1118],[25.3405,59.1112],[25.341,59.1109],[25.343,59.1104],[25.3454,59.1097]],[[25.327,59.1205],[25.3286,59.1203],[25.3297,59.1207],[25.33,59.1196],[25.327,59.1205]],[[25.3324,59.1166],[25.3331,59.1173],[25.3337,59.1168],[25.3324,59.1166]],[[25.336,59.1145],[25.3342,59.1147],[25.3333,59.1158],[25.3339,59.1169],[25.3341,59.1176],[25.3358,59.1173],[25.3373,59.1178],[25.3375,59.1179],[25.3383,59.1178],[25.3398,59.1172],[25.3426,59.1167],[25.3421,59.1161],[25.3398,59.1166],[25.3385,59.1165],[25.3354,59.1166],[25.3338,59.1161],[25.3343,59.1152],[25.336,59.1145]],[[25.3437,59.1122],[25.3436,59.1117],[25.3423,59.1114],[25.3419,59.1118],[25.3437,59.1122]],[[25.341,59.1213],[25.3435,59.1213],[25.3449,59.1211],[25.3464,59.1211],[25.3478,59.1204],[25.3486,59.1206],[25.3505,59.1201],[25.3512,59.1194],[25.3492,59.1196],[25.3473,59.1202],[25.3439,59.1204],[25.3429,59.121],[25.341,59.1213]],[[25.3551,59.1185],[25.3566,59.1182],[25.3578,59.1183],[25.3616,59.1177],[25.3628,59.1177],[25.3632,59.1173],[25.3653,59.117],[25.3672,59.1165],[25.3685,59.1155],[25.3707,59.1147],[25.3721,59.1149],[25.3721,59.1144],[25.3736,59.1139],[25.3755,59.1135],[25.377,59.1135],[25.3786,59.1122],[25.3811,59.1114],[25.3785,59.1115],[25.3776,59.1119],[25.3774,59.1126],[25.3757,59.1125],[25.3735,59.1134],[25.3712,59.1139],[25.3664,59.1159],[25.3648,59.1168],[25.3627,59.117],[25.3605,59.1168],[25.3566,59.1176],[25.3551,59.1185]],[[25.362,59.1194],[25.3633,59.1195],[25.3655,59.1183],[25.3641,59.118],[25.3627,59.1186],[25.362,59.1194]]]},"properties":{"fclass":"reservoir"}},
{"type":"Feature","geometry":{"type":"Polygon","coordinates":[[[25.5952,59.3959],[25.5957,59.3965],[25.5952,59.3969],[25.5911,59.3967],[25.5902,59.3969],[25.5889,59.3981],[25.5868,59.3983],[25.5858,59.3981],[25.5838,59.3981],[25.5819,59.3984],[25.5805,59.3982],[25.5787,59.3986],[25.5782,59.3982],[25.576,59.3979],[25.5729,59.3976],[25.5704,59.3971],[25.5697,59.3975],[25.5665,59.3971],[25.5661,59.3968],[25.5644,59.3964],[25.5642,59.3958],[25.5614,59.3951],[25.5601,59.3955],[25.5587,59.3952],[25.557,59.3953],[25.5554,59.3942],[25.5553,59.3938],[25.554,59.3938],[25.5532,59.393],[25.5501,59.3922],[25.5482,59.3919],[25.5464,59.392],[25.5433,59.3914],[25.5403,59.3914],[25.5382,59.3918],[25.5365,59.3917],[25.5342,59.3918],[25.5304,59.3924],[25.526,59.3925],[25.5242,59.3923],[25.5224,59.3918],[25.5192,59.3906],[25.5169,59.39],[25.5171,59.3907],[25.5206,59.3918],[25.5194,59.3918],[25.518,59.3913],[25.5163,59.3912],[25.5157,59.3917],[25.5164,59.3924],[25.5161,59.3934],[25.5184,59.3941],[25.52,59.3948],[25.5186,59.3949],[25.5165,59.3944],[25.5138,59.3929],[25.5143,59.3923],[25.5143,59.3914],[25.5151,59.3908],[25.5149,59.3897],[25.5132,59.3877],[25.5123,59.3872],[25.5104,59.3865],[25.5084,59.3855],[25.5066,59.3849],[25.5043,59.3846],[25.5029,59.3846],[25.5012,59.3841],[25.4996,59.3846],[25.4972,59.3849],[25.4947,59.3855],[25.491,59.3865],[25.4889,59.3872],[25.4871,59.3876],[25.4863,59.3879],[25.4838,59.388],[25.4835,59.3882],[25.4779,59.3875],[25.4769,59.3878],[25.475,59.3877],[25.4719,59.3872],[25.4683,59.3863],[25.4685,59.3859],[25.4704,59.385],[25.4714,59.385],[25.4729,59.3856],[25.4751,59.3857],[25.4761,59.3862],[25.4789,59.3863],[25.4808,59.3859],[25.4832,59.3858],[25.4866,59.386],[25.4882,59.3858],[25.4889,59.3854],[25.4892,59.3843],[25.4903,59.383],[25.4924,59.3827],[25.4927,59.3824],[25.4951,59.382],[25.4961,59.382],[25.4987,59.381],[25.5007,59.3805],[25.5038,59.3802],[25.505,59.38],[25.5071,59.3801],[25.5095,59.3793],[25.5116,59.379],[25.5174,59.377],[25.5188,59.3767],[25.5215,59.3758],[25.5229,59.3756],[25.523,59.376],[25.5218,59.3764],[25.5201,59.3774],[25.5191,59.3778],[25.519,59.3786],[25.5185,59.3792],[25.5194,59.3799],[25.5189,59.3811],[25.519,59.3818],[25.5232,59.384],[25.5239,59.3842],[25.5253,59.3858],[25.5252,59.3865],[25.5266,59.3875],[25.5268,59.3881],[25.5279,59.3885],[25.5316,59.3891],[25.5324,59.3897],[25.5338,59.3893],[25.535,59.3894],[25.5363,59.3904],[25.5378,59.3903],[25.5383,59.3899],[25.5399,59.3895],[25.5411,59.39],[25.5422,59.3899],[25.544,59.3895],[25.5451,59.3898],[25.546,59.3904],[25.5484,59.3906],[25.549,59.3903],[25.5518,59.3901],[25.5524,59.3904],[25.5535,59.3902],[25.555,59.3906],[25.5552,59.3911],[25.5589,59.3914],[25.5587,59.3918],[25.5565,59.3916],[25.5552,59.3917],[25.5557,59.3925],[25.5573,59.3932],[25.5582,59.3939],[25.5601,59.3938],[25.5612,59.3932],[25.5618,59.3933],[25.5633,59.3931],[25.566,59.3941],[25.5672,59.3949],[25.5667,59.3955],[25.5679,59.3959],[25.5703,59.3963],[25.5719,59.3957],[25.5732,59.3959],[25.5736,59.3964],[25.5748,59.3962],[25.5771,59.3968],[25.5786,59.397],[25.5792,59.3974],[25.5804,59.3971],[25.5813,59.3974],[25.5836,59.3969],[25.5872,59.3971],[25.5881,59.3961],[25.5895,59.3954],[25.5913,59.395],[25.593,59.395],[25.5938,59.3956],[25.5948,59.3959],[25.5952,59.3959]],[[25.5149,59.3809],[25.5159,59.3808],[25.5165,59.3798],[25.5162,59.3786],[25.5153,59.3793],[25.5156,59.3796],[25.5149,59.3809]],[[25.5166,59.3823],[25.5173,59.3838],[25.5177,59.3854],[25.5193,59.3858],[25.5211,59.3868],[25.5231,59.3875],[25.5247,59.3878],[25.5251,59.3875],[25.5232,59.3869],[25.5232,59.3865],[25.5218,59.3855],[25.5216,59.385],[25.5199,59.3847],[25.5183,59.3837],[25.5185,59.383],[25.5171,59.3819],[25.5166,59.3823]]]},"properties":{"fclass":"water"}},
{"type":"Feature","geometry":{"type":"MultiPolygon","coordinates":[[[[25.5948,59.3959],[25.5961,59.3957],[25.5969,59.396],[25.5971,59.3965],[25.5984,59.3963],[25.5986,59.3956],[25.5999,59.3952],[25.6008,59.3954],[25.6026,59.3955],[25.6041,59.3953],[25.605,59.3957],[25.6055,59.3958],[25.6057,59.3956],[25.6067,59.3954],[25.607,59.3958],[25.6087,59.3953],[25.6108,59.3956],[25.6115,59.3955],[25.614,59.396],[25.6139,59.3954],[25.6144,59.3953],[25.6161,59.3955],[25.6153,59.396],[25.6164,59.3964],[25.6173,59.3958],[25.6177,59.3956],[25.6186,59.3956],[25.6194,59.3957],[25.6184,59.3962],[25.6193,59.3964],[25.6204,59.396],[25.6215,59.3964],[25.6213,59.3966],[25.6214,59.3974],[25.6211,59.3973],[25.621,59.3971],[25.6212,59.3964],[25.6201,59.3962],[25.6194,59.3966],[25.6182,59.3962],[25.619,59.3957],[25.6177,59.3957],[25.6166,59.3964],[25.6159,59.3965],[25.6157,59.3962],[25.6145,59.396],[25.6136,59.3963],[25.6125,59.3958],[25.6085,59.3954],[25.607,59.3959],[25.6067,59.3955],[25.606,59.3956],[25.6054,59.3962],[25.604,59.3954],[25.6024,59.3962],[25.6003,59.3961],[25.5989,59.3965],[25.5969,59.3966],[25.5967,59.3961],[25.5952,59.3959],[25.5948,59.3959]]],[[[25.3312,59.3905],[25.3315,59.3905],[25.333,59.3906],[25.3318,59.3908],[25.3312,59.3905]]],[[[25.333,59.3906],[25.3331,59.3898],[25.3344,59.3896],[25.3331,59.3901],[25.3336,59.3905],[25.333,59.3906]]],[[[25.3345,59.3896],[25.3334,59.3886],[25.3341,59.3881],[25.336,59.3889],[25.3369,59.3895],[25.3365,59.3902],[25.3369,59.3906],[25.3367,59.3906],[25.3362,59.3902],[25.3366,59.3895],[25.3342,59.3882],[25.3336,59.3885],[25.3347,59.3895],[25.3345,59.3896]]],[[[25.337,59.3906],[25.3383,59.39],[25.3405,59.3899],[25.342,59.3897],[25.3428,59.3889],[25.344,59.3886],[25.3448,59.3886],[25.3458,59.3889],[25.3468,59.3883],[25.3481,59.3879],[25.3468,59.3884],[25.346,59.389],[25.3446,59.3887],[25.3428,59.389],[25.3423,59.3897],[25.3405,59.3901],[25.3388,59.39],[25.3378,59.3905],[25.337,59.3906]]],[[[25.3481,59.3879],[25.3494,59.388],[25.3508,59.3883],[25.3513,59.3885],[25.351,59.3895],[25.3505,59.39],[25.3494,59.3902],[25.3496,59.3905],[25.3492,59.3905],[25.3493,59.3901],[25.3505,59.3899],[25.3508,59.389],[25.3512,59.3886],[25.3504,59.3883],[25.3481,59.3879]]],[[[25.3496,59.3905],[25.3512,59.3903],[25.3521,59.39],[25.3533,59.3899],[25.3542,59.3908],[25.3552,59.3904],[25.3568,59.3894],[25.3566,59.3891],[25.3546,59.389],[25.3548,59.3886],[25.3568,59.3884],[25.3583,59.3895],[25.3592,59.3904],[25.3605,59.3891],[25.3614,59.3888],[25.362,59.3891],[25.3608,59.3891],[25.3584,59.3911],[25.3582,59.3895],[25.3571,59.3893],[25.3554,59.3904],[25.3549,59.3912],[25.3542,59.3909],[25.3533,59.39],[25.3521,59.3901],[25.3512,59.3904],[25.3499,59.3905],[25.3496,59.3905]]],[[[25.362,59.3891],[25.3632,59.3888],[25.3629,59.3891],[25.362,59.3891]]],[[[25.3636,59.3885],[25.3641,59.3879],[25.3667,59.388],[25.3683,59.3887],[25.3692,59.3878],[25.3699,59.3879],[25.3709,59.3874],[25.3717,59.388],[25.3727,59.388],[25.3728,59.3884],[25.3737,59.3885],[25.3741,59.3888],[25.3734,59.3894],[25.3748,59.3897],[25.3755,59.3894],[25.3775,59.39],[25.3785,59.3892],[25.3804,59.3891],[25.3812,59.3888],[25.3813,59.3888],[25.3798,59.3896],[25.3785,59.3894],[25.3778,59.3898],[25.3782,59.3902],[25.3767,59.3904],[25.3764,59.3898],[25.3754,59.3895],[25.3749,59.3898],[25.3733,59.3895],[25.3738,59.3886],[25.3729,59.3886],[25.3726,59.3881],[25.3717,59.3881],[25.371,59.3875],[25.3699,59.388],[25.3693,59.3879],[25.3683,59.3889],[25.3666,59.3881],[25.3657,59.388],[25.364,59.3881],[25.3636,59.3885]]],[[[25.3813,59.3888],[25.385,59.3889],[25.3856,59.3889],[25.3854,59.3892],[25.3865,59.389],[25.3881,59.3891],[25.3889,59.3894],[25.3899,59.3891],[25.3899,59.3899],[25.3912,59.3896],[25.3915,59.3896],[25.3899,59.39],[25.3882,59.3892],[25.3861,59.3892],[25.3857,59.3894],[25.3852,59.3892],[25.3837,59.3892],[25.3813,59.3888]]],[[[25.3915,59.3896],[25.3923,59.3896],[25.3923,59.3891],[25.3929,59.3888],[25.3921,59.3885],[25.3925,59.3879],[25.3933,59.3884],[25.3935,59.3891],[25.3933,59.3903],[25.3942,59.3917],[25.3942,59.3922],[25.3933,59.393],[25.3926,59.3931],[25.3933,59.3929],[25.3941,59.3921],[25.3931,59.3903],[25.3931,59.3895],[25.3923,59.3897],[25.3915,59.3896]]],[[[25.3926,59.3931],[25.3905,59.3932],[25.3915,59.3941],[25.3943,59.3948],[25.3957,59.3948],[25.3971,59.3939],[25.3968,59.3933],[25.3976,59.3928],[25.3987,59.3923],[25.3989,59.3916],[25.3997,59.391],[25.401,59.3909],[25.4036,59.3888],[25.4042,59.3879],[25.4029,59.3874],[25.4029,59.3873],[25.4043,59.3879],[25.4038,59.3888],[25.4013,59.3909],[25.3997,59.3911],[25.3988,59.3924],[25.3977,59.3928],[25.397,59.3935],[25.3973,59.394],[25.3957,59.395],[25.3942,59.3949],[25.3914,59.3942],[25.3905,59.3935],[25.3904,59.3931],[25.3926,59.3931]]],[[[25.4029,59.3873],[25.4029,59.3863],[25.4035,59.3859],[25.4026,59.3857],[25.4028,59.3853],[25.4017,59.3847],[25.4022,59.3843],[25.4029,59.3842],[25.4056,59.384],[25.4069,59.3834],[25.4058,59.383],[25.406,59.3828],[25.407,59.3826],[25.4075,59.3824],[25.4071,59.3826],[25.406,59.3829],[25.407,59.3834],[25.4067,59.3838],[25.4052,59.3842],[25.4037,59.3842],[25.4022,59.3844],[25.4019,59.3847],[25.403,59.3852],[25.4028,59.3856],[25.4037,59.3858],[25.4038,59.386],[25.4031,59.3863],[25.4029,59.3873]]],[[[25.4078,59.3822],[25.4075,59.3809],[25.408,59.3809],[25.4091,59.3816],[25.4117,59.3816],[25.4101,59.3819],[25.409,59.3817],[25.4079,59.381],[25.4079,59.3821],[25.4078,59.3822]]],[[[25.4117,59.3816],[25.4119,59.3816],[25.4126,59.3826],[25.4145,59.3812],[25.4173,59.3804],[25.4176,59.3794],[25.4191,59.3787],[25.42,59.3793],[25.4191,59.3788],[25.4178,59.3794],[25.4174,59.3804],[25.4147,59.3812],[25.4127,59.3826],[25.4116,59.3827],[25.4117,59.3816]]],[[[25.42,59.3793],[25.4206,59.3804],[25.4219,59.3811],[25.4235,59.3811],[25.4234,59.3812],[25.4218,59.3812],[25.4205,59.3804],[25.42,59.3793]]],[[[25.4236,59.3809],[25.4245,59.3798],[25.4246,59.3798],[25.4236,59.3809]]],[[[25.4246,59.3798],[25.4255,59.3798],[25.4257,59.3808],[25.4253,59.3807],[25.4253,59.3799],[25.4246,59.3798]]],[[[25.4259,59.3808],[25.4272,59.381],[25.4275,59.3812],[25.4259,59.3808]]],[[[25.4276,59.3812],[25.4279,59.3814],[25.4283,59.3821],[25.4295,59.3822],[25.4295,59.3817],[25.43,59.3815],[25.4316,59.3816],[25.4324,59.3813],[25.4327,59.3804],[25.4329,59.3804],[25.4327,59.3812],[25.4319,59.3817],[25.4296,59.3818],[25.4296,59.3823],[25.4281,59.3821],[25.4276,59.3812]]],[[[25.4329,59.3804],[25.4333,59.3804],[25.4337,59.3808],[25.4346,59.3808],[25.4353,59.3805],[25.4361,59.3808],[25.4368,59.3808],[25.4361,59.3809],[25.4353,59.3806],[25.434,59.381],[25.4329,59.3804]]],[[[25.4368,59.3808],[25.4385,59.3808],[25.439,59.3809],[25.4393,59.3812],[25.4408,59.381],[25.4416,59.3814],[25.4408,59.3821],[25.4412,59.3827],[25.4427,59.3825],[25.4429,59.3814],[25.4442,59.3813],[25.4461,59.3822],[25.4465,59.3821],[25.4464,59.3817],[25.4468,59.3813],[25.4501,59.3812],[25.4498,59.3802],[25.4504,59.3793],[25.4517,59.3789],[25.4536,59.3787],[25.4556,59.38],[25.4573,59.3796],[25.4599,59.3802],[25.4617,59.3817],[25.4632,59.3817],[25.4633,59.3823],[25.4619,59.3823],[25.4605,59.3815],[25.4596,59.3814],[25.4586,59.3807],[25.4577,59.3817],[25.4564,59.3809],[25.4553,59.3813],[25.4545,59.3803],[25.4562,59.3805],[25.4571,59.38],[25.4594,59.3806],[25.4597,59.3803],[25.4571,59.3797],[25.4561,59.3801],[25.4547,59.3799],[25.4534,59.3788],[25.451,59.3792],[25.4503,59.3795],[25.45,59.3802],[25.4502,59.3813],[25.4467,59.3815],[25.4466,59.3822],[25.4463,59.3823],[25.4456,59.3821],[25.4442,59.3814],[25.443,59.3815],[25.4429,59.3824],[25.4426,59.3827],[25.4413,59.3828],[25.4405,59.3825],[25.4413,59.3814],[25.4406,59.3811],[25.4395,59.3814],[25.4389,59.381],[25.4368,59.3808]]],[[[25.6214,59.3974],[25.6222,59.3972],[25.6224,59.3973],[25.6226,59.398],[25.6236,59.3985],[25.6247,59.3981],[25.6271,59.3977],[25.6274,59.3975],[25.6287,59.3971],[25.6299,59.3971],[25.6304,59.3972],[25.6305,59.3973],[25.6312,59.3978],[25.6323,59.3979],[25.6327,59.3979],[25.6329,59.398],[25.6337,59.3979],[25.6339,59.3978],[25.6335,59.3983],[25.6329,59.3981],[25.63,59.3977],[25.6303,59.3974],[25.6301,59.3972],[25.6286,59.3972],[25.6266,59.398],[25.6256,59.398],[25.6242,59.3987],[25.6229,59.3984],[25.6223,59.3977],[25.6218,59.3975],[25.6214,59.3974]]],[[[25.6339,59.3978],[25.6343,59.3976],[25.6351,59.3976],[25.6339,59.3978]]],[[[25.6351,59.3976],[25.6352,59.3976],[25.636,59.3975],[25.6367,59.3973],[25.639,59.3976],[25.6402,59.3971],[25.64,59.3965],[25.6407,59.3965],[25.641,59.3962],[25.6417,59.3963],[25.6419,59.3962],[25.6427,59.3961],[25.6431,59.3963],[25.6433,59.3964],[25.6435,59.3964],[25.6438,59.3969],[25.6447,59.397],[25.6437,59.3969],[25.6427,59.3962],[25.642,59.3962],[25.6419,59.3964],[25.6413,59.3963],[25.641,59.3965],[25.6402,59.3967],[25.6405,59.3971],[25.6393,59.3975],[25.6388,59.3978],[25.6374,59.3974],[25.6362,59.3975],[25.6356,59.3979],[25.6351,59.3976]]],[[[25.6456,59.3971],[25.6472,59.3973],[25.6472,59.3969],[25.648,59.3968],[25.6487,59.3963],[25.6492,59.3963],[25.6487,59.3964],[25.6475,59.3973],[25.6462,59.3975],[25.6456,59.3971]]],[[[25.6492,59.3963],[25.6502,59.3959],[25.6515,59.3958],[25.6529,59.3959],[25.6533,59.3961],[25.6534,59.3965],[25.6542,59.3963],[25.6561,59.3962],[25.6569,59.3964],[25.6567,59.3968],[25.6592,59.3973],[25.6602,59.3971],[25.6611,59.3957],[25.6614,59.3948],[25.6621,59.3944],[25.6629,59.3943],[25.663,59.3941],[25.664,59.3941],[25.6652,59.3936],[25.6656,59.3937],[25.6652,59.3937],[25.6665,59.3943],[25.6669,59.3938],[25.6676,59.3938],[25.6678,59.3932],[25.6682,59.3932],[25.6681,59.3936],[25.6703,59.3933],[25.67,59.3929],[25.6711,59.3925],[25.6714,59.3921],[25.6729,59.3915],[25.6743,59.3916],[25.6753,59.3909],[25.6764,59.3909],[25.6771,59.3906],[25.6785,59.3909],[25.6775,59.3909],[25.6759,59.3912],[25.6754,59.391],[25.6744,59.3917],[25.673,59.3916],[25.6723,59.3919],[25.6715,59.3927],[25.6704,59.3934],[25.6695,59.3937],[25.668,59.3937],[25.6678,59.3939],[25.667,59.3939],[25.6666,59.3944],[25.6649,59.3938],[25.6638,59.3943],[25.6635,59.3942],[25.6621,59.3946],[25.6624,59.3951],[25.6615,59.3955],[25.6604,59.3971],[25.6581,59.3977],[25.6577,59.3972],[25.6565,59.3969],[25.6566,59.3965],[25.6541,59.3964],[25.6536,59.3967],[25.6522,59.3964],[25.6516,59.3959],[25.6503,59.396],[25.6492,59.3963]]],[[[25.6785,59.3909],[25.679,59.3905],[25.6793,59.3904],[25.6788,59.3909],[25.6785,59.3909]]],[[[25.6794,59.3904],[25.6803,59.3901],[25.6807,59.3897],[25.6814,59.3896],[25.6804,59.3902],[25.6794,59.3904]]],[[[25.682,59.3896],[25.6823,59.3891],[25.6825,59.3884],[25.6833,59.3882],[25.6825,59.3886],[25.6825,59.3894],[25.6822,59.3896],[25.682,59.3896]]],[[[25.6833,59.3882],[25.6832,59.3875],[25.684,59.3871],[25.6842,59.3871],[25.6833,59.3876],[25.6835,59.3881],[25.6833,59.3882]]],[[[25.6847,59.3872],[25.6867,59.387],[25.6878,59.3859],[25.6895,59.3857],[25.6892,59.3861],[25.6879,59.386],[25.6868,59.3871],[25.6852,59.3873],[25.6847,59.3872]]],[[[25.6895,59.3857],[25.6904,59.3856],[25.6913,59.3848],[25.6903,59.3846],[25.6902,59.3844],[25.6914,59.3839],[25.6919,59.3831],[25.6914,59.383],[25.6914,59.3828],[25.6934,59.3818],[25.6954,59.3817],[25.6961,59.3824],[25.6967,59.3821],[25.6978,59.3822],[25.699,59.3818],[25.6996,59.382],[25.7002,59.381],[25.7002,59.3796],[25.7005,59.3787],[25.6991,59.3781],[25.6997,59.3774],[25.6989,59.3764],[25.6992,59.3762],[25.6999,59.3761],[25.6992,59.3756],[25.6992,59.3751],[25.6996,59.375],[25.7,59.3744],[25.6994,59.374],[25.7001,59.3737],[25.7,59.3719],[25.7014,59.3723],[25.7002,59.3721],[25.7002,59.3727],[25.701,59.3731],[25.7002,59.3738],[25.6997,59.3741],[25.7003,59.3744],[25.6993,59.3755],[25.7002,59.3757],[25.7001,59.3762],[25.6993,59.3763],[25.6995,59.3771],[25.6999,59.3774],[25.6993,59.3781],[25.7006,59.3785],[25.7007,59.3796],[25.7004,59.3804],[25.701,59.3808],[25.6999,59.3821],[25.6988,59.3819],[25.6978,59.3823],[25.6967,59.3822],[25.6963,59.3825],[25.6955,59.3824],[25.695,59.3821],[25.6936,59.3822],[25.6933,59.3825],[25.6935,59.3829],[25.693,59.3832],[25.692,59.3833],[25.6913,59.3841],[25.6905,59.3846],[25.6915,59.3848],[25.6908,59.3857],[25.6895,59.3857]],[[25.6915,59.3829],[25.6928,59.3832],[25.6933,59.3829],[25.6929,59.3821],[25.692,59.3827],[25.6915,59.3829]]],[[[25.7016,59.3723],[25.7019,59.3716],[25.7011,59.3713],[25.7008,59.3701],[25.6998,59.3693],[25.6973,59.3688],[25.6972,59.3685],[25.699,59.3691],[25.6997,59.3691],[25.7002,59.3695],[25.701,59.3701],[25.7011,59.3712],[25.702,59.3711],[25.7018,59.3723],[25.7016,59.3723]]],[[[25.6972,59.3685],[25.697,59.3679],[25.6972,59.3679],[25.6972,59.3685]]],[[[25.6969,59.3679],[25.6965,59.3681],[25.696,59.368],[25.6949,59.3675],[25.6948,59.3673],[25.6952,59.367],[25.6958,59.3669],[25.6959,59.3663],[25.6961,59.367],[25.695,59.3673],[25.6962,59.368],[25.6969,59.3679]]],[[[25.6958,59.3661],[25.6951,59.3653],[25.6942,59.3652],[25.6939,59.3655],[25.6933,59.3654],[25.6938,59.3651],[25.6936,59.3639],[25.6942,59.3631],[25.6953,59.3628],[25.6944,59.362],[25.6954,59.3602],[25.6973,59.3597],[25.6973,59.359],[25.6978,59.3584],[25.6985,59.358],[25.7,59.3578],[25.7004,59.357],[25.7009,59.3567],[25.7037,59.3564],[25.704,59.3554],[25.7042,59.3563],[25.7037,59.3565],[25.7005,59.3571],[25.7008,59.3575],[25.7001,59.3579],[25.6991,59.358],[25.6978,59.3585],[25.6976,59.3589],[25.6975,59.3598],[25.6955,59.3604],[25.6946,59.3621],[25.6955,59.3625],[25.6955,59.3629],[25.6942,59.3633],[25.6939,59.3641],[25.6945,59.3644],[25.694,59.3646],[25.6939,59.3651],[25.6952,59.3653],[25.6958,59.366],[25.6958,59.3661]]],[[[25.6678,59.3932],[25.6676,59.3933],[25.6675,59.3933],[25.6678,59.3932]]],[[[25.6675,59.3933],[25.667,59.3933],[25.6667,59.3935],[25.6662,59.3933],[25.6658,59.3937],[25.6656,59.3937],[25.6658,59.3934],[25.6663,59.3932],[25.6672,59.3932],[25.6675,59.3933]]],[[[25.7055,59.3553],[25.7056,59.3544],[25.7053,59.3538],[25.7065,59.3535],[25.7067,59.3531],[25.7079,59.3529],[25.7082,59.3515],[25.7085,59.3511],[25.7095,59.3509],[25.7104,59.3501],[25.7115,59.35],[25.7124,59.3495],[25.7134,59.3497],[25.7134,59.3489],[25.7153,59.3487],[25.7165,59.3477],[25.7166,59.3469],[25.7181,59.3469],[25.7198,59.3476],[25.7211,59.3477],[25.724,59.3467],[25.724,59.3461],[25.7255,59.3457],[25.7255,59.3459],[25.7244,59.3462],[25.7244,59.3472],[25.7236,59.3471],[25.7217,59.3478],[25.72,59.3478],[25.7182,59.3472],[25.7168,59.347],[25.7167,59.3478],[25.7157,59.3488],[25.7139,59.3493],[25.7137,59.35],[25.7125,59.3496],[25.7115,59.3501],[25.7104,59.3502],[25.7103,59.3507],[25.7088,59.3518],[25.708,59.353],[25.7055,59.3539],[25.7058,59.3544],[25.7055,59.3553]]],[[[25.7604,59.3272],[25.7606,59.3264],[25.7612,59.3261],[25.7609,59.3259],[25.761,59.3255],[25.7608,59.3254],[25.7607,59.3254],[25.7606,59.3253],[25.7605,59.3251],[25.7613,59.3248],[25.7625,59.3235],[25.7641,59.3226],[25.7651,59.3227],[25.7653,59.3225],[25.7658,59.3226],[25.7659,59.3225],[25.7658,59.3224],[25.7657,59.3223],[25.7658,59.3221],[25.7652,59.3217],[25.7666,59.3213],[25.768,59.3216],[25.7686,59.3211],[25.7698,59.3208],[25.7709,59.3211],[25.7711,59.3204],[25.7724,59.3203],[25.7734,59.3204],[25.7735,59.3198],[25.7749,59.3196],[25.7751,59.3196],[25.7745,59.3201],[25.7736,59.3204],[25.7731,59.3205],[25.7725,59.3204],[25.7712,59.3211],[25.7658,59.322],[25.7659,59.3222],[25.766,59.3224],[25.7661,59.3225],[25.7659,59.3227],[25.7648,59.3229],[25.7645,59.3228],[25.7643,59.3228],[25.7625,59.3236],[25.762,59.3246],[25.7611,59.3252],[25.7607,59.3252],[25.7608,59.3253],[25.761,59.3253],[25.7611,59.3255],[25.7611,59.3259],[25.7615,59.3261],[25.7608,59.3265],[25.7609,59.3268],[25.7604,59.3272]]],[[[25.7752,59.3197],[25.7759,59.3198],[25.776,59.3197],[25.7761,59.3197],[25.7762,59.3196],[25.7764,59.3196],[25.7763,59.3195],[25.7761,59.3194],[25.7761,59.3192],[25.7753,59.319],[25.7755,59.3188],[25.7765,59.3188],[25.7764,59.3179],[25.777,59.3177],[25.7767,59.3187],[25.7762,59.3194],[25.7764,59.3194],[25.7766,59.3195],[25.7765,59.3196],[25.776,59.3199],[25.7757,59.3199],[25.7752,59.3197]]]]},"properties":{"fclass":"riverbank"}},
{"type":"Feature","geometry":{"type":"MultiPolygon","coordinates":[[[[26.0107,59.4266],[26.011,59.4256],[26.0117,59.4254],[26.0134,59.4252],[26.0142,59.4236],[26.0157,59.4229],[26.0174,59.4224],[26.0185,59.4214],[26.0204,59.4206],[26.0209,59.4203],[26.022,59.4197],[26.0241,59.419],[26.0252,59.4188],[26.0249,59.418],[26.0243,59.4176],[26.0242,59.4173],[26.0246,59.4172],[26.0275,59.4172],[26.0271,59.4173],[26.0245,59.4173],[26.0244,59.4175],[26.025,59.4179],[26.0256,59.4188],[26.0229,59.4195],[26.0229,59.4197],[26.0249,59.4206],[26.0247,59.4209],[26.0238,59.421],[26.0227,59.4211],[26.0203,59.4208],[26.0199,59.421],[26.0205,59.4219],[26.0203,59.4222],[26.0194,59.4221],[26.0185,59.4216],[26.0176,59.4225],[26.015,59.4233],[26.0143,59.4237],[26.0137,59.4253],[26.0119,59.4254],[26.0111,59.4258],[26.0111,59.4264],[26.0107,59.4266]],[[26.0187,59.4215],[26.0196,59.4221],[26.0204,59.4219],[26.0198,59.421],[26.0187,59.4215]],[[26.0204,59.4207],[26.0227,59.421],[26.023,59.421],[26.024,59.4209],[26.0247,59.4208],[26.0247,59.4206],[26.0226,59.4196],[26.0219,59.4199],[26.0204,59.4207]]],[[[26.0275,59.4172],[26.0289,59.4166],[26.0305,59.4155],[26.0291,59.4147],[26.0291,59.414],[26.0318,59.4142],[26.0292,59.4141],[26.0292,59.4146],[26.0307,59.4155],[26.029,59.4167],[26.0279,59.4171],[26.0275,59.4172]]],[[[26.0319,59.4142],[26.0328,59.4139],[26.0322,59.4129],[26.0318,59.4128],[26.0315,59.412],[26.0326,59.4113],[26.0319,59.4069],[26.0313,59.4065],[26.0313,59.4063],[26.0319,59.4068],[26.0328,59.4113],[26.0317,59.4121],[26.0324,59.4129],[26.0328,59.4137],[26.0329,59.4141],[26.0319,59.4142]]],[[[26.0313,59.4063],[26.0313,59.4058],[26.0323,59.4049],[26.0324,59.4034],[26.0329,59.4031],[26.0342,59.4017],[26.0345,59.4002],[26.0358,59.3997],[26.0372,59.3988],[26.037,59.3973],[26.0376,59.397],[26.0393,59.3974],[26.0397,59.3969],[26.0398,59.3957],[26.0405,59.3949],[26.0403,59.3939],[26.0418,59.3929],[26.0444,59.3923],[26.0451,59.392],[26.0446,59.3924],[26.0422,59.3929],[26.0404,59.3941],[26.0408,59.3949],[26.0399,59.3957],[26.0399,59.3968],[26.0396,59.3974],[26.039,59.3975],[26.0373,59.3972],[26.0371,59.3979],[26.0374,59.3987],[26.0368,59.3992],[26.0346,59.4004],[26.0343,59.4018],[26.0331,59.4031],[26.0324,59.4037],[26.0326,59.4045],[26.034,59.4048],[26.0339,59.4056],[26.0332,59.4058],[26.0319,59.4055],[26.0313,59.4063]],[[26.032,59.4054],[26.033,59.4057],[26.0338,59.4056],[26.0339,59.4049],[26.0326,59.4046],[26.032,59.4054]]],[[[26.0451,59.392],[26.0443,59.3916],[26.0452,59.3919],[26.0451,59.392]]],[[[26.0443,59.3916],[26.0441,59.3915],[26.0441,59.3906],[26.0447,59.3898],[26.0467,59.3894],[26.0469,59.389],[26.051,59.3883],[26.0521,59.3886],[26.0509,59.3884],[26.0471,59.389],[26.0468,59.3894],[26.0448,59.3899],[26.0444,59.3903],[26.0443,59.3916]]],[[[26.0521,59.3886],[26.0529,59.3882],[26.0546,59.3879],[26.0554,59.3883],[26.0549,59.3883],[26.0543,59.388],[26.0521,59.3886]]],[[[26.0554,59.3883],[26.0559,59.3878],[26.0573,59.3877],[26.0573,59.3866],[26.0576,59.3864],[26.0575,59.3877],[26.056,59.3878],[26.0556,59.3883],[26.0554,59.3883]]],[[[26.0576,59.3864],[26.0585,59.3858],[26.0591,59.385],[26.0586,59.3839],[26.0617,59.3811],[26.0622,59.38],[26.0644,59.3783],[26.0647,59.3771],[26.0664,59.3761],[26.0664,59.3756],[26.0658,59.3724],[26.0675,59.3716],[26.0696,59.3709],[26.0703,59.37],[26.0721,59.37],[26.0726,59.3696],[26.0762,59.3696],[26.0763,59.3686],[26.0783,59.3684],[26.0786,59.3679],[26.0795,59.3674],[26.0803,59.3674],[26.0816,59.3669],[26.0827,59.3671],[26.0836,59.367],[26.0918,59.3642],[26.0932,59.3633],[26.0929,59.3628],[26.0932,59.3612],[26.0943,59.3609],[26.0942,59.3603],[26.0948,59.3592],[26.0957,59.3592],[26.0957,59.3588],[26.096,59.3586],[26.0963,59.3583],[26.0963,59.3586],[26.0959,59.3588],[26.0959,59.3591],[26.0956,59.3593],[26.0949,59.3593],[26.0943,59.361],[26.0933,59.3613],[26.0931,59.3625],[26.0935,59.3632],[26.0921,59.3642],[26.0838,59.3671],[26.0829,59.3673],[26.0816,59.367],[26.0803,59.3675],[26.0796,59.3675],[26.0787,59.3679],[26.0783,59.3685],[26.0764,59.3687],[26.0765,59.3696],[26.0757,59.3698],[26.0728,59.3697],[26.0722,59.3701],[26.0702,59.3702],[26.07,59.3709],[26.0677,59.3717],[26.066,59.3724],[26.0665,59.375],[26.0667,59.3758],[26.0664,59.3764],[26.0649,59.3771],[26.0646,59.3783],[26.0619,59.3807],[26.0618,59.3812],[26.0612,59.3817],[26.0588,59.3839],[26.0592,59.3849],[26.0588,59.3857],[26.0576,59.3864]]],[[[26.0963,59.3583],[26.0965,59.3581],[26.0967,59.3575],[26.0973,59.3574],[26.0979,59.3566],[26.0979,59.3557],[26.098,59.3556],[26.098,59.3565],[26.0975,59.3574],[26.0968,59.3579],[26.0963,59.3583]]],[[[26.0107,59.4266],[26.0097,59.4266],[26.0092,59.4269],[26.0099,59.4274],[26.01,59.4276],[26.0091,59.427],[26.0093,59.4265],[26.0107,59.4266]]],[[[26.01,59.4276],[26.0101,59.4278],[26.008,59.4279],[26.0072,59.4278],[26.0078,59.4278],[26.01,59.4276]]],[[[26.0072,59.4278],[26.0061,59.4281],[26.0065,59.429],[26.0062,59.4293],[26.0055,59.4293],[26.0037,59.4289],[26.003,59.4296],[26.0019,59.4297],[26.0009,59.4296],[26.0009,59.4298],[26.001,59.4301],[26.001,59.4302],[26.0007,59.4305],[26.0003,59.4306],[26.0001,59.4307],[25.9994,59.4305],[25.9983,59.4299],[25.9976,59.4299],[25.9964,59.4307],[25.9945,59.4317],[25.9926,59.4316],[25.9912,59.4321],[25.99,59.4321],[25.9879,59.4329],[25.9875,59.4336],[25.9861,59.4342],[25.9863,59.4349],[25.9862,59.4351],[25.9855,59.4353],[25.9855,59.4351],[25.9861,59.435],[25.9858,59.4343],[25.9875,59.4334],[25.9878,59.4328],[25.9898,59.4321],[25.9911,59.432],[25.9928,59.4315],[25.9945,59.4316],[25.9949,59.4312],[25.9963,59.4306],[25.9974,59.4298],[25.9982,59.4298],[25.9999,59.4306],[26.0008,59.4302],[26.0007,59.4296],[26.0008,59.4295],[26.0009,59.4294],[26.0012,59.4293],[26.0018,59.4296],[26.0028,59.4295],[26.0031,59.4289],[26.0038,59.4288],[26.0062,59.4292],[26.0059,59.4286],[26.0059,59.4281],[26.0066,59.4278],[26.0072,59.4278]]],[[[25.9855,59.4353],[25.9869,59.4362],[25.9867,59.4368],[25.9882,59.4372],[25.9884,59.4376],[25.9869,59.4386],[25.9878,59.4393],[25.9878,59.4395],[25.9853,59.4401],[25.9839,59.4403],[25.9821,59.44],[25.9798,59.4401],[25.982,59.4399],[25.9835,59.4402],[25.9847,59.4401],[25.9872,59.4395],[25.9876,59.4393],[25.9868,59.4387],[25.9869,59.4383],[25.9882,59.4375],[25.9866,59.4368],[25.9867,59.4361],[25.9854,59.4356],[25.9855,59.4353]]],[[[25.9796,59.4401],[25.9794,59.4401],[25.9781,59.4396],[25.9786,59.4396],[25.9796,59.4401]]],[[[25.9781,59.4396],[25.9767,59.4397],[25.9763,59.44],[25.9755,59.4399],[25.9746,59.4392],[25.9745,59.4384],[25.9734,59.4388],[25.973,59.4388],[25.9725,59.4384],[25.9717,59.4382],[25.9705,59.4381],[25.9696,59.4384],[25.969,59.4389],[25.9671,59.439],[25.9648,59.4393],[25.9635,59.4399],[25.9647,59.4393],[25.9671,59.4389],[25.9688,59.4389],[25.9697,59.4382],[25.9704,59.438],[25.9717,59.4381],[25.9726,59.4384],[25.9731,59.4387],[25.9739,59.4383],[25.9747,59.4384],[25.975,59.4394],[25.976,59.4399],[25.9767,59.4396],[25.9781,59.4396]]],[[[25.9635,59.4399],[25.9635,59.4406],[25.967,59.4421],[25.9682,59.4421],[25.9693,59.4424],[25.9692,59.4432],[25.9683,59.4443],[25.9683,59.4445],[25.9681,59.4445],[25.9681,59.4442],[25.969,59.443],[25.9686,59.4423],[25.9666,59.4421],[25.9655,59.4422],[25.9653,59.4415],[25.9635,59.4407],[25.9633,59.44],[25.9635,59.4399]]],[[[26.1089,59.3497],[26.1094,59.3495],[26.1109,59.3502],[26.1099,59.3504],[26.1089,59.3497]]]]},"properties":{"fclass":"riverbank"}},
{"type":"Feature","geometry":{"type":"MultiPolygon","coordinates":[[[[26.3714,59.383],[26.3705,59.3825],[26.3706,59.3825],[26.3714,59.383]]],[[[26.3705,59.3825],[26.3697,59.3826],[26.3659,59.3819],[26.366,59.3818],[26.3696,59.3825],[26.3705,59.3825]]],[[[26.3659,59.3819],[26.3653,59.3827],[26.3639,59.3824],[26.3634,59.3821],[26.3631,59.3821],[26.3622,59.3826],[26.3628,59.3835],[26.3607,59.3839],[26.3616,59.3836],[26.3626,59.3835],[26.3621,59.3825],[26.3626,59.3822],[26.3627,59.3822],[26.3631,59.382],[26.3635,59.382],[26.3642,59.3824],[26.3653,59.3825],[26.3659,59.3819]]],[[[26.3597,59.3842],[26.3583,59.3846],[26.3577,59.3851],[26.3561,59.3852],[26.3562,59.385],[26.3579,59.3849],[26.3582,59.3842],[26.3592,59.3843],[26.3597,59.3842]]],[[[26.3561,59.3852],[26.3567,59.3859],[26.3551,59.3863],[26.3556,59.3865],[26.3552,59.3867],[26.355,59.3864],[26.354,59.3864],[26.3539,59.3861],[26.3555,59.3861],[26.3566,59.3859],[26.3561,59.3853],[26.3561,59.3852]]],[[[26.3551,59.3868],[26.3549,59.3869],[26.354,59.3868],[26.3542,59.3873],[26.3532,59.3878],[26.353,59.388],[26.3533,59.3876],[26.3541,59.3873],[26.3538,59.3868],[26.3542,59.3867],[26.3551,59.3868]]],[[[26.353,59.388],[26.3528,59.3881],[26.3522,59.3877],[26.3523,59.3877],[26.353,59.388]]],[[[26.3522,59.3877],[26.3505,59.3881],[26.3492,59.3872],[26.348,59.3872],[26.3473,59.3864],[26.3465,59.3862],[26.3475,59.3864],[26.3481,59.387],[26.3493,59.3871],[26.3506,59.388],[26.3518,59.3877],[26.3522,59.3877]]],[[[26.3465,59.3862],[26.3461,59.386],[26.3452,59.3844],[26.3442,59.3847],[26.3436,59.3843],[26.3444,59.3843],[26.3448,59.384],[26.3443,59.384],[26.3449,59.3838],[26.3457,59.3845],[26.3465,59.3857],[26.3465,59.3862]]],[[[26.3434,59.3839],[26.3431,59.384],[26.3432,59.3835],[26.3429,59.3834],[26.3426,59.3835],[26.3428,59.3834],[26.3431,59.3833],[26.3433,59.3835],[26.3433,59.3839],[26.3434,59.3839]]],[[[26.3424,59.3836],[26.3423,59.3836],[26.3413,59.3831],[26.342,59.3825],[26.3426,59.3828],[26.3416,59.3832],[26.3424,59.3836]]],[[[26.342,59.3825],[26.3397,59.3827],[26.3378,59.3823],[26.3376,59.3822],[26.3379,59.3821],[26.3394,59.3826],[26.3413,59.3822],[26.342,59.3825]]],[[[26.3382,59.382],[26.3381,59.3819],[26.3376,59.382],[26.3372,59.3819],[26.3371,59.3818],[26.3375,59.3819],[26.3378,59.3818],[26.3381,59.3817],[26.3383,59.3819],[26.3386,59.3819],[26.3382,59.382]]],[[[26.3368,59.3817],[26.3361,59.3819],[26.3348,59.3814],[26.3344,59.3811],[26.3326,59.381],[26.3318,59.3805],[26.3298,59.3808],[26.3298,59.3807],[26.3316,59.3804],[26.3317,59.3799],[26.3329,59.3801],[26.3329,59.3809],[26.3343,59.381],[26.3355,59.3816],[26.3363,59.3814],[26.3367,59.3817],[26.3368,59.3817]]],[[[26.3714,59.383],[26.3726,59.3827],[26.373,59.3828],[26.3728,59.3833],[26.3709,59.3835],[26.3716,59.3841],[26.3713,59.3847],[26.3728,59.3848],[26.3726,59.3851],[26.371,59.3848],[26.3715,59.3841],[26.3709,59.3837],[26.3707,59.3835],[26.371,59.3834],[26.3727,59.3832],[26.3728,59.3828],[26.3714,59.383]]],[[[26.3726,59.3851],[26.3725,59.3852],[26.3716,59.3855],[26.3715,59.386],[26.3733,59.3863],[26.372,59.3868],[26.3727,59.3873],[26.3725,59.3873],[26.3717,59.3868],[26.3725,59.3863],[26.3714,59.386],[26.3713,59.3856],[26.3726,59.3851]]],[[[26.3727,59.3873],[26.3741,59.3871],[26.3738,59.388],[26.3754,59.389],[26.3756,59.3895],[26.3769,59.3898],[26.3784,59.3906],[26.3787,59.3918],[26.3785,59.3926],[26.3802,59.3936],[26.3818,59.3937],[26.3829,59.3932],[26.3848,59.3928],[26.3862,59.3928],[26.3877,59.3922],[26.3882,59.3907],[26.3891,59.3905],[26.3893,59.3905],[26.3882,59.3909],[26.3879,59.3921],[26.3872,59.3926],[26.3858,59.393],[26.3837,59.3932],[26.3823,59.3941],[26.3801,59.3943],[26.38,59.3939],[26.3785,59.3929],[26.3782,59.3908],[26.3768,59.3898],[26.3755,59.3896],[26.3753,59.3891],[26.3735,59.3879],[26.3739,59.3873],[26.3727,59.3873]]],[[[26.3903,59.3906],[26.3915,59.3907],[26.3919,59.3909],[26.3934,59.3909],[26.3952,59.3915],[26.3997,59.3918],[26.4004,59.3925],[26.3994,59.3927],[26.398,59.3926],[26.3977,59.3932],[26.3987,59.394],[26.3984,59.3942],[26.3985,59.394],[26.3979,59.3937],[26.3976,59.393],[26.3979,59.3925],[26.4001,59.3925],[26.3995,59.3918],[26.3951,59.3915],[26.3936,59.391],[26.3921,59.391],[26.3903,59.3906]]],[[[26.3984,59.3942],[26.3982,59.3943],[26.3976,59.3943],[26.3976,59.3945],[26.3986,59.3948],[26.3974,59.3946],[26.3974,59.3943],[26.3984,59.3942]]],[[[26.3987,59.3948],[26.399,59.3949],[26.3991,59.3952],[26.3983,59.3957],[26.3992,59.3963],[26.3995,59.3967],[26.3988,59.3974],[26.3988,59.3977],[26.4002,59.3982],[26.4003,59.3984],[26.3995,59.3992],[26.4003,59.3995],[26.3999,59.3995],[26.3993,59.3992],[26.4001,59.3984],[26.399,59.3979],[26.3986,59.3976],[26.3987,59.3974],[26.3992,59.3964],[26.3981,59.3957],[26.399,59.3952],[26.3987,59.3948]]],[[[26.4007,59.3995],[26.4037,59.3991],[26.4039,59.3992],[26.4054,59.3999],[26.4055,59.4003],[26.405,59.4005],[26.404,59.4017],[26.4039,59.4033],[26.4014,59.4071],[26.4013,59.408],[26.3997,59.4086],[26.399,59.4097],[26.3973,59.4106],[26.3959,59.4109],[26.3952,59.4117],[26.3954,59.4124],[26.3947,59.4137],[26.3926,59.4144],[26.3923,59.4149],[26.394,59.4157],[26.3938,59.4163],[26.393,59.4168],[26.393,59.4165],[26.3937,59.4162],[26.3937,59.4156],[26.3921,59.415],[26.3924,59.4144],[26.3942,59.4138],[26.3951,59.4124],[26.3951,59.4116],[26.3956,59.4108],[26.3972,59.4105],[26.3988,59.4097],[26.3996,59.4085],[26.401,59.408],[26.4015,59.4064],[26.4036,59.4034],[26.4039,59.4016],[26.4053,59.4001],[26.4041,59.3993],[26.4007,59.3995]]],[[[26.3929,59.417],[26.3932,59.4188],[26.3926,59.4192],[26.3924,59.4206],[26.3926,59.4216],[26.3913,59.4221],[26.3913,59.4236],[26.391,59.4246],[26.39,59.4256],[26.3902,59.4268],[26.3879,59.4282],[26.388,59.429],[26.3862,59.4302],[26.383,59.4311],[26.3825,59.4319],[26.3825,59.4327],[26.3816,59.4336],[26.3818,59.4347],[26.3815,59.436],[26.3791,59.4385],[26.3778,59.4385],[26.3776,59.4396],[26.3782,59.4405],[26.3779,59.4408],[26.3763,59.4409],[26.3764,59.4415],[26.3775,59.4424],[26.3775,59.4431],[26.3768,59.4436],[26.3754,59.4439],[26.3751,59.4446],[26.3738,59.4448],[26.3724,59.4453],[26.3712,59.447],[26.3711,59.447],[26.3707,59.447],[26.371,59.4469],[26.372,59.4454],[26.3738,59.4447],[26.375,59.4444],[26.3751,59.4439],[26.3771,59.4433],[26.3774,59.4427],[26.3762,59.4416],[26.3762,59.4408],[26.378,59.4406],[26.3774,59.4396],[26.3773,59.4389],[26.3778,59.4384],[26.3789,59.4384],[26.3814,59.436],[26.3816,59.4347],[26.3814,59.4336],[26.3823,59.4328],[26.3824,59.4318],[26.3828,59.4312],[26.3833,59.4308],[26.3861,59.4302],[26.3878,59.4289],[26.3877,59.4282],[26.3899,59.4269],[26.3899,59.4254],[26.391,59.4244],[26.3911,59.4221],[26.3925,59.4215],[26.3922,59.4205],[26.3923,59.4193],[26.393,59.4186],[26.3927,59.4183],[26.3929,59.417]]]]},"properties":{"fclass":"riverbank"}},
{"type":"Feature","geometry":{"type":"MultiPolygon","coordinates":[[[[26.1923,59.02],[26.1927,59.0196],[26.1929,59.0196],[26.1932,59.0198],[26.1974,59.0192],[26.1976,59.019],[26.1975,59.0189],[26.1968,59.0187],[26.1966,59.0184],[26.1974,59.0165],[26.1978,59.0165],[26.2003,59.0154],[26.2004,59.0136],[26.2013,59.0128],[26.2023,59.0128],[26.2026,59.012],[26.2035,59.0109],[26.2034,59.0105],[26.2038,59.0105],[26.2037,59.0116],[26.203,59.0118],[26.2024,59.0129],[26.2014,59.0129],[26.2006,59.0136],[26.2005,59.0145],[26.2007,59.0154],[26.1976,59.0166],[26.1969,59.0186],[26.1979,59.019],[26.1977,59.0192],[26.196,59.0196],[26.1924,59.02],[26.1923,59.02]]],[[[26.2052,58.9977],[26.2045,58.9973],[26.2045,58.9971],[26.2047,58.9971],[26.2047,58.9973],[26.2054,58.9976],[26.2063,58.999],[26.207,58.9993],[26.2081,59.0002],[26.2069,59.0012],[26.2079,59.002],[26.2085,59.0029],[26.2086,59.0032],[26.2077,59.002],[26.2067,59.0011],[26.2078,59.0002],[26.2061,58.9991],[26.2058,58.9984],[26.2057,58.9984],[26.2053,58.9978],[26.2052,58.9977]]],[[[26.2086,59.0033],[26.2086,59.0035],[26.2092,59.0038],[26.2091,59.0039],[26.2085,59.005],[26.209,59.0052],[26.209,59.0056],[26.2084,59.0057],[26.2081,59.0062],[26.2075,59.0065],[26.2074,59.0064],[26.2081,59.0058],[26.2078,59.0057],[26.2081,59.0055],[26.2085,59.0056],[26.2089,59.0055],[26.2084,59.0051],[26.2088,59.004],[26.2084,59.0035],[26.2086,59.0033]]]]},"properties":{"fclass":"riverbank"}},
{"type":"Feature","geometry":{"type":"MultiPolygon","coordinates":[[[[25.3312,59.3905],[25.3296,59.3901],[25.3285,59.3908],[25.3274,59.392],[25.3252,59.3936],[25.3218,59.395],[25.3207,59.3962],[25.3209,59.397],[25.3202,59.3978],[25.3186,59.3984],[25.3165,59.3985],[25.3146,59.3984],[25.3131,59.3985],[25.3111,59.3996],[25.3086,59.3995],[25.3059,59.4001],[25.3052,59.4005],[25.3041,59.4019],[25.3043,59.4022],[25.304,59.4036],[25.3033,59.404],[25.2995,59.4041],[25.299,59.4044],[25.2977,59.4056],[25.2961,59.4063],[25.2949,59.4065],[25.2916,59.4065],[25.2891,59.4059],[25.2885,59.4062],[25.2887,59.4082],[25.2877,59.4087],[25.2862,59.4091],[25.284,59.4103],[25.2805,59.4101],[25.2803,59.4106],[25.2793,59.4113],[25.2775,59.412],[25.272,59.4131],[25.2706,59.4135],[25.2692,59.4145],[25.2686,59.4154],[25.2668,59.4163],[25.2648,59.4165],[25.2633,59.416],[25.2624,59.4153],[25.2603,59.4144],[25.2591,59.4144],[25.2561,59.4152],[25.2551,59.4152],[25.2536,59.4149],[25.252,59.4141],[25.2501,59.4139],[25.2494,59.4142],[25.2486,59.4155],[25.2476,59.416],[25.2447,59.4162],[25.2417,59.4167],[25.2402,59.4174],[25.2406,59.4184],[25.242,59.4202],[25.2416,59.4218],[25.2397,59.4241],[25.2382,59.4246],[25.2375,59.4245],[25.2376,59.4242],[25.2385,59.4242],[25.2392,59.4238],[25.241,59.4213],[25.241,59.4206],[25.2407,59.4196],[25.2392,59.4177],[25.2401,59.4168],[25.2416,59.4163],[25.245,59.4159],[25.2471,59.4158],[25.248,59.4155],[25.2488,59.4141],[25.2494,59.4138],[25.2505,59.4136],[25.2526,59.414],[25.2538,59.4146],[25.2556,59.4149],[25.2573,59.4146],[25.2591,59.4142],[25.2612,59.4142],[25.2626,59.4149],[25.2637,59.4159],[25.2652,59.4162],[25.2671,59.416],[25.2684,59.4151],[25.2688,59.4145],[25.2705,59.4132],[25.2774,59.4118],[25.2787,59.4113],[25.2797,59.4104],[25.2804,59.4095],[25.2812,59.4093],[25.2841,59.4099],[25.2861,59.4087],[25.2876,59.4083],[25.288,59.4077],[25.2879,59.4061],[25.2891,59.4055],[25.2917,59.4061],[25.2949,59.4062],[25.2968,59.4055],[25.2984,59.4042],[25.2999,59.4037],[25.303,59.4037],[25.3035,59.4031],[25.3037,59.4017],[25.3046,59.4004],[25.3053,59.4],[25.3078,59.3994],[25.3109,59.3993],[25.3131,59.3981],[25.3164,59.3982],[25.3182,59.3981],[25.3194,59.3976],[25.3203,59.3965],[25.3209,59.3951],[25.3216,59.3947],[25.3248,59.3934],[25.3261,59.3926],[25.3284,59.3904],[25.3293,59.39],[25.3311,59.3903],[25.3317,59.3896],[25.3314,59.3882],[25.3324,59.3865],[25.3336,59.3853],[25.3346,59.3847],[25.3385,59.3827],[25.3399,59.3811],[25.3442,59.3806],[25.3441,59.3799],[25.3382,59.3783],[25.3377,59.378],[25.3368,59.3765],[25.3356,59.3762],[25.3328,59.3763],[25.3319,59.3761],[25.3307,59.3753],[25.3306,59.3745],[25.331,59.3731],[25.3315,59.3724],[25.3328,59.3718],[25.3326,59.3709],[25.3311,59.3699],[25.3302,59.3682],[25.3292,59.3677],[25.3287,59.3671],[25.329,59.3659],[25.3288,59.3653],[25.328,59.3648],[25.325,59.3644],[25.3229,59.364],[25.3225,59.3633],[25.3247,59.3623],[25.3253,59.3618],[25.3273,59.3595],[25.3292,59.3582],[25.3297,59.3565],[25.3306,59.3554],[25.3325,59.354],[25.334,59.3533],[25.3352,59.3525],[25.3354,59.3515],[25.3346,59.3507],[25.3345,59.3501],[25.3351,59.3498],[25.3368,59.3492],[25.3381,59.3477],[25.3383,59.3469],[25.3398,59.3443],[25.3406,59.3435],[25.3411,59.3423],[25.3426,59.3404],[25.3459,59.3383],[25.346,59.3378],[25.3445,59.3363],[25.3439,59.3361],[25.3421,59.3361],[25.3411,59.3358],[25.3405,59.3351],[25.3369,59.3341],[25.3365,59.3328],[25.3373,59.3318],[25.3385,59.3313],[25.341,59.3312],[25.3419,59.3314],[25.3432,59.3312],[25.3431,59.3307],[25.3418,59.3303],[25.3417,59.33],[25.3427,59.3286],[25.3425,59.3277],[25.3434,59.327],[25.3444,59.3267],[25.3459,59.327],[25.3485,59.3269],[25.35,59.3272],[25.3515,59.3272],[25.3518,59.3265],[25.3505,59.3262],[25.3507,59.3254],[25.3501,59.3246],[25.3502,59.3246],[25.3515,59.3245],[25.3531,59.3252],[25.3543,59.3243],[25.3544,59.3232],[25.3526,59.3226],[25.3525,59.3219],[25.353,59.321],[25.3527,59.3199],[25.3531,59.3194],[25.3553,59.3198],[25.3566,59.3191],[25.3544,59.319],[25.3533,59.3187],[25.3533,59.3177],[25.3519,59.3166],[25.351,59.3153],[25.3477,59.315],[25.346,59.3147],[25.3459,59.3141],[25.3465,59.3139],[25.3465,59.313],[25.3468,59.3124],[25.3454,59.3119],[25.346,59.3114],[25.3471,59.3114],[25.3483,59.3108],[25.3499,59.3103],[25.3517,59.3105],[25.3527,59.3102],[25.3542,59.3093],[25.3566,59.3087],[25.3583,59.3087],[25.3593,59.3085],[25.3607,59.3078],[25.3607,59.3075],[25.3599,59.3066],[25.3609,59.3043],[25.3605,59.3038],[25.3608,59.3028],[25.3626,59.3012],[25.3646,59.3012],[25.3662,59.3015],[25.3668,59.3013],[25.3672,59.2998],[25.3679,59.299],[25.3672,59.2981],[25.3679,59.2973],[25.3707,59.2963],[25.3721,59.2962],[25.3746,59.2965],[25.3756,59.2962],[25.3786,59.2945],[25.3825,59.2929],[25.3836,59.2926],[25.3841,59.292],[25.3857,59.2919],[25.3857,59.2914],[25.3832,59.2916],[25.3823,59.292],[25.3812,59.2913],[25.3817,59.2907],[25.3827,59.2903],[25.3826,59.2894],[25.3838,59.288],[25.385,59.2873],[25.385,59.2867],[25.3857,59.2864],[25.3878,59.2864],[25.3895,59.2861],[25.3901,59.2867],[25.3917,59.2871],[25.3932,59.287],[25.3947,59.2861],[25.3951,59.2855],[25.3946,59.2848],[25.3955,59.2844],[25.3978,59.2848],[25.3986,59.2852],[25.3992,59.286],[25.3988,59.2863],[25.3982,59.2874],[25.3988,59.2875],[25.4006,59.2868],[25.4031,59.2851],[25.4053,59.2841],[25.4087,59.2848],[25.4093,59.2844],[25.4119,59.2833],[25.4125,59.2828],[25.4134,59.2807],[25.4143,59.2803],[25.4157,59.2801],[25.4161,59.279],[25.4173,59.2784],[25.4187,59.2769],[25.4202,59.2759],[25.4209,59.276],[25.4221,59.2752],[25.4232,59.2747],[25.4247,59.2746],[25.4293,59.2717],[25.4321,59.2719],[25.4331,59.2715],[25.4342,59.2705],[25.4346,59.2693],[25.4353,59.2688],[25.4369,59.2684],[25.4386,59.2677],[25.4421,59.2677],[25.4447,59.268],[25.4455,59.2676],[25.4468,59.2677],[25.4466,59.2668],[25.4456,59.2662],[25.4455,59.265],[25.444,59.2642],[25.4442,59.2635],[25.4455,59.2636],[25.4468,59.2639],[25.4473,59.2633],[25.4457,59.2619],[25.4458,59.2611],[25.4472,59.26],[25.4469,59.2592],[25.4472,59.2587],[25.4485,59.2585],[25.4491,59.2579],[25.4482,59.2567],[25.45,59.2562],[25.4506,59.2558],[25.4504,59.2553],[25.4494,59.2545],[25.4494,59.2537],[25.4511,59.2524],[25.4508,59.252],[25.4486,59.2514],[25.4483,59.2496],[25.4486,59.2487],[25.4492,59.2479],[25.4506,59.2472],[25.4519,59.2458],[25.453,59.2452],[25.452,59.2441],[25.4512,59.2423],[25.4522,59.2415],[25.4529,59.2407],[25.4538,59.2404],[25.4534,59.24],[25.4545,59.2397],[25.4551,59.2387],[25.4541,59.2374],[25.4544,59.2367],[25.455,59.2363],[25.4559,59.2364],[25.4574,59.2357],[25.4575,59.2351],[25.4568,59.2348],[25.4573,59.2338],[25.4578,59.2336],[25.457,59.2348],[25.4577,59.2352],[25.4576,59.2357],[25.4562,59.2365],[25.4552,59.2364],[25.4545,59.2368],[25.4545,59.2377],[25.4552,59.2384],[25.4552,59.2388],[25.4546,59.2398],[25.4536,59.24],[25.454,59.2405],[25.4527,59.2411],[25.4514,59.2424],[25.452,59.2439],[25.453,59.245],[25.4531,59.2454],[25.452,59.2459],[25.4508,59.2472],[25.4494,59.2479],[25.4487,59.2487],[25.4484,59.2495],[25.4488,59.2503],[25.4488,59.2514],[25.4512,59.2521],[25.4513,59.2526],[25.4496,59.2538],[25.4498,59.2546],[25.4506,59.2553],[25.4508,59.2558],[25.4505,59.2562],[25.4484,59.2568],[25.4494,59.2579],[25.4488,59.2586],[25.4472,59.2589],[25.4475,59.26],[25.446,59.2612],[25.4459,59.2618],[25.4476,59.2632],[25.4467,59.264],[25.4448,59.2637],[25.4441,59.2639],[25.4458,59.2649],[25.4474,59.2677],[25.4471,59.2679],[25.4469,59.2679],[25.4454,59.2679],[25.4444,59.2682],[25.442,59.2678],[25.4385,59.2679],[25.437,59.2686],[25.4353,59.2691],[25.4348,59.2696],[25.4345,59.2706],[25.4329,59.272],[25.4322,59.2721],[25.4296,59.272],[25.4288,59.2727],[25.428,59.2729],[25.4248,59.2748],[25.4229,59.2751],[25.4209,59.2762],[25.4205,59.2762],[25.419,59.277],[25.4157,59.2805],[25.4144,59.2805],[25.4136,59.2809],[25.4128,59.283],[25.4131,59.2831],[25.4096,59.2846],[25.409,59.2851],[25.4069,59.2848],[25.4057,59.2843],[25.4051,59.2844],[25.4027,59.2857],[25.4016,59.2867],[25.3988,59.2878],[25.3979,59.2877],[25.3976,59.2867],[25.3983,59.2857],[25.3981,59.2852],[25.3956,59.2847],[25.395,59.2849],[25.3955,59.2859],[25.3953,59.2863],[25.3933,59.2874],[25.3915,59.2874],[25.389,59.2869],[25.3891,59.2882],[25.3883,59.2887],[25.3859,59.2886],[25.3849,59.2884],[25.3833,59.2896],[25.3841,59.2898],[25.3869,59.2891],[25.386,59.2901],[25.3868,59.2915],[25.3856,59.2924],[25.3847,59.2924],[25.3841,59.293],[25.383,59.2931],[25.3817,59.2937],[25.379,59.2947],[25.3756,59.2966],[25.374,59.2967],[25.3711,59.2965],[25.3686,59.2975],[25.3678,59.298],[25.3685,59.2989],[25.368,59.2998],[25.3676,59.3015],[25.3672,59.3018],[25.3654,59.302],[25.3648,59.3018],[25.3631,59.3018],[25.3623,59.303],[25.3626,59.3047],[25.3624,59.3052],[25.3605,59.3062],[25.3612,59.3073],[25.3614,59.3068],[25.3638,59.3065],[25.3654,59.3067],[25.3675,59.3076],[25.368,59.308],[25.368,59.3083],[25.3669,59.309],[25.3647,59.309],[25.3638,59.3093],[25.3637,59.3101],[25.3628,59.3107],[25.362,59.3109],[25.3585,59.3105],[25.3544,59.3116],[25.351,59.3119],[25.3496,59.3124],[25.3475,59.3125],[25.3474,59.3136],[25.3465,59.3141],[25.3464,59.3147],[25.3472,59.3149],[25.3506,59.3151],[25.3513,59.3153],[25.3519,59.3162],[25.3538,59.3178],[25.3535,59.3185],[25.355,59.3189],[25.3564,59.3187],[25.357,59.3192],[25.3547,59.3205],[25.354,59.3206],[25.3534,59.3211],[25.3529,59.3222],[25.3545,59.323],[25.3549,59.324],[25.3533,59.3254],[25.3522,59.3253],[25.3511,59.3246],[25.3511,59.326],[25.3525,59.3264],[25.3518,59.3274],[25.3499,59.3274],[25.3475,59.3273],[25.346,59.3273],[25.344,59.3271],[25.3428,59.328],[25.3432,59.3287],[25.343,59.3293],[25.3423,59.3299],[25.3436,59.3306],[25.3439,59.3312],[25.3429,59.3316],[25.3389,59.3316],[25.338,59.3318],[25.3371,59.3327],[25.3372,59.3333],[25.3378,59.334],[25.3404,59.3347],[25.3416,59.3356],[25.3443,59.3358],[25.346,59.3366],[25.3466,59.3375],[25.3467,59.3376],[25.3464,59.3385],[25.3459,59.3391],[25.344,59.3402],[25.3427,59.3412],[25.3414,59.3427],[25.3415,59.3434],[25.341,59.3441],[25.3401,59.3446],[25.3396,59.3457],[25.3386,59.3472],[25.3386,59.3478],[25.3375,59.3491],[25.3352,59.3499],[25.3348,59.3504],[25.3355,59.351],[25.3359,59.3519],[25.3357,59.3525],[25.3347,59.3532],[25.3332,59.3539],[25.3309,59.3556],[25.33,59.3568],[25.3295,59.3583],[25.3275,59.3597],[25.326,59.3617],[25.3251,59.3625],[25.3228,59.3634],[25.3232,59.3639],[25.3251,59.3642],[25.3274,59.3644],[25.329,59.365],[25.3294,59.366],[25.3291,59.367],[25.3296,59.3676],[25.3308,59.3684],[25.3314,59.3696],[25.3331,59.3709],[25.3332,59.3718],[25.3319,59.3726],[25.3315,59.3731],[25.3311,59.3751],[25.3318,59.3758],[25.3335,59.3761],[25.336,59.376],[25.3371,59.3763],[25.3383,59.3781],[25.3441,59.3797],[25.345,59.3804],[25.3444,59.3808],[25.3405,59.3811],[25.3401,59.3813],[25.339,59.3826],[25.338,59.3832],[25.3349,59.3848],[25.3332,59.3861],[25.3323,59.3875],[25.3318,59.3886],[25.3321,59.3894],[25.3315,59.3905],[25.3312,59.3905]],[[25.3855,59.287],[25.3869,59.2882],[25.3881,59.2883],[25.386,59.2866],[25.3855,59.287]]],[[[25.4578,59.2336],[25.4588,59.2332],[25.4584,59.2328],[25.459,59.2329],[25.459,59.2333],[25.4578,59.2336]]],[[[25.4578,59.2328],[25.4569,59.2327],[25.4563,59.2321],[25.4574,59.2313],[25.4595,59.2301],[25.4586,59.2296],[25.458,59.2284],[25.4566,59.2281],[25.4574,59.2275],[25.4568,59.2272],[25.4547,59.2274],[25.4538,59.2278],[25.4534,59.2278],[25.4548,59.2272],[25.4568,59.227],[25.4574,59.2273],[25.4575,59.2277],[25.4571,59.2281],[25.4579,59.2282],[25.4585,59.2293],[25.4597,59.23],[25.4597,59.2303],[25.458,59.231],[25.4565,59.2321],[25.4573,59.2327],[25.4578,59.2328]]],[[[25.4532,59.2277],[25.4528,59.2277],[25.4521,59.2267],[25.4512,59.226],[25.4516,59.2252],[25.4513,59.2242],[25.4542,59.2222],[25.4542,59.222],[25.4531,59.2209],[25.4511,59.2201],[25.4505,59.2196],[25.448,59.2185],[25.4469,59.2178],[25.4471,59.217],[25.4464,59.2162],[25.4465,59.2157],[25.4486,59.2157],[25.4483,59.2146],[25.4478,59.2141],[25.4457,59.2128],[25.4448,59.2123],[25.4428,59.2135],[25.4421,59.2133],[25.4416,59.2119],[25.4405,59.2112],[25.4392,59.2111],[25.4411,59.2112],[25.442,59.212],[25.4424,59.2133],[25.4449,59.2121],[25.4475,59.2135],[25.4484,59.2144],[25.4488,59.2159],[25.4477,59.2158],[25.4473,59.2158],[25.4466,59.2161],[25.4476,59.2171],[25.4478,59.2173],[25.4484,59.2183],[25.4499,59.2189],[25.4512,59.2191],[25.4519,59.2203],[25.4528,59.2206],[25.4542,59.2215],[25.4545,59.222],[25.4541,59.2226],[25.453,59.2232],[25.4529,59.2236],[25.4516,59.2242],[25.4519,59.225],[25.4514,59.2259],[25.4524,59.2266],[25.4526,59.2274],[25.4532,59.2277]]],[[[25.4385,59.211],[25.4378,59.2109],[25.4374,59.2104],[25.4357,59.2097],[25.4356,59.2088],[25.436,59.2084],[25.4359,59.2076],[25.4376,59.2064],[25.4404,59.2054],[25.4421,59.2052],[25.4458,59.2035],[25.4448,59.2021],[25.4441,59.2015],[25.4443,59.2011],[25.447,59.2011],[25.4479,59.201],[25.4494,59.2003],[25.451,59.2005],[25.452,59.2001],[25.4521,59.1992],[25.4513,59.1984],[25.4516,59.1977],[25.4523,59.1974],[25.4519,59.1966],[25.4505,59.1957],[25.4495,59.1947],[25.4482,59.1941],[25.448,59.1938],[25.4488,59.1929],[25.4477,59.1919],[25.4473,59.191],[25.4472,59.1903],[25.4477,59.1899],[25.4503,59.1893],[25.4538,59.1896],[25.4547,59.1896],[25.4572,59.189],[25.4588,59.1891],[25.4601,59.1896],[25.4607,59.1906],[25.4598,59.1897],[25.4586,59.1893],[25.4569,59.1892],[25.4552,59.1896],[25.454,59.1897],[25.4505,59.1895],[25.4477,59.19],[25.4476,59.1914],[25.4488,59.1925],[25.4489,59.1931],[25.4484,59.194],[25.4495,59.1945],[25.4509,59.1958],[25.4526,59.1969],[25.4517,59.1986],[25.4524,59.1991],[25.4524,59.2002],[25.4512,59.2007],[25.4498,59.2006],[25.448,59.2012],[25.4447,59.2013],[25.4449,59.2019],[25.4461,59.2032],[25.4457,59.204],[25.4438,59.2047],[25.4415,59.2054],[25.4402,59.2056],[25.4375,59.2067],[25.4364,59.2076],[25.4359,59.2089],[25.4362,59.2098],[25.4376,59.2104],[25.4385,59.211]]],[[[25.4607,59.1906],[25.4618,59.1907],[25.463,59.1904],[25.4643,59.1906],[25.4664,59.1908],[25.4704,59.1889],[25.4711,59.1887],[25.4723,59.188],[25.4729,59.1873],[25.473,59.186],[25.4741,59.185],[25.476,59.1845],[25.4779,59.1836],[25.4792,59.1827],[25.4794,59.1826],[25.4783,59.1836],[25.4761,59.1846],[25.4742,59.1852],[25.4732,59.1862],[25.4732,59.1872],[25.4726,59.188],[25.471,59.1889],[25.4705,59.189],[25.4676,59.1904],[25.4664,59.1909],[25.4641,59.1908],[25.4631,59.1905],[25.4617,59.1909],[25.4609,59.1908],[25.4607,59.1906]]],[[[25.4795,59.1826],[25.4816,59.1818],[25.483,59.1798],[25.4823,59.1782],[25.4843,59.178],[25.4845,59.1775],[25.4856,59.1769],[25.4855,59.1763],[25.4845,59.1751],[25.4843,59.175],[25.4844,59.1746],[25.485,59.174],[25.4851,59.1729],[25.4839,59.1725],[25.4843,59.1713],[25.4834,59.1704],[25.4837,59.1689],[25.4844,59.1678],[25.4869,59.1655],[25.4885,59.1642],[25.4893,59.1633],[25.4893,59.1626],[25.4904,59.1626],[25.4916,59.1618],[25.4933,59.1598],[25.4936,59.1596],[25.4956,59.1583],[25.4961,59.1575],[25.4984,59.1566],[25.4996,59.1548],[25.5006,59.1541],[25.5016,59.1539],[25.5055,59.1537],[25.508,59.1519],[25.5111,59.1512],[25.5117,59.1506],[25.5124,59.1504],[25.511,59.1513],[25.5081,59.152],[25.5074,59.1526],[25.5055,59.1538],[25.5019,59.154],[25.5007,59.1542],[25.4999,59.1548],[25.4985,59.1567],[25.4964,59.1576],[25.4953,59.1587],[25.493,59.1605],[25.4917,59.1619],[25.4909,59.1626],[25.4894,59.1627],[25.4895,59.1632],[25.4888,59.1641],[25.4882,59.1645],[25.4846,59.1678],[25.4838,59.1692],[25.4836,59.1704],[25.4845,59.1712],[25.4841,59.1724],[25.4851,59.1728],[25.4852,59.1742],[25.4845,59.1749],[25.4858,59.1763],[25.4856,59.1771],[25.4847,59.1775],[25.4846,59.178],[25.4825,59.1783],[25.4833,59.1796],[25.4827,59.1803],[25.4819,59.1818],[25.4806,59.1824],[25.4795,59.1826]]],[[[25.5126,59.1503],[25.5129,59.1502],[25.5148,59.1502],[25.5152,59.1511],[25.5161,59.1511],[25.5178,59.1505],[25.518,59.1504],[25.5159,59.1512],[25.515,59.1511],[25.5143,59.1503],[25.5126,59.1503]]],[[[25.5182,59.1504],[25.5212,59.1494],[25.5225,59.1481],[25.5217,59.1469],[25.5222,59.1456],[25.5222,59.1444],[25.523,59.1438],[25.5246,59.1432],[25.5263,59.1427],[25.5259,59.1423],[25.5263,59.1419],[25.5275,59.1418],[25.5298,59.1405],[25.5309,59.1405],[25.5334,59.1395],[25.5335,59.1376],[25.5342,59.1363],[25.5344,59.1343],[25.5362,59.1339],[25.5372,59.1328],[25.5384,59.1325],[25.5385,59.1315],[25.5397,59.129],[25.5404,59.1288],[25.5408,59.1283],[25.5406,59.1288],[25.5399,59.1291],[25.5387,59.1315],[25.5386,59.1326],[25.5374,59.1329],[25.5363,59.1341],[25.5347,59.1344],[25.5345,59.1362],[25.5337,59.1377],[25.5335,59.1395],[25.5311,59.1406],[25.53,59.1406],[25.5276,59.1419],[25.5263,59.142],[25.5266,59.1428],[25.524,59.1436],[25.5225,59.1444],[25.5224,59.1457],[25.522,59.1468],[25.5227,59.1484],[25.5211,59.1496],[25.5182,59.1504]]],[[[25.5408,59.1283],[25.5407,59.1276],[25.5421,59.1272],[25.5427,59.1267],[25.5446,59.1261],[25.5449,59.1254],[25.5473,59.1236],[25.5468,59.1228],[25.55,59.1222],[25.5544,59.1217],[25.5604,59.1212],[25.5613,59.1211],[25.5644,59.1194],[25.5688,59.1172],[25.5701,59.1162],[25.5699,59.1149],[25.5702,59.1144],[25.5696,59.1138],[25.5686,59.108],[25.5669,59.1033],[25.5667,59.101],[25.5657,59.1001],[25.5631,59.0983],[25.5619,59.0962],[25.56,59.0955],[25.5586,59.0947],[25.5559,59.0926],[25.5547,59.091],[25.5549,59.0901],[25.5543,59.0898],[25.5522,59.0878],[25.5483,59.0875],[25.5441,59.0864],[25.5428,59.0851],[25.5377,59.0804],[25.5356,59.0781],[25.5337,59.0766],[25.532,59.0755],[25.5315,59.0739],[25.5315,59.0728],[25.5309,59.0719],[25.5308,59.0711],[25.5299,59.0707],[25.5294,59.0694],[25.5292,59.0678],[25.5238,59.0636],[25.5246,59.0618],[25.5255,59.0607],[25.5246,59.0599],[25.5242,59.0592],[25.5235,59.0587],[25.5237,59.0581],[25.5249,59.0567],[25.5252,59.0561],[25.5288,59.0553],[25.5315,59.0549],[25.533,59.0548],[25.5377,59.0553],[25.5398,59.0558],[25.542,59.0553],[25.5436,59.054],[25.5437,59.0539],[25.5441,59.0539],[25.5442,59.0539],[25.545,59.0534],[25.5447,59.0522],[25.5462,59.0502],[25.5466,59.0491],[25.5477,59.0484],[25.5482,59.0478],[25.5492,59.0481],[25.5505,59.0481],[25.5512,59.047],[25.5526,59.0468],[25.5539,59.0461],[25.5566,59.0463],[25.5593,59.0467],[25.5601,59.0471],[25.5622,59.0468],[25.5617,59.0471],[25.56,59.0472],[25.5578,59.0465],[25.5557,59.047],[25.5551,59.0463],[25.5539,59.0462],[25.5528,59.0468],[25.5514,59.0471],[25.5506,59.0482],[25.548,59.0484],[25.5468,59.0491],[25.5464,59.0503],[25.5449,59.0522],[25.5451,59.0535],[25.5443,59.054],[25.5442,59.054],[25.5438,59.0541],[25.5421,59.0554],[25.5398,59.0559],[25.5381,59.0554],[25.5329,59.0549],[25.5316,59.055],[25.5289,59.0554],[25.5254,59.0562],[25.5251,59.0567],[25.5239,59.0582],[25.5237,59.0587],[25.5244,59.0591],[25.5248,59.0599],[25.5257,59.0608],[25.5248,59.0618],[25.5239,59.0636],[25.5291,59.0675],[25.5294,59.0679],[25.5296,59.0695],[25.53,59.0706],[25.531,59.0711],[25.5311,59.0719],[25.5317,59.0728],[25.5317,59.0738],[25.5322,59.0755],[25.5338,59.0765],[25.536,59.0782],[25.5379,59.0803],[25.543,59.0851],[25.5442,59.0863],[25.5484,59.0874],[25.5518,59.0876],[25.5524,59.0878],[25.5545,59.0897],[25.5551,59.09],[25.5549,59.091],[25.556,59.0925],[25.5588,59.0947],[25.5601,59.0954],[25.562,59.0961],[25.5633,59.0983],[25.5659,59.1],[25.5669,59.1008],[25.5671,59.1033],[25.5688,59.108],[25.5695,59.1121],[25.5699,59.114],[25.5704,59.1144],[25.5701,59.1149],[25.5702,59.1162],[25.5699,59.1167],[25.5689,59.1173],[25.5645,59.1194],[25.5637,59.12],[25.5635,59.12],[25.5614,59.1211],[25.5604,59.1213],[25.5544,59.1218],[25.5519,59.1221],[25.5517,59.1221],[25.548,59.1226],[25.5469,59.1229],[25.5475,59.1235],[25.5451,59.1254],[25.5448,59.1262],[25.5428,59.1268],[25.5424,59.1272],[25.5409,59.1277],[25.5409,59.128],[25.5408,59.1283]]],[[[25.5623,59.0468],[25.563,59.0461],[25.5629,59.0456],[25.5631,59.0454],[25.5633,59.0452],[25.5636,59.0452],[25.564,59.0451],[25.5645,59.0453],[25.5645,59.0455],[25.5645,59.0459],[25.5648,59.0462],[25.567,59.0461],[25.5685,59.0467],[25.5706,59.0464],[25.5717,59.0472],[25.5724,59.0473],[25.5736,59.0471],[25.5751,59.0472],[25.5756,59.0462],[25.5767,59.0463],[25.5768,59.0456],[25.5791,59.0451],[25.5799,59.0443],[25.5808,59.0439],[25.5814,59.0441],[25.5818,59.045],[25.5828,59.0447],[25.5833,59.0441],[25.5835,59.0433],[25.5855,59.0432],[25.5854,59.0426],[25.586,59.0421],[25.5872,59.0417],[25.5875,59.0418],[25.5861,59.0422],[25.5856,59.0432],[25.5836,59.0434],[25.5834,59.0441],[25.5846,59.0444],[25.5845,59.0448],[25.5829,59.0448],[25.5818,59.0451],[25.5809,59.044],[25.5798,59.0445],[25.5793,59.0452],[25.5771,59.0457],[25.5775,59.0464],[25.5757,59.0463],[25.5756,59.0471],[25.5751,59.0473],[25.5736,59.0472],[25.5728,59.0474],[25.5716,59.0473],[25.5705,59.0465],[25.5686,59.0468],[25.567,59.0462],[25.5647,59.0463],[25.5643,59.0459],[25.5643,59.0454],[25.5634,59.0453],[25.5632,59.0463],[25.5623,59.0468]]],[[[25.5877,59.0419],[25.5886,59.0423],[25.5885,59.0423],[25.5877,59.0419]]],[[[25.5891,59.0422],[25.5904,59.0418],[25.5908,59.0419],[25.5909,59.0424],[25.5931,59.0427],[25.5949,59.0433],[25.5954,59.0429],[25.5956,59.0428],[25.5961,59.0426],[25.5964,59.0427],[25.5971,59.0429],[25.5994,59.043],[25.5997,59.0428],[25.5996,59.0423],[25.5996,59.0421],[25.5995,59.0419],[25.5995,59.0418],[25.5997,59.0417],[25.6002,59.0415],[25.6004,59.0414],[25.6006,59.0415],[25.6023,59.0405],[25.603,59.0403],[25.6039,59.041],[25.6051,59.041],[25.6065,59.0401],[25.6066,59.0393],[25.6073,59.039],[25.6094,59.0396],[25.6103,59.0387],[25.6088,59.0379],[25.609,59.0374],[25.6107,59.0374],[25.6106,59.0366],[25.6124,59.0363],[25.6126,59.0363],[25.6139,59.0363],[25.6119,59.0364],[25.6107,59.0366],[25.6109,59.0374],[25.6091,59.0375],[25.609,59.0378],[25.6104,59.0387],[25.6101,59.0395],[25.6094,59.0397],[25.6075,59.0392],[25.6067,59.0395],[25.6067,59.0401],[25.6052,59.0411],[25.6038,59.0411],[25.6033,59.0406],[25.6024,59.0405],[25.6016,59.0411],[25.6014,59.0419],[25.6005,59.0416],[25.6004,59.0417],[25.6001,59.0417],[25.5998,59.0418],[25.5997,59.0419],[25.5998,59.0421],[25.5998,59.0423],[25.5999,59.0428],[25.5994,59.0431],[25.597,59.043],[25.5963,59.0427],[25.5961,59.0427],[25.5959,59.0428],[25.5957,59.0429],[25.595,59.0434],[25.5934,59.043],[25.5908,59.0425],[25.5906,59.042],[25.59,59.042],[25.5891,59.0422]]],[[[25.6139,59.0363],[25.6147,59.0363],[25.6153,59.0361],[25.6152,59.0355],[25.6157,59.0347],[25.618,59.0345],[25.6204,59.0345],[25.6226,59.0339],[25.6253,59.0339],[25.6261,59.0346],[25.6286,59.0352],[25.6289,59.036],[25.6305,59.0362],[25.6324,59.0366],[25.6331,59.0374],[25.633,59.0392],[25.6352,59.0389],[25.6369,59.0391],[25.6381,59.0405],[25.6401,59.0398],[25.6419,59.0402],[25.6429,59.0413],[25.6428,59.0417],[25.6409,59.0424],[25.6415,59.0428],[25.644,59.0433],[25.6408,59.0428],[25.6406,59.0426],[25.6407,59.0424],[25.6427,59.0416],[25.6428,59.0413],[25.6416,59.0402],[25.6401,59.0399],[25.6381,59.0406],[25.6376,59.0405],[25.6368,59.0392],[25.6352,59.039],[25.6327,59.0393],[25.633,59.0374],[25.6322,59.0366],[25.6287,59.036],[25.6284,59.0353],[25.6259,59.0347],[25.6252,59.034],[25.6226,59.034],[25.6201,59.0346],[25.6183,59.0346],[25.6158,59.0348],[25.6154,59.0355],[25.6154,59.0361],[25.6147,59.0364],[25.6139,59.0363]]],[[[25.644,59.0433],[25.6453,59.0441],[25.6457,59.0444],[25.6476,59.0448],[25.6479,59.0462],[25.6508,59.0469],[25.6518,59.0466],[25.6528,59.0469],[25.6524,59.0474],[25.6525,59.0476],[25.6527,59.0478],[25.6529,59.0481],[25.6537,59.0485],[25.6537,59.0489],[25.655,59.0493],[25.6562,59.0495],[25.6563,59.0497],[25.6559,59.0499],[25.6555,59.0503],[25.6562,59.0506],[25.6564,59.0506],[25.657,59.0507],[25.6571,59.0508],[25.6575,59.051],[25.6572,59.0516],[25.6562,59.0519],[25.6551,59.0526],[25.6561,59.0518],[25.6571,59.0515],[25.6573,59.051],[25.657,59.0508],[25.6566,59.0507],[25.6562,59.0507],[25.6557,59.0504],[25.6554,59.0504],[25.6554,59.0502],[25.6561,59.0495],[25.6544,59.0494],[25.6536,59.0489],[25.6536,59.0486],[25.6526,59.0481],[25.6526,59.0478],[25.6523,59.0476],[25.6522,59.0474],[25.6527,59.0469],[25.6518,59.0467],[25.6508,59.047],[25.6476,59.0462],[25.6477,59.0455],[25.6473,59.0448],[25.6465,59.0449],[25.6452,59.0441],[25.644,59.0433]]],[[[25.6551,59.0526],[25.6547,59.0532],[25.6546,59.0535],[25.6545,59.0535],[25.6543,59.0536],[25.6544,59.0541],[25.6558,59.0545],[25.6559,59.0546],[25.6563,59.0546],[25.6564,59.055],[25.6563,59.055],[25.6561,59.0551],[25.6558,59.0551],[25.6554,59.0556],[25.6552,59.0555],[25.6557,59.0546],[25.6542,59.0542],[25.6541,59.0536],[25.6546,59.0532],[25.6546,59.053],[25.6551,59.0526]]],[[[25.6558,59.0557],[25.6568,59.056],[25.6564,59.0568],[25.6582,59.057],[25.6589,59.0582],[25.6602,59.0589],[25.6593,59.0592],[25.6592,59.0591],[25.6601,59.0589],[25.6587,59.0582],[25.6586,59.0577],[25.6575,59.0576],[25.6577,59.0571],[25.6563,59.0569],[25.6566,59.056],[25.6558,59.0557]]],[[[25.6598,59.0595],[25.6608,59.0601],[25.6607,59.0606],[25.6607,59.0601],[25.6598,59.0595]]],[[[25.6612,59.0611],[25.6616,59.0616],[25.6619,59.0619],[25.6617,59.062],[25.6604,59.0632],[25.6602,59.0658],[25.6634,59.0688],[25.6633,59.0688],[25.66,59.0657],[25.6603,59.0632],[25.6609,59.0624],[25.6617,59.0619],[25.6616,59.0617],[25.6611,59.0616],[25.6612,59.0611]]],[[[25.6633,59.0689],[25.6635,59.0689],[25.667,59.0721],[25.6671,59.0722],[25.6669,59.0722],[25.6641,59.0696],[25.6634,59.069],[25.6633,59.0689]]],[[[25.6739,59.0783],[25.674,59.0783],[25.6798,59.0802],[25.6797,59.0803],[25.6739,59.0783]]],[[[25.7011,59.0896],[25.7012,59.0895],[25.7051,59.092],[25.705,59.0921],[25.7011,59.0896]]]]},"properties":{"fclass":"riverbank"}},
{"type":"Feature","geometry":{"type":"MultiPolygon","coordinates":[[[[25.25,59.1823],[25.25,59.1822],[25.2506,59.1819],[25.2515,59.1818],[25.2523,59.182],[25.2532,59.1814],[25.2542,59.1812],[25.2557,59.1814],[25.2562,59.1807],[25.2571,59.1809],[25.2579,59.1807],[25.2595,59.1811],[25.261,59.1808],[25.2606,59.1802],[25.262,59.1803],[25.2618,59.1797],[25.263,59.1791],[25.2628,59.18],[25.2613,59.1808],[25.2592,59.1812],[25.2577,59.1808],[25.2567,59.1816],[25.2548,59.1817],[25.2534,59.1814],[25.2523,59.1823],[25.2515,59.1819],[25.251,59.1823],[25.2502,59.1823],[25.25,59.1823]]],[[[25.263,59.1791],[25.2618,59.1786],[25.2615,59.1781],[25.2625,59.1777],[25.2618,59.1774],[25.2618,59.177],[25.2627,59.1765],[25.2633,59.1768],[25.2649,59.1764],[25.2657,59.176],[25.2682,59.1756],[25.2713,59.1744],[25.2719,59.1745],[25.2729,59.1749],[25.274,59.1752],[25.2741,59.1747],[25.2747,59.1744],[25.274,59.1739],[25.2748,59.1738],[25.2751,59.1732],[25.2748,59.1728],[25.2748,59.1727],[25.2758,59.1737],[25.2743,59.174],[25.2749,59.1744],[25.2743,59.1747],[25.2741,59.1752],[25.2737,59.1754],[25.2719,59.1746],[25.268,59.1758],[25.2658,59.176],[25.265,59.1765],[25.2635,59.1769],[25.2626,59.1768],[25.262,59.1773],[25.2626,59.1777],[25.2624,59.1778],[25.2617,59.1781],[25.2619,59.1786],[25.263,59.179],[25.263,59.1791]]],[[[25.3217,59.1235],[25.3197,59.1219],[25.3198,59.1214],[25.3249,59.119],[25.3293,59.117],[25.3359,59.1117],[25.3462,59.1089],[25.3465,59.1087],[25.3497,59.1052],[25.3512,59.1045],[25.3537,59.1039],[25.3549,59.1039],[25.3591,59.105],[25.3601,59.105],[25.3625,59.105],[25.3623,59.1051],[25.359,59.105],[25.3551,59.104],[25.3534,59.104],[25.3521,59.1043],[25.3499,59.1053],[25.3466,59.1089],[25.3463,59.109],[25.336,59.1119],[25.3309,59.1159],[25.3289,59.1174],[25.3203,59.1214],[25.3201,59.1219],[25.322,59.1233],[25.3241,59.1249],[25.3238,59.1253],[25.3217,59.1255],[25.3207,59.1242],[25.3217,59.1235]]]]},"properties":{"fclass":"riverbank"}},
{"type":"Feature","geometry":{"type":"Polygon","coordinates":[[[25.6474,59.0021],[25.6484,59.0015],[25.6476,59.0008],[25.6486,59.0016],[25.6474,59.0021]]]},"properties":{"fclass":"riverbank"}},
{"type":"Feature","geometry":{"type":"MultiPolygon","coordinates":[[[[25.98,59.2688],[25.9777,59.2697],[25.9763,59.2698],[25.9742,59.2704],[25.9732,59.2709],[25.9718,59.271],[25.9708,59.2715],[25.9707,59.2716],[25.9708,59.2718],[25.9705,59.272],[25.9692,59.2719],[25.9687,59.2726],[25.9673,59.2725],[25.9614,59.2752],[25.9616,59.2758],[25.9605,59.276],[25.9601,59.2761],[25.9599,59.2762],[25.9591,59.2765],[25.9589,59.2766],[25.9585,59.277],[25.9561,59.2774],[25.9554,59.2779],[25.9552,59.2786],[25.9548,59.2788],[25.9552,59.2778],[25.9561,59.2772],[25.958,59.2769],[25.959,59.2763],[25.96,59.276],[25.9603,59.2759],[25.9605,59.2759],[25.9613,59.2757],[25.9611,59.2751],[25.9636,59.2741],[25.9658,59.2728],[25.9668,59.2724],[25.9681,59.2724],[25.9692,59.2718],[25.9705,59.2715],[25.9706,59.2714],[25.9707,59.2713],[25.9708,59.2713],[25.9718,59.2709],[25.9722,59.2707],[25.9732,59.2708],[25.9748,59.2701],[25.9775,59.2695],[25.9783,59.2693],[25.9784,59.2692],[25.979,59.2689],[25.9792,59.2688],[25.9793,59.2688],[25.9796,59.2687],[25.98,59.2688]]],[[[25.9546,59.2789],[25.9533,59.2794],[25.9515,59.2797],[25.9512,59.2804],[25.9515,59.2814],[25.9498,59.2819],[25.95,59.2825],[25.9496,59.2828],[25.9482,59.2833],[25.9479,59.2839],[25.9465,59.2861],[25.9449,59.2866],[25.945,59.2864],[25.9463,59.2861],[25.9481,59.2831],[25.9496,59.2827],[25.9495,59.2817],[25.9513,59.2813],[25.951,59.2805],[25.9514,59.2795],[25.9531,59.2793],[25.9546,59.2789]]],[[[25.9449,59.2866],[25.9449,59.2875],[25.9454,59.2882],[25.9451,59.2884],[25.9446,59.2873],[25.9449,59.2866]]],[[[25.945,59.2884],[25.9441,59.289],[25.943,59.2893],[25.941,59.2907],[25.9408,59.2913],[25.9384,59.2915],[25.936,59.2915],[25.9351,59.2921],[25.9338,59.2923],[25.9326,59.2923],[25.9317,59.292],[25.9312,59.2919],[25.9309,59.2918],[25.9304,59.2918],[25.9301,59.292],[25.9299,59.292],[25.9297,59.2921],[25.9295,59.2922],[25.9282,59.2924],[25.9271,59.2924],[25.9263,59.2927],[25.9254,59.2926],[25.9252,59.2929],[25.9238,59.2929],[25.9233,59.2939],[25.9233,59.2945],[25.9214,59.2952],[25.9208,59.296],[25.9194,59.2969],[25.9187,59.2967],[25.9182,59.2974],[25.9182,59.2977],[25.9166,59.2989],[25.9162,59.2995],[25.9145,59.2994],[25.9161,59.2994],[25.9168,59.2985],[25.9181,59.2977],[25.918,59.2972],[25.9183,59.2969],[25.9183,59.2967],[25.9183,59.2966],[25.9184,59.2966],[25.9186,59.2965],[25.9188,59.2965],[25.9196,59.2967],[25.9212,59.2951],[25.9232,59.2944],[25.9232,59.2932],[25.9238,59.2928],[25.9253,59.2925],[25.9266,59.2925],[25.9273,59.2923],[25.9278,59.2923],[25.929,59.2921],[25.9292,59.2921],[25.9294,59.2921],[25.9305,59.2916],[25.9314,59.2917],[25.9318,59.2919],[25.9319,59.2919],[25.9321,59.292],[25.9336,59.2922],[25.9349,59.2919],[25.9354,59.2915],[25.9367,59.2913],[25.9405,59.2913],[25.9408,59.2907],[25.9429,59.2892],[25.945,59.2884]]],[[[25.9145,59.2994],[25.9136,59.3],[25.9125,59.3001],[25.9115,59.3004],[25.9117,59.3002],[25.9125,59.2999],[25.9136,59.2999],[25.9142,59.2994],[25.9145,59.2994]]],[[[25.9115,59.3004],[25.912,59.301],[25.9114,59.3018],[25.9098,59.3019],[25.9083,59.3026],[25.9074,59.3024],[25.907,59.3023],[25.9067,59.3022],[25.9066,59.3022],[25.9065,59.3024],[25.9066,59.3025],[25.9068,59.3026],[25.907,59.3028],[25.907,59.3031],[25.9047,59.3036],[25.9044,59.3043],[25.9032,59.3042],[25.9038,59.3051],[25.9032,59.3054],[25.9015,59.3055],[25.9006,59.3051],[25.8996,59.3051],[25.8994,59.3058],[25.898,59.3067],[25.8968,59.3065],[25.8981,59.3065],[25.8982,59.3055],[25.8991,59.3057],[25.8995,59.3048],[25.9001,59.3045],[25.9018,59.3054],[25.9035,59.3051],[25.9031,59.3041],[25.9042,59.3042],[25.9045,59.3035],[25.9068,59.303],[25.9066,59.3028],[25.9063,59.3024],[25.9067,59.3021],[25.9069,59.3021],[25.907,59.3022],[25.9076,59.3023],[25.9081,59.3025],[25.9084,59.3025],[25.9099,59.3017],[25.9111,59.3017],[25.9117,59.3011],[25.9113,59.3006],[25.9115,59.3004]]],[[[25.8968,59.3065],[25.8965,59.3074],[25.8955,59.3078],[25.8948,59.3079],[25.8964,59.3073],[25.8967,59.3065],[25.8968,59.3065]]],[[[25.8946,59.308],[25.893,59.3091],[25.8919,59.3094],[25.8913,59.31],[25.8896,59.3109],[25.89,59.3112],[25.8898,59.3117],[25.8897,59.3116],[25.8898,59.3112],[25.8894,59.3109],[25.892,59.3093],[25.8928,59.3091],[25.8929,59.3083],[25.8938,59.3085],[25.8945,59.308],[25.8946,59.308]]],[[[25.89,59.3118],[25.8902,59.3119],[25.8902,59.3121],[25.89,59.3122],[25.8898,59.3122],[25.8897,59.3122],[25.8895,59.3123],[25.8896,59.3124],[25.8897,59.3126],[25.8897,59.3128],[25.8895,59.3128],[25.8893,59.3128],[25.8884,59.3127],[25.8893,59.3127],[25.8894,59.3121],[25.8895,59.3121],[25.8899,59.3121],[25.89,59.3119],[25.89,59.3118]]],[[[25.8884,59.3127],[25.888,59.3133],[25.8883,59.3137],[25.8881,59.3137],[25.8877,59.3131],[25.8883,59.3127],[25.8884,59.3127]]],[[[25.888,59.3137],[25.8869,59.3136],[25.8868,59.3141],[25.8873,59.3146],[25.8859,59.3149],[25.8873,59.3159],[25.8871,59.317],[25.8873,59.3171],[25.8875,59.3172],[25.8874,59.3175],[25.8869,59.3175],[25.8862,59.3175],[25.8858,59.3175],[25.8852,59.3177],[25.8847,59.3177],[25.8856,59.3175],[25.8863,59.3174],[25.8872,59.3174],[25.8873,59.3173],[25.887,59.3171],[25.8869,59.317],[25.8871,59.316],[25.8857,59.3149],[25.8867,59.3142],[25.8861,59.3136],[25.8869,59.3135],[25.888,59.3137]]],[[[25.8847,59.3177],[25.8839,59.3177],[25.8824,59.3181],[25.882,59.3179],[25.8802,59.3179],[25.8795,59.3179],[25.878,59.3179],[25.8773,59.3181],[25.8749,59.3183],[25.874,59.3193],[25.8709,59.3197],[25.8705,59.3204],[25.8696,59.3208],[25.8682,59.3209],[25.8695,59.3207],[25.8703,59.3204],[25.8707,59.3196],[25.8723,59.3193],[25.874,59.3192],[25.8744,59.3183],[25.8768,59.3181],[25.877,59.318],[25.8774,59.318],[25.8779,59.3178],[25.8795,59.3178],[25.8802,59.3178],[25.8819,59.3178],[25.8836,59.3176],[25.8847,59.3177]]],[[[25.8674,59.3211],[25.8666,59.3216],[25.8652,59.3217],[25.8649,59.3222],[25.8649,59.3217],[25.8656,59.3214],[25.8674,59.3211]]],[[[25.8649,59.3222],[25.8648,59.3223],[25.864,59.3227],[25.8621,59.3231],[25.8618,59.3236],[25.8606,59.3239],[25.8616,59.3235],[25.862,59.3229],[25.863,59.3229],[25.8649,59.3222]]],[[[25.8603,59.3241],[25.8591,59.325],[25.8574,59.3259],[25.8558,59.3255],[25.8547,59.3259],[25.8533,59.3252],[25.852,59.3258],[25.851,59.326],[25.8505,59.3264],[25.8499,59.3274],[25.849,59.3278],[25.8493,59.3291],[25.8503,59.3294],[25.8501,59.33],[25.8494,59.3307],[25.8494,59.332],[25.8498,59.3327],[25.8494,59.334],[25.8483,59.3352],[25.8488,59.3353],[25.8488,59.3356],[25.8477,59.3357],[25.8477,59.3362],[25.8457,59.3367],[25.8458,59.3366],[25.8468,59.3363],[25.8476,59.3361],[25.8475,59.3358],[25.8478,59.3356],[25.8487,59.3354],[25.8481,59.3352],[25.8492,59.334],[25.8496,59.3328],[25.8492,59.332],[25.8492,59.3308],[25.8499,59.33],[25.85,59.3295],[25.849,59.329],[25.8489,59.3277],[25.8498,59.3272],[25.8503,59.3263],[25.8511,59.3257],[25.8531,59.3251],[25.8535,59.3251],[25.8543,59.3254],[25.8557,59.3254],[25.8575,59.3258],[25.8583,59.3254],[25.8576,59.3251],[25.8584,59.3246],[25.8596,59.3244],[25.8603,59.3241]]],[[[25.8456,59.3367],[25.8459,59.3372],[25.8456,59.3378],[25.8462,59.3383],[25.8454,59.3387],[25.8454,59.3391],[25.8457,59.3393],[25.8459,59.3396],[25.846,59.3397],[25.8454,59.3401],[25.8451,59.3402],[25.8449,59.3402],[25.8446,59.3403],[25.8448,59.3406],[25.8438,59.341],[25.8432,59.3404],[25.8443,59.3402],[25.8453,59.3399],[25.8457,59.3397],[25.8457,59.3396],[25.8456,59.3394],[25.8452,59.3391],[25.8452,59.3388],[25.8448,59.3387],[25.8448,59.3377],[25.8456,59.3377],[25.8453,59.3369],[25.8456,59.3367]]],[[[25.8431,59.3404],[25.8422,59.3407],[25.8422,59.3406],[25.8431,59.3404]]],[[[25.8423,59.3408],[25.8427,59.3416],[25.8424,59.3419],[25.8424,59.3421],[25.8429,59.3422],[25.8433,59.3426],[25.8437,59.3438],[25.8435,59.3442],[25.843,59.3443],[25.8427,59.3441],[25.8415,59.3439],[25.8402,59.3439],[25.8386,59.345],[25.8385,59.3453],[25.8376,59.3458],[25.8365,59.3459],[25.8361,59.3457],[25.8362,59.3457],[25.8367,59.3458],[25.8375,59.3457],[25.8383,59.3453],[25.8384,59.3449],[25.8397,59.3439],[25.8413,59.3437],[25.8415,59.3437],[25.8428,59.344],[25.8433,59.3441],[25.8435,59.3438],[25.8428,59.3423],[25.8426,59.3422],[25.8424,59.3422],[25.8423,59.3421],[25.8421,59.3419],[25.8425,59.3416],[25.8423,59.3408]]],[[[25.8359,59.3458],[25.8354,59.3459],[25.8345,59.3466],[25.8332,59.3463],[25.8319,59.3457],[25.8303,59.3455],[25.8303,59.3447],[25.8307,59.3445],[25.8307,59.3442],[25.8305,59.344],[25.8286,59.3434],[25.8281,59.3435],[25.8264,59.3424],[25.8252,59.3423],[25.8246,59.3428],[25.8237,59.3425],[25.8217,59.3437],[25.8205,59.3438],[25.8197,59.3448],[25.8201,59.3452],[25.8202,59.3457],[25.8197,59.3458],[25.82,59.3468],[25.8214,59.3471],[25.8235,59.3471],[25.8237,59.3473],[25.8236,59.3476],[25.8233,59.3479],[25.8238,59.348],[25.8236,59.3483],[25.8231,59.3485],[25.8239,59.3489],[25.8237,59.3492],[25.8234,59.3492],[25.8229,59.3486],[25.8237,59.3481],[25.8232,59.348],[25.8231,59.3478],[25.8235,59.3472],[25.8213,59.3471],[25.8204,59.3469],[25.8193,59.3471],[25.8194,59.3465],[25.8189,59.3459],[25.8201,59.3454],[25.8196,59.3448],[25.8202,59.3439],[25.8206,59.3437],[25.8214,59.3437],[25.8236,59.3424],[25.8246,59.3427],[25.8251,59.3422],[25.8265,59.3423],[25.8276,59.3431],[25.8304,59.3438],[25.8308,59.344],[25.8309,59.3444],[25.8308,59.3446],[25.8305,59.3447],[25.8305,59.3455],[25.8319,59.3456],[25.8333,59.3462],[25.8346,59.3465],[25.8355,59.3458],[25.8359,59.3458]]],[[[25.8225,59.3492],[25.8228,59.3497],[25.8241,59.3499],[25.8238,59.3504],[25.8225,59.3505],[25.8228,59.351],[25.8209,59.3527],[25.8171,59.3526],[25.8163,59.3524],[25.8154,59.3529],[25.8147,59.3526],[25.8126,59.3524],[25.8117,59.3519],[25.8113,59.3527],[25.8101,59.3526],[25.8076,59.3528],[25.8063,59.3525],[25.8049,59.3529],[25.8035,59.3528],[25.803,59.3533],[25.8038,59.3542],[25.8033,59.3545],[25.802,59.3541],[25.8036,59.3542],[25.8029,59.3534],[25.8032,59.3527],[25.8045,59.3528],[25.8062,59.3524],[25.8083,59.3527],[25.8103,59.3523],[25.8122,59.3516],[25.8127,59.3523],[25.8145,59.3525],[25.8154,59.3528],[25.8162,59.3523],[25.8174,59.3526],[25.8208,59.3526],[25.8226,59.351],[25.8223,59.3504],[25.8235,59.3504],[25.8238,59.3499],[25.8227,59.3498],[25.8223,59.3492],[25.8225,59.3492]]],[[[25.802,59.3541],[25.801,59.3544],[25.8011,59.3548],[25.8009,59.355],[25.8,59.3551],[25.801,59.3548],[25.8008,59.3544],[25.801,59.3543],[25.802,59.3541]]],[[[25.8,59.3551],[25.7982,59.3553],[25.7981,59.3554],[25.798,59.3557],[25.798,59.3559],[25.7989,59.3565],[25.799,59.3565],[25.7992,59.3565],[25.7996,59.3567],[25.7995,59.3571],[25.7989,59.3572],[25.7988,59.3571],[25.7986,59.357],[25.7969,59.3576],[25.7967,59.3573],[25.797,59.3569],[25.7959,59.357],[25.7959,59.3579],[25.7957,59.358],[25.7946,59.3578],[25.7945,59.3583],[25.7934,59.3585],[25.7935,59.3588],[25.7932,59.3586],[25.7933,59.3584],[25.7945,59.3581],[25.7942,59.3578],[25.7942,59.3577],[25.7944,59.3577],[25.7946,59.3577],[25.7948,59.3577],[25.7953,59.3578],[25.7955,59.3579],[25.7958,59.3579],[25.7958,59.3572],[25.7957,59.3571],[25.7957,59.357],[25.7959,59.3569],[25.7963,59.3568],[25.7971,59.3568],[25.7969,59.3575],[25.7985,59.3568],[25.7989,59.3566],[25.7979,59.3559],[25.7979,59.3556],[25.7981,59.3552],[25.8,59.3551]]],[[[25.7935,59.3588],[25.7938,59.3588],[25.7938,59.359],[25.7923,59.3593],[25.7923,59.3602],[25.7925,59.3603],[25.7926,59.3605],[25.7927,59.3605],[25.7927,59.3606],[25.7927,59.3607],[25.7929,59.3607],[25.7926,59.361],[25.7923,59.361],[25.7919,59.3609],[25.7922,59.3609],[25.7925,59.3609],[25.7926,59.3609],[25.7926,59.3607],[25.7925,59.3605],[25.7922,59.3603],[25.7922,59.3602],[25.7922,59.36],[25.7922,59.3597],[25.7921,59.3595],[25.7921,59.3593],[25.7922,59.3592],[25.7923,59.3592],[25.7925,59.3591],[25.7927,59.3591],[25.793,59.359],[25.7935,59.359],[25.7935,59.3588]]],[[[25.7919,59.3609],[25.7909,59.362],[25.7896,59.3624],[25.7889,59.3628],[25.7892,59.3634],[25.7892,59.3635],[25.7892,59.3637],[25.789,59.3639],[25.7886,59.364],[25.7882,59.364],[25.7876,59.3638],[25.7869,59.3641],[25.7874,59.3646],[25.7874,59.3649],[25.7879,59.3649],[25.7879,59.3648],[25.7881,59.3649],[25.7882,59.3649],[25.7884,59.3652],[25.788,59.3658],[25.7875,59.3658],[25.7872,59.3659],[25.7863,59.3656],[25.7859,59.366],[25.7862,59.3663],[25.7861,59.3665],[25.7859,59.3666],[25.786,59.3667],[25.7859,59.3669],[25.7856,59.367],[25.7853,59.3672],[25.7853,59.3675],[25.7848,59.368],[25.7847,59.3683],[25.7846,59.3684],[25.785,59.3688],[25.7848,59.369],[25.7847,59.369],[25.7845,59.3691],[25.7842,59.3692],[25.7841,59.3694],[25.7839,59.3695],[25.7837,59.3695],[25.7836,59.3695],[25.7824,59.3695],[25.7822,59.3703],[25.7815,59.3706],[25.7818,59.3713],[25.7805,59.372],[25.7803,59.3728],[25.781,59.3733],[25.7809,59.3737],[25.7797,59.3736],[25.7796,59.3741],[25.7775,59.3745],[25.7766,59.3744],[25.776,59.3749],[25.775,59.3753],[25.7736,59.3751],[25.7732,59.3758],[25.7722,59.376],[25.7702,59.376],[25.77,59.3766],[25.7687,59.3764],[25.7673,59.3775],[25.7654,59.3781],[25.763,59.3787],[25.7625,59.3791],[25.7614,59.379],[25.7613,59.3797],[25.7604,59.3801],[25.7608,59.3811],[25.7619,59.3813],[25.7615,59.3817],[25.7617,59.3819],[25.7615,59.3823],[25.7614,59.3823],[25.7612,59.3824],[25.7609,59.3824],[25.7607,59.3825],[25.7609,59.3831],[25.7585,59.3836],[25.7591,59.3843],[25.758,59.3848],[25.7575,59.3853],[25.7581,59.3858],[25.7566,59.3862],[25.7557,59.3861],[25.7549,59.3865],[25.7546,59.3871],[25.7535,59.3873],[25.7537,59.3882],[25.7517,59.3889],[25.7499,59.3889],[25.7503,59.3896],[25.7487,59.3901],[25.7481,59.3906],[25.7455,59.3907],[25.7452,59.3912],[25.7442,59.3912],[25.7442,59.3928],[25.7428,59.394],[25.7414,59.3947],[25.7418,59.3951],[25.7413,59.3969],[25.7416,59.398],[25.7423,59.3984],[25.7413,59.3991],[25.7425,59.3998],[25.7427,59.4007],[25.7419,59.402],[25.7429,59.4025],[25.7426,59.4029],[25.7434,59.4045],[25.7428,59.4053],[25.7429,59.4061],[25.7438,59.4064],[25.7447,59.406],[25.7451,59.4064],[25.7452,59.4069],[25.7447,59.4073],[25.7455,59.408],[25.745,59.4088],[25.7457,59.4098],[25.7453,59.4105],[25.7453,59.4109],[25.7462,59.4113],[25.7462,59.4118],[25.7457,59.412],[25.745,59.4121],[25.7443,59.4124],[25.7463,59.413],[25.7461,59.4135],[25.7451,59.4137],[25.7446,59.4141],[25.7457,59.4141],[25.746,59.4143],[25.7457,59.415],[25.7455,59.4151],[25.7458,59.4145],[25.7455,59.4142],[25.7445,59.4143],[25.7443,59.4138],[25.7458,59.4135],[25.7461,59.4131],[25.7445,59.4127],[25.7441,59.4126],[25.7442,59.4122],[25.7456,59.4119],[25.7461,59.4116],[25.746,59.4113],[25.7452,59.411],[25.7447,59.4106],[25.7453,59.4099],[25.7448,59.4088],[25.7452,59.4081],[25.7446,59.4076],[25.7436,59.4073],[25.7436,59.407],[25.7446,59.4073],[25.745,59.407],[25.745,59.4065],[25.7433,59.4065],[25.7426,59.406],[25.7425,59.4052],[25.7431,59.4047],[25.7408,59.4034],[25.7419,59.4016],[25.7417,59.401],[25.7422,59.4003],[25.7414,59.3997],[25.7403,59.3992],[25.74,59.398],[25.7403,59.3974],[25.7413,59.3974],[25.741,59.3961],[25.7415,59.3952],[25.7412,59.3945],[25.742,59.394],[25.7413,59.3932],[25.742,59.393],[25.742,59.3919],[25.743,59.3918],[25.7437,59.3904],[25.7449,59.3905],[25.7461,59.3896],[25.7472,59.3897],[25.7477,59.3904],[25.7486,59.3899],[25.7489,59.3892],[25.7499,59.3886],[25.7519,59.3886],[25.7522,59.388],[25.7531,59.3882],[25.7532,59.3873],[25.7545,59.3869],[25.7546,59.386],[25.7555,59.3857],[25.7565,59.3861],[25.7574,59.3854],[25.7574,59.3848],[25.7584,59.384],[25.7583,59.3834],[25.7588,59.3833],[25.7606,59.3831],[25.7605,59.3824],[25.7607,59.3823],[25.7611,59.3823],[25.7613,59.3823],[25.7614,59.382],[25.7612,59.3818],[25.7617,59.3814],[25.7607,59.3812],[25.7603,59.3809],[25.7602,59.3807],[25.7601,59.3806],[25.76,59.3804],[25.7599,59.38],[25.7605,59.3799],[25.7609,59.3797],[25.761,59.3797],[25.7611,59.3796],[25.7612,59.3794],[25.7612,59.3791],[25.7613,59.3788],[25.7617,59.3787],[25.7618,59.3786],[25.7619,59.3786],[25.7624,59.3787],[25.7635,59.3785],[25.7633,59.3779],[25.7656,59.3773],[25.767,59.3771],[25.7688,59.3763],[25.7698,59.3763],[25.7698,59.376],[25.7696,59.3758],[25.7697,59.3757],[25.77,59.3754],[25.7701,59.3754],[25.7703,59.3754],[25.7707,59.3754],[25.7711,59.3754],[25.7712,59.3754],[25.7712,59.3755],[25.7713,59.3756],[25.7712,59.3757],[25.7725,59.3758],[25.7734,59.375],[25.7751,59.3752],[25.7756,59.3749],[25.7757,59.3749],[25.7756,59.3747],[25.7756,59.3746],[25.7759,59.3744],[25.7763,59.3743],[25.7767,59.3743],[25.7773,59.3743],[25.7785,59.3741],[25.779,59.3742],[25.7795,59.3739],[25.7795,59.3738],[25.7793,59.3737],[25.7793,59.3736],[25.7794,59.3735],[25.7796,59.3735],[25.7797,59.3735],[25.78,59.3736],[25.7807,59.3734],[25.7805,59.3733],[25.7803,59.3732],[25.7802,59.3731],[25.7802,59.3721],[25.7803,59.3718],[25.7804,59.3717],[25.7815,59.3709],[25.7812,59.3705],[25.7819,59.3702],[25.7813,59.3698],[25.7821,59.3689],[25.7845,59.3688],[25.7843,59.3682],[25.7852,59.3671],[25.7858,59.3667],[25.7857,59.3659],[25.7862,59.3655],[25.787,59.3656],[25.7871,59.3658],[25.7873,59.3658],[25.7874,59.3658],[25.7877,59.3657],[25.7882,59.3651],[25.788,59.3651],[25.7878,59.365],[25.7874,59.365],[25.7872,59.3649],[25.7871,59.3646],[25.787,59.3646],[25.787,59.3644],[25.7868,59.3642],[25.7868,59.3638],[25.7872,59.3637],[25.7875,59.3637],[25.7877,59.3637],[25.7878,59.3637],[25.789,59.3634],[25.7888,59.3628],[25.79,59.3621],[25.7912,59.3616],[25.7916,59.3609],[25.7919,59.3609]],[[25.7403,59.3991],[25.7421,59.3985],[25.7415,59.3981],[25.7403,59.3991]],[[25.7411,59.4035],[25.7424,59.4038],[25.7426,59.4027],[25.7416,59.4024],[25.7411,59.4035]],[[25.7421,59.3924],[25.7428,59.3926],[25.7441,59.392],[25.7422,59.3919],[25.7421,59.3924]],[[25.7436,59.3912],[25.7451,59.3911],[25.7453,59.3906],[25.7468,59.3904],[25.747,59.3897],[25.7461,59.3897],[25.7449,59.3906],[25.7438,59.3906],[25.7436,59.3912]]],[[[25.7454,59.4151],[25.7441,59.4156],[25.7456,59.416],[25.7467,59.4157],[25.7467,59.417],[25.7482,59.4173],[25.7475,59.4182],[25.7474,59.4189],[25.7481,59.4202],[25.7498,59.4209],[25.7498,59.4217],[25.7504,59.4219],[25.7503,59.423],[25.7511,59.4231],[25.7529,59.424],[25.7541,59.4241],[25.7547,59.4254],[25.7553,59.4259],[25.7545,59.4268],[25.7546,59.4272],[25.7569,59.4273],[25.7585,59.4286],[25.7594,59.4287],[25.7595,59.4292],[25.7603,59.4299],[25.7632,59.4305],[25.7625,59.4311],[25.7629,59.4317],[25.7625,59.432],[25.7616,59.432],[25.7627,59.4318],[25.7623,59.4311],[25.7615,59.4313],[25.7609,59.4309],[25.7626,59.4305],[25.76,59.4299],[25.7593,59.4295],[25.7592,59.4288],[25.7582,59.4286],[25.7567,59.4274],[25.7545,59.4273],[25.7544,59.4265],[25.7551,59.4259],[25.7545,59.4254],[25.7531,59.4252],[25.7542,59.4247],[25.7527,59.4241],[25.751,59.4232],[25.7501,59.423],[25.7498,59.4226],[25.7503,59.422],[25.7493,59.4216],[25.7497,59.4211],[25.7476,59.4201],[25.747,59.4189],[25.7465,59.4188],[25.7478,59.4176],[25.7477,59.4173],[25.7462,59.417],[25.7466,59.4162],[25.7444,59.4159],[25.7436,59.4154],[25.7454,59.4151]]],[[[25.7616,59.432],[25.7606,59.4328],[25.7609,59.4338],[25.7601,59.4341],[25.7582,59.434],[25.7583,59.4345],[25.7594,59.4349],[25.7595,59.4353],[25.7603,59.4354],[25.7592,59.4358],[25.7591,59.4361],[25.7604,59.437],[25.76,59.4374],[25.7602,59.437],[25.7591,59.4363],[25.7589,59.4359],[25.7597,59.4355],[25.7591,59.4352],[25.7591,59.4348],[25.7582,59.4345],[25.7581,59.4339],[25.7607,59.4338],[25.7605,59.4327],[25.7611,59.4321],[25.7616,59.432]]],[[[25.7598,59.4375],[25.7597,59.4376],[25.7583,59.4375],[25.7598,59.4375]]],[[[25.7583,59.4375],[25.7577,59.4384],[25.7583,59.4394],[25.7595,59.4402],[25.7612,59.441],[25.7637,59.4415],[25.7635,59.4421],[25.7622,59.442],[25.7616,59.4427],[25.7607,59.4427],[25.7607,59.4422],[25.762,59.4419],[25.763,59.442],[25.7635,59.4416],[25.7611,59.4411],[25.7593,59.4403],[25.7581,59.4393],[25.7576,59.4383],[25.7581,59.4375],[25.7583,59.4375]]],[[[25.98,59.2688],[25.9808,59.2687],[25.9813,59.2688],[25.9818,59.2687],[25.9833,59.2677],[25.9843,59.2679],[25.9832,59.268],[25.9822,59.2686],[25.9813,59.269],[25.98,59.2688]]],[[[25.9847,59.2678],[25.9851,59.2677],[25.9858,59.268],[25.9868,59.2678],[25.9889,59.2677],[25.9895,59.2672],[25.9895,59.2671],[25.9897,59.2669],[25.9902,59.2669],[25.9904,59.2669],[25.9906,59.2669],[25.9919,59.2675],[25.9927,59.2675],[25.9931,59.2664],[25.9938,59.2655],[25.9945,59.2655],[25.9934,59.2663],[25.993,59.2675],[25.992,59.2677],[25.9902,59.267],[25.99,59.267],[25.9898,59.267],[25.9897,59.2671],[25.9896,59.2672],[25.9896,59.2673],[25.9895,59.2675],[25.989,59.2679],[25.9878,59.2678],[25.9858,59.2681],[25.985,59.2678],[25.9847,59.2678]]],[[[25.9945,59.2655],[25.9951,59.2655],[25.9969,59.2656],[25.9975,59.2653],[25.998,59.2644],[25.9975,59.2639],[25.9981,59.2634],[25.9982,59.2632],[25.9978,59.263],[25.9978,59.2629],[25.9978,59.2628],[25.9981,59.2627],[25.9984,59.2626],[25.9988,59.2626],[25.9994,59.2631],[26.0005,59.262],[26.0022,59.2615],[26.0022,59.2614],[26.0022,59.2613],[26.002,59.2609],[26.0041,59.2597],[26.0045,59.2595],[26.005,59.2593],[26.0056,59.259],[26.0069,59.2586],[26.0074,59.2575],[26.0101,59.2573],[26.0104,59.257],[26.0118,59.2566],[26.0129,59.2559],[26.0136,59.2558],[26.0138,59.2557],[26.0141,59.2557],[26.0157,59.256],[26.0165,59.2557],[26.0185,59.2555],[26.0195,59.2547],[26.0207,59.2546],[26.0199,59.2555],[26.0152,59.2561],[26.014,59.2558],[26.0137,59.2558],[26.0135,59.2561],[26.0131,59.2563],[26.0117,59.2568],[26.0104,59.2571],[26.0105,59.2573],[26.0095,59.2576],[26.0088,59.2574],[26.0077,59.2576],[26.0071,59.2586],[26.0058,59.2591],[26.0051,59.2594],[26.0048,59.2595],[26.0046,59.2597],[26.0043,59.2598],[26.004,59.2599],[26.0033,59.2605],[26.0022,59.2609],[26.0026,59.2613],[26.0026,59.2614],[26.0025,59.2615],[26.0026,59.2616],[26.0033,59.2615],[26.004,59.2618],[26.0022,59.2619],[25.9981,59.2637],[25.9984,59.2642],[25.9977,59.2654],[25.9969,59.2657],[25.9945,59.2655]]],[[[26.0317,59.2543],[26.0338,59.2541],[26.0339,59.2545],[26.0324,59.2547],[26.0318,59.2545],[26.0317,59.2543]]]]},"properties":{"fclass":"riverbank"}}
]}