{"type":"FeatureCollection", "features": [
{"type":"Feature","geometry":{"type":"MultiLineString","coordinates":[[[25.3337,58.0318],[25.3246,58.0348],[25.3183,58.0406],[25.3064,58.0587],[25.2996,58.0656],[25.2817,58.0734],[25.2635,58.0751]],[[25.2635,58.0751],[25.2507,58.0685],[25.2495,58.0512],[25.2776,58.0241],[25.2844,58.0081],[25.2645,57.9942],[25.2325,57.9854],[25.2168,57.9854]],[[25.2168,57.9854],[25.2021,57.992],[25.1899,58.0135],[25.1807,58.0382],[25.167,58.0587],[25.141,58.068]],[[25.141,58.068],[25.0942,58.0673],[25.0706,58.0636],[25.0488,58.0562],[25.0349,58.0486],[24.9748,58.0158],[24.9493,58.0064],[24.8725,58.0004],[24.8483,57.9921],[24.8274,57.9819],[24.8168,57.9767]],[[25.6251,57.9103],[25.6015,57.9122],[25.5794,57.9195],[25.5583,57.9342],[25.5529,57.9422],[25.5521,57.9488],[25.5518,57.9499],[25.5503,57.9553],[25.5417,57.9628],[25.532,57.9664],[25.4966,57.9706],[25.4572,57.9841],[25.3966,58.0232],[25.3565,58.0348]],[[25.3565,58.0348],[25.3464,58.0344],[25.3399,58.0326],[25.3337,58.0318]],[[24.8168,57.9767],[24.7908,57.979],[24.7647,57.9879],[24.7335,57.9922]],[[24.7335,57.9922],[24.7188,57.9818],[24.7004,57.9542],[24.6848,57.9476],[24.6241,57.944]],[[24.6241,57.944],[24.5539,57.9474]],[[24.5539,57.9474],[24.5338,57.9451],[24.4813,57.9193],[24.4416,57.9081],[24.4291,57.9003],[24.4127,57.8766],[24.4015,57.8665],[24.3782,57.8594],[24.3497,57.8586]],[[26.4996,57.5158],[26.4811,57.5271],[26.4476,57.5529],[26.4309,57.5617],[26.4307,57.5618],[26.3513,57.5802],[26.3386,57.5832],[26.2972,57.5991],[26.2632,57.6208],[26.1685,57.7041],[26.1352,57.7248],[26.0247,57.7744],[26.0161,57.7867],[26.0131,57.8073],[26.0161,57.8165],[26.0218,57.8224],[26.0253,57.8284],[26.022,57.8379],[26.0145,57.8428],[26.0027,57.846],[25.7926,57.856],[25.7675,57.8689],[25.7547,57.8889],[25.7454,57.9092],[25.7303,57.9231],[25.715,57.9234]],[[25.715,57.9234],[25.7038,57.9213],[25.6501,57.9114],[25.6251,57.9103]],[[24.3497,57.8586],[24.3062,57.8682]],[[26.9116,57.6134],[26.8961,57.615],[26.885,57.6221],[26.8727,57.6272]],[[26.8727,57.6272],[26.8542,57.6226],[26.8385,57.6099],[26.8283,57.595],[26.8163,57.5812],[26.7958,57.5713],[26.7781,57.5685]],[[27.32,57.5161],[27.1657,57.5467],[27.0854,57.5494],[27.0615,57.5557],[27.0413,57.5685],[27.0046,57.5989],[26.9811,57.609],[26.9466,57.6153],[26.9292,57.6156]],[[26.9292,57.6156],[26.9116,57.6134]],[[26.7781,57.5685],[26.7005,57.5708]],[[26.7005,57.5708],[26.667,57.5649],[26.6343,57.5544],[26.6048,57.5403],[26.5984,57.5339],[26.5948,57.5265],[26.5901,57.5204],[26.5799,57.5178]],[[26.5799,57.5178],[26.5702,57.5196],[26.5517,57.5268],[26.5422,57.5282]],[[26.5422,57.5282],[26.5287,57.5239],[26.5151,57.5173],[26.4996,57.5158]],[[27.3529,57.5276],[27.32,57.5161]]]},"properties":{"ADM0_A3_L":"LVA","ADM0_A3_R":"EST"}},
{"type":"Feature","geometry":{"type":"MultiLineString","coordinates":[[[27.5282,57.5285],[27.5228,57.492],[27.5256,57.4684],[27.5148,57.4479],[27.5113,57.4304],[27.5363,57.4157],[27.6408,57.389],[27.6944,57.3564],[27.708,57.3481],[27.8091,57.3139],[27.8277,57.305],[27.8403,57.2906],[27.8461,57.2673],[27.8412,57.2112],[27.8385,57.2]],[[27.3529,57.5276],[27.5282,57.5285]]]},"properties":{"ADM0_A3_L":"RUS","ADM0_A3_R":"LVA"}},
{"type":"Feature","geometry":{"type":"MultiLineString","coordinates":[[[28.1818,59.3561],[28.1865,59.3749],[28.1754,59.3819],[28.1496,59.3932],[28.1378,59.4004],[28.1284,59.4095],[28.1048,59.4392],[28.0834,59.4509],[28.0386,59.463],[28.0191,59.4818]],[[28.1575,59.364],[28.1818,59.3561]],[[28.0732,59.319],[28.0006,59.3337],[28.0324,59.342],[28.1136,59.3454],[28.1575,59.364]],[[28.0766,59.3053],[28.0969,59.3194]],[[28.0969,59.3194],[28.0732,59.319]],[[27.9597,59.3065],[28.0766,59.3053]],[[27.3529,57.5276],[27.345,57.5381],[27.3356,57.5539],[27.3285,57.5706],[27.328,57.5832],[27.3366,57.5917],[27.3489,57.5941],[27.3625,57.5945],[27.3748,57.5979],[27.3821,57.6027],[27.3849,57.607],[27.387,57.6276],[27.3851,57.6312],[27.3828,57.6345],[27.3802,57.6477],[27.3779,57.6517],[27.377,57.6567],[27.3797,57.6665],[27.3847,57.6744],[27.3914,57.6802],[27.4077,57.689],[27.4904,57.7046],[27.5078,57.7148],[27.5089,57.7275],[27.4978,57.7557],[27.5024,57.7725],[27.5124,57.7813],[27.5262,57.7873],[27.5539,57.7948],[27.5326,57.8051],[27.5246,57.8073],[27.5376,57.8116],[27.5563,57.8131],[27.7007,57.8248],[27.7635,57.8387],[27.7868,57.8476],[27.7993,57.8611],[27.7908,57.8809],[27.7744,57.8907],[27.6731,57.9128],[27.665,57.9184],[27.6594,57.9325],[27.6632,57.944],[27.6704,57.955],[27.6752,57.9678],[27.6691,57.992],[27.6506,58.0001],[27.6316,58.0042],[27.6301,58.033],[27.6366,58.0592],[27.6304,58.0883],[27.5797,58.1259],[27.54,58.1718],[27.5196,58.1945],[27.4954,58.2215],[27.4828,58.2686],[27.4941,58.3195],[27.5549,58.3952],[27.4989,58.5346],[27.4493,58.6585],[27.4288,58.7094],[27.4106,58.7549],[27.4463,58.8189],[27.4778,58.8754],[27.6053,58.9347],[27.6944,58.9759],[27.6959,58.9772],[27.7133,58.9919],[27.7244,59.0144],[27.7672,59.0559],[27.7843,59.0772],[27.8424,59.1612],[27.8735,59.2365],[27.8908,59.258],[27.8823,59.2757],[27.9039,59.2904],[27.9597,59.3065]]]},"properties":{"ADM0_A3_L":"EST","ADM0_A3_R":"RUS"}}
]}