{"type":"FeatureCollection","features":[{"type":"Feature","properties":{},"geometry":{"type":"Polygon","coordinates":[[[25.259914,58.987844],[25.277306,58.988076],[25.294698,58.988306],[25.31209,58.988534],[25.329482,58.98876],[25.346875,58.988983],[25.364268,58.989204],[25.381662,58.989422],[25.399055,58.989639],[25.416449,58.989853],[25.433843,58.990064],[25.451237,58.990273],[25.468632,58.99048],[25.486027,58.990685],[25.503422,58.990887],[25.520817,58.991087],[25.538213,58.991284],[25.555609,58.991479],[25.573005,58.991672],[25.590401,58.991863],[25.607797,58.992051],[25.625194,58.992237],[25.642591,58.99242],[25.659988,58.992602],[25.677385,58.99278],[25.694783,58.992957],[25.712181,58.993131],[25.729579,58.993303],[25.746977,58.993472],[25.764375,58.993639],[25.781774,58.993804],[25.799173,58.993967],[25.816572,58.994127],[25.833971,58.994285],[25.85137,58.99444],[25.86877,58.994593],[25.886169,58.994744],[25.903569,58.994893],[25.920969,58.995039],[25.93837,58.995183],[25.95577,58.995324],[25.973171,58.995463],[25.990571,58.9956],[26.007972,58.995734],[26.025373,58.995866],[26.042775,58.995996],[26.060176,58.996124],[26.077577,58.996249],[26.094979,58.996371],[26.112381,58.996492],[26.129783,58.99661],[26.147185,58.996726],[26.164587,58.996839],[26.181989,58.99695],[26.199392,58.997059],[26.216795,58.997165],[26.234197,58.997269],[26.2516,58.997371],[26.269003,58.99747],[26.286406,58.997567],[26.30381,58.997662],[26.321213,58.997755],[26.338616,58.997845],[26.35602,58.997932],[26.373423,58.998018],[26.390827,58.998101],[26.408231,58.998181],[26.425635,58.99826],[26.443039,58.998336],[26.460443,58.998409],[26.477847,58.998481],[26.477711,59.007461],[26.477575,59.016441],[26.477439,59.025421],[26.477303,59.034402],[26.477167,59.043382],[26.47703,59.052362],[26.476894,59.061342],[26.476757,59.070322],[26.47662,59.079303],[26.476484,59.088283],[26.476347,59.097263],[26.47621,59.106243],[26.476073,59.115223],[26.475936,59.124203],[26.475799,59.133183],[26.475661,59.142163],[26.475524,59.151143],[26.475387,59.160123],[26.475249,59.169103],[26.475111,59.178084],[26.474974,59.187064],[26.474836,59.196044],[26.474698,59.205024],[26.47456,59.214003],[26.474422,59.222983],[26.474284,59.231963],[26.474146,59.240943],[26.474008,59.249923],[26.473869,59.258903],[26.473731,59.267883],[26.473592,59.276863],[26.473454,59.285843],[26.473315,59.294823],[26.473176,59.303803],[26.473037,59.312782],[26.472898,59.321762],[26.472759,59.330742],[26.47262,59.339722],[26.472481,59.348702],[26.472341,59.357681],[26.472202,59.366661],[26.472063,59.375641],[26.471923,59.384621],[26.471783,59.3936],[26.471644,59.40258],[26.471504,59.41156],[26.471364,59.420539],[26.471224,59.429519],[26.471084,59.438499],[26.470944,59.447478],[26.453309,59.447406],[26.435675,59.447331],[26.418041,59.447253],[26.400407,59.447174],[26.382773,59.447092],[26.365139,59.447007],[26.347505,59.44692],[26.329872,59.446831],[26.312238,59.446739],[26.294605,59.446645],[26.276972,59.446549],[26.259339,59.44645],[26.241706,59.446349],[26.224073,59.446245],[26.20644,59.44614],[26.188807,59.446031],[26.171175,59.445921],[26.153542,59.445808],[26.13591,59.445692],[26.118278,59.445574],[26.100646,59.445454],[26.083014,59.445332],[26.065383,59.445207],[26.047751,59.445079],[26.03012,59.44495],[26.012489,59.444818],[25.994858,59.444683],[25.977227,59.444546],[25.959596,59.444407],[25.941966,59.444265],[25.924335,59.444121],[25.906705,59.443975],[25.889075,59.443826],[25.871445,59.443675],[25.853816,59.443522],[25.836186,59.443366],[25.818557,59.443208],[25.800928,59.443047],[25.783299,59.442884],[25.765671,59.442719],[25.748042,59.442551],[25.730414,59.442381],[25.712786,59.442208],[25.695158,59.442033],[25.677531,59.441856],[25.659903,59.441676],[25.642276,59.441494],[25.624649,59.44131],[25.607023,59.441123],[25.589396,59.440934],[25.57177,59.440742],[25.554144,59.440548],[25.536518,59.440352],[25.518893,59.440153],[25.501267,59.439952],[25.483642,59.439749],[25.466018,59.439543],[25.448393,59.439335],[25.430769,59.439124],[25.413145,59.438911],[25.395521,59.438696],[25.377898,59.438478],[25.360274,59.438258],[25.342651,59.438036],[25.325029,59.437811],[25.307406,59.437584],[25.289784,59.437354],[25.272162,59.437122],[25.254541,59.436888],[25.23692,59.436651],[25.237387,59.427675],[25.237853,59.4187],[25.238319,59.409724],[25.238785,59.400748],[25.239251,59.391772],[25.239717,59.382796],[25.240182,59.37382],[25.240647,59.364844],[25.241111,59.355869],[25.241576,59.346893],[25.24204,59.337917],[25.242503,59.328941],[25.242967,59.319965],[25.24343,59.310989],[25.243893,59.302013],[25.244355,59.293037],[25.244818,59.284061],[25.24528,59.275085],[25.245741,59.266109],[25.246203,59.257133],[25.246664,59.248156],[25.247125,59.23918],[25.247585,59.230204],[25.248046,59.221228],[25.248506,59.212252],[25.248965,59.203276],[25.249425,59.1943],[25.249884,59.185323],[25.250343,59.176347],[25.250801,59.167371],[25.25126,59.158395],[25.251718,59.149419],[25.252175,59.140442],[25.252633,59.131466],[25.25309,59.12249],[25.253547,59.113513],[25.254003,59.104537],[25.25446,59.095561],[25.254916,59.086584],[25.255372,59.077608],[25.255827,59.068632],[25.256282,59.059655],[25.256737,59.050679],[25.257192,59.041702],[25.257646,59.032726],[25.2581,59.02375],[25.258554,59.014773],[25.259008,59.005797],[25.259461,58.99682],[25.259914,58.987844]]]}}]}