{"type":"FeatureCollection", "features": [
{"type":"Feature","geometry":{"type":"Point","coordinates":[28.1919,59.3767]},"properties":{"name":"Narva","fclass":"town","population":53360}},
{"type":"Feature","geometry":{"type":"Point","coordinates":[24.5026,58.3871]},"properties":{"name":"Pärnu","fclass":"town","population":43528}},
{"type":"Feature","geometry":{"type":"Point","coordinates":[26.5176,59.5022]},"properties":{"name":"Kunda","fclass":"town","population":3669}},
{"type":"Feature","geometry":{"type":"Point","coordinates":[25.9627,59.2619]},"properties":{"name":"Tapa","fclass":"town","population":9448}},
{"type":"Feature","geometry":{"type":"Point","coordinates":[24.0802,59.3491]},"properties":{"name":"Paldiski","fclass":"town","population":4154}},
{"type":"Feature","geometry":{"type":"Point","coordinates":[26.0316,57.777]},"properties":{"name":"Valga","fclass":"town","population":12040}},
{"type":"Feature","geometry":{"type":"Point","coordinates":[24.4209,59.3111]},"properties":{"name":"Keila","fclass":"town","population":10030}},
{"type":"Feature","geometry":{"type":"Point","coordinates":[24.7573,59.4372]},"properties":{"name":"Tallinn","fclass":"national_capital","population":462120}},
{"type":"Feature","geometry":{"type":"Point","coordinates":[28.0421,59.4596]},"properties":{"name":"Narva-Jõesuu","fclass":"town","population":2602}},
{"type":"Feature","geometry":{"type":"Point","coordinates":[25.9254,58.0028]},"properties":{"name":"Tõrva","fclass":"town","population":3130}},
{"type":"Feature","geometry":{"type":"Point","coordinates":[25.5878,58.3645]},"properties":{"name":"Viljandi","fclass":"town","population":19100}},
{"type":"Feature","geometry":{"type":"Point","coordinates":[24.7944,59.0057]},"properties":{"name":"Rapla","fclass":"town","population":4860}},
{"type":"Feature","geometry":{"type":"Point","coordinates":[23.5415,58.9399]},"properties":{"name":"Haapsalu","fclass":"town","population":11593}},
{"type":"Feature","geometry":{"type":"Point","coordinates":[25.722,59.5816]},"properties":{"name":"Loksa","fclass":"town","population":3041}},
{"type":"Feature","geometry":{"type":"Point","coordinates":[26.9348,58.8484]},"properties":{"name":"Mustvee","fclass":"town","population":1596}},
{"type":"Feature","geometry":{"type":"Point","coordinates":[27.0087,57.8386]},"properties":{"name":"Võru","fclass":"town","population":12951}},
{"type":"Feature","geometry":{"type":"Point","coordinates":[26.4131,58.2233]},"properties":{"name":"Elva","fclass":"town","population":6258}},
{"type":"Feature","geometry":{"type":"Point","coordinates":[27.1631,58.6631]},"properties":{"name":"Kallaste","fclass":"town","population":1115}},
{"type":"Feature","geometry":{"type":"Point","coordinates":[26.1106,59.1614]},"properties":{"name":"Tamsalu","fclass":"town","population":2629}},
{"type":"Feature","geometry":{"type":"Point","coordinates":[23.8324,58.6846]},"properties":{"name":"Lihula","fclass":"town","population":1614}},
{"type":"Feature","geometry":{"type":"Point","coordinates":[24.9627,58.153]},"properties":{"name":"Kilingi-Nõmme","fclass":"town","population":2295}},
{"type":"Feature","geometry":{"type":"Point","coordinates":[26.4961,58.0585]},"properties":{"name":"Otepää","fclass":"town","population":4123}},
{"type":"Feature","geometry":{"type":"Point","coordinates":[27.4136,59.3579]},"properties":{"name":"Jõhvi","fclass":"town","population":11600}},
{"type":"Feature","geometry":{"type":"Point","coordinates":[27.288,59.4025]},"properties":{"name":"Kohtla-Järve","fclass":"town","population":44500}},
{"type":"Feature","geometry":{"type":"Point","coordinates":[25.4649,58.5374]},"properties":{"name":"Suure-Jaani","fclass":"town","population":1238}},
{"type":"Feature","geometry":{"type":"Point","coordinates":[25.5549,58.6319]},"properties":{"name":"Võhma","fclass":"town","population":1540}},
{"type":"Feature","geometry":{"type":"Point","coordinates":[26.3617,59.3482]},"properties":{"name":"Rakvere","fclass":"town","population":16953}},
{"type":"Feature","geometry":{"type":"Point","coordinates":[25.9791,58.6549]},"properties":{"name":"Põltsamaa","fclass":"town","population":4640}},
{"type":"Feature","geometry":{"type":"Point","coordinates":[24.6583,58.4075]},"properties":{"name":"Sindi","fclass":"town","population":3980}},
{"type":"Feature","geometry":{"type":"Point","coordinates":[26.5289,57.8292]},"properties":{"name":"Antsla","fclass":"town","population":1276}},
{"type":"Feature","geometry":{"type":"Point","coordinates":[22.7478,58.9988]},"properties":{"name":"Kärdla","fclass":"town","population":3634}},
{"type":"Feature","geometry":{"type":"Point","coordinates":[26.3872,58.7441]},"properties":{"name":"Jõgeva","fclass":"town","population":5813}},
{"type":"Feature","geometry":{"type":"Point","coordinates":[26.729,58.378]},"properties":{"name":"Tartu","fclass":"city","population":102414}},
{"type":"Feature","geometry":{"type":"Point","coordinates":[25.547,58.1028]},"properties":{"name":"Karksi-Nuia","fclass":"town","population":1975}},
{"type":"Feature","geometry":{"type":"Point","coordinates":[27.4638,58.0977]},"properties":{"name":"Räpina","fclass":"town","population":2867}},
{"type":"Feature","geometry":{"type":"Point","coordinates":[25.3584,58.1266]},"properties":{"name":"Abja-Paluoja","fclass":"town","population":1041}},
{"type":"Feature","geometry":{"type":"Point","coordinates":[27.7626,59.3963]},"properties":{"name":"Sillamäe","fclass":"town","population":16567}},
{"type":"Feature","geometry":{"type":"Point","coordinates":[26.9685,59.3554]},"properties":{"name":"Kiviõli","fclass":"town","population":4844}},
{"type":"Feature","geometry":{"type":"Point","coordinates":[24.9897,59.4682]},"properties":{"name":"Maardu","fclass":"town","population":16529}},
{"type":"Feature","geometry":{"type":"Point","coordinates":[27.0445,59.361]},"properties":{"name":"Püssi","fclass":"town","population":1083}},
{"type":"Feature","geometry":{"type":"Point","coordinates":[25.3293,59.3363]},"properties":{"name":"Kehra","fclass":"town","population":2641}},
{"type":"Feature","geometry":{"type":"Point","coordinates":[22.4849,58.2528]},"properties":{"name":"Kuressaare","fclass":"town","population":15170}},
{"type":"Feature","geometry":{"type":"Point","coordinates":[25.4252,58.8102]},"properties":{"name":"Türi","fclass":"town","population":6333}},
{"type":"Feature","geometry":{"type":"Point","coordinates":[25.5699,58.8869]},"properties":{"name":"Paide","fclass":"town","population":9200}},
{"type":"Feature","geometry":{"type":"Point","coordinates":[25.1836,58.092]},"properties":{"name":"Mõisaküla","fclass":"town","population":775}},
{"type":"Feature","geometry":{"type":"Point","coordinates":[27.0583,58.0536]},"properties":{"name":"Põlva","fclass":"town","population":6330}},
{"type":"Feature","geometry":{"type":"Point","coordinates":[24.5567,59.32]},"properties":{"name":"Saue","fclass":"town","population":5241}}
]}