{"type":"FeatureCollection", "features": [
{"type":"Feature","geometry":{"type":"Polygon","coordinates":[[[26.9436,57.8114],[26.9438,57.8099],[26.9465,57.8099],[26.9517,57.81],[26.952,57.8068],[26.9575,57.8074],[26.9573,57.8102],[26.9542,57.8101],[26.9539,57.8137],[26.9497,57.8141],[26.9448,57.8114],[26.9436,57.8114]]]},"properties":{"name":""}},
{"type":"Feature","geometry":{"type":"Polygon","coordinates":[[[24.766,59.4228],[24.7664,59.4225],[24.7665,59.4225],[24.7679,59.4216],[24.7682,59.4214],[24.7696,59.4216],[24.7697,59.4218],[24.7704,59.4226],[24.7695,59.4242],[24.7692,59.4242],[24.7678,59.4237],[24.7664,59.4232],[24.7663,59.4231],[24.766,59.4228]]]},"properties":{"name":"Filtri sõjaväelinnak"}},
{"type":"Feature","geometry":{"type":"Polygon","coordinates":[[[24.6915,59.3396],[24.69,59.3394],[24.6912,59.3372],[24.6933,59.3367],[24.6926,59.3376],[24.6915,59.3396]]]},"properties":{"name":"Lasketiir"}},
{"type":"Feature","geometry":{"type":"Polygon","coordinates":[[[26.2369,58.5416],[26.2347,58.5418],[26.2344,58.5409],[26.2347,58.5407],[26.2352,58.5406],[26.2371,58.5406],[26.2384,58.5404],[26.2391,58.5402],[26.2408,58.5407],[26.2369,58.5416]]]},"properties":{"name":"Kirna Õppekeskus"}},
{"type":"Feature","geometry":{"type":"Polygon","coordinates":[[[23.4786,58.9177],[23.4757,58.9178],[23.4733,58.9173],[23.467,58.9154],[23.4635,58.9135],[23.4668,58.9083],[23.4683,58.9081],[23.4903,58.9094],[23.4932,58.9037],[23.4951,58.9029],[23.4984,58.9034],[23.4995,58.9052],[23.4986,58.9064],[23.5002,58.9073],[23.5089,58.9099],[23.5101,58.9075],[23.5112,58.9079],[23.5109,58.911],[23.5103,58.9128],[23.5113,58.9154],[23.5089,58.9175],[23.507,58.9184],[23.5054,58.9183],[23.4987,58.9187],[23.4932,58.9177],[23.4879,58.9169],[23.4858,58.9172],[23.4847,58.917],[23.4789,58.917],[23.4786,58.9175],[23.4786,58.9177]]]},"properties":{"name":"Haapsalu lennuväli"}},
{"type":"Feature","geometry":{"type":"Polygon","coordinates":[[[26.2865,59.5289],[26.2878,59.5284],[26.2776,59.5249],[26.2797,59.5237],[26.2864,59.5262],[26.2878,59.5261],[26.2921,59.5277],[26.297,59.5267],[26.3281,59.5382],[26.3298,59.5375],[26.3378,59.5419],[26.3371,59.5431],[26.3361,59.5448],[26.3458,59.5483],[26.3444,59.5493],[26.335,59.546],[26.3342,59.5465],[26.326,59.5435],[26.3127,59.5386],[26.3114,59.5382],[26.3101,59.5377],[26.3002,59.534],[26.2865,59.5289]]]},"properties":{"name":"Rutja lennuväli"}},
{"type":"Feature","geometry":{"type":"Polygon","coordinates":[[[27.739,59.0034],[27.7382,59.0033],[27.7384,59.0028],[27.7392,59.0029],[27.739,59.0034]]]},"properties":{"name":"Vasknarva kordon"}},
{"type":"Feature","geometry":{"type":"Polygon","coordinates":[[[24.0391,59.389],[24.0399,59.3886],[24.0409,59.3892],[24.0402,59.3896],[24.0391,59.389]]]},"properties":{"name":"Paldiski kordon"}},
{"type":"Feature","geometry":{"type":"Polygon","coordinates":[[[24.7741,59.4255],[24.7731,59.4263],[24.771,59.4265],[24.7697,59.4251],[24.7703,59.4239],[24.7706,59.4236],[24.7709,59.423],[24.7711,59.4227],[24.7721,59.4227],[24.7727,59.4228],[24.773,59.4229],[24.7748,59.4232],[24.7765,59.4242],[24.7755,59.4252],[24.7753,59.4251],[24.7741,59.4255]]]},"properties":{"name":"Juhkentali sõjaväelinnak"}},
{"type":"Feature","geometry":{"type":"Polygon","coordinates":[[[27.816,59.1397],[27.8175,59.1397],[27.8187,59.1402],[27.8175,59.1407],[27.816,59.1397]]]},"properties":{"name":"Punamäe piirivalvekordon"}},
{"type":"Feature","geometry":{"type":"Polygon","coordinates":[[[24.7984,59.4441],[24.7986,59.4437],[24.7987,59.4437],[24.7989,59.4437],[24.7998,59.4444],[24.7984,59.4441]]]},"properties":{"name":""}},
{"type":"Feature","geometry":{"type":"Polygon","coordinates":[[[27.3663,59.4454],[27.3653,59.4449],[27.3663,59.4449],[27.3663,59.4454]]]},"properties":{"name":""}},
{"type":"Feature","geometry":{"type":"Polygon","coordinates":[[[27.2421,58.4774],[27.2429,58.4774],[27.243,58.4781],[27.2422,58.478],[27.2421,58.4774]]]},"properties":{"name":"Varnja piirivalvekordon"}},
{"type":"Feature","geometry":{"type":"Polygon","coordinates":[[[24.8772,59.405],[24.8787,59.4042],[24.8799,59.405],[24.8787,59.4058],[24.8772,59.405]]]},"properties":{"name":""}},
{"type":"Feature","geometry":{"type":"Polygon","coordinates":[[[27.9151,59.2574],[27.9159,59.2572],[27.9164,59.2577],[27.9157,59.2579],[27.9151,59.2574]]]},"properties":{"name":"Mustajõe piirivalvekordon"}},
{"type":"Feature","geometry":{"type":"Polygon","coordinates":[[[24.4666,58.4042],[24.4699,58.4033],[24.4738,58.4035],[24.4749,58.4046],[24.4744,58.4048],[24.4706,58.4066],[24.4696,58.4063],[24.4666,58.4042]]]},"properties":{"name":"Kaitseliit Pärnumaa Malev"}},
{"type":"Feature","geometry":{"type":"Polygon","coordinates":[[[24.6544,59.3823],[24.6542,59.3824],[24.6529,59.383],[24.6529,59.3831],[24.6509,59.3833],[24.6507,59.3833],[24.6507,59.3834],[24.6484,59.3834],[24.6479,59.3828],[24.65,59.3814],[24.6526,59.3808],[24.6543,59.381],[24.6552,59.3809],[24.6544,59.3823]]]},"properties":{"name":""}},
{"type":"Feature","geometry":{"type":"Polygon","coordinates":[[[24.7071,59.3997],[24.707,59.3976],[24.7078,59.3976],[24.7099,59.3977],[24.7109,59.3996],[24.7096,59.3996],[24.7098,59.3999],[24.7093,59.4],[24.7094,59.4007],[24.7083,59.4009],[24.7075,59.4012],[24.7074,59.4011],[24.7073,59.4009],[24.7071,59.3997]]]},"properties":{"name":"Vahipataljon"}},
{"type":"Feature","geometry":{"type":"Polygon","coordinates":[[[24.0876,59.3436],[24.0896,59.3436],[24.0898,59.3436],[24.0904,59.344],[24.0904,59.3442],[24.0864,59.3446],[24.081,59.3443],[24.0803,59.3442],[24.0806,59.342],[24.0834,59.3421],[24.0835,59.3423],[24.0851,59.3436],[24.0876,59.3436]]]},"properties":{"name":"Paldiski sõjaväelinnak"}},
{"type":"Feature","geometry":{"type":"Polygon","coordinates":[[[24.0833,59.3414],[24.0789,59.3417],[24.0794,59.3403],[24.0817,59.3393],[24.0849,59.3391],[24.0854,59.3401],[24.0832,59.3408],[24.0833,59.3414]]]},"properties":{"name":"Paldiski sõjaväelinnak"}},
{"type":"Feature","geometry":{"type":"Polygon","coordinates":[[[24.2187,59.324],[24.2085,59.3251],[24.1932,59.3269],[24.1899,59.3251],[24.1879,59.3243],[24.1891,59.3238],[24.1881,59.3212],[24.1833,59.3202],[24.1855,59.3199],[24.1844,59.3183],[24.1816,59.3187],[24.18,59.3181],[24.183,59.3154],[24.184,59.3144],[24.1843,59.3139],[24.1846,59.313],[24.1847,59.3122],[24.1843,59.3113],[24.184,59.3108],[24.183,59.3099],[24.1822,59.3094],[24.18,59.3081],[24.1821,59.3074],[24.1819,59.3064],[24.1843,59.3051],[24.1874,59.3051],[24.1882,59.3047],[24.1885,59.3044],[24.1888,59.3039],[24.1892,59.3034],[24.1909,59.3022],[24.1936,59.3026],[24.1945,59.3023],[24.1949,59.302],[24.195,59.3019],[24.1952,59.3019],[24.1953,59.3018],[24.1958,59.2998],[24.1973,59.2989],[24.1975,59.2981],[24.1989,59.2982],[24.1987,59.2957],[24.2004,59.2939],[24.2005,59.2928],[24.2021,59.2923],[24.2024,59.2921],[24.2026,59.292],[24.2029,59.292],[24.2056,59.2923],[24.2089,59.2914],[24.2091,59.2912],[24.2092,59.291],[24.2095,59.2908],[24.2097,59.2907],[24.2098,59.2907],[24.2101,59.2908],[24.2105,59.2908],[24.2122,59.2907],[24.2138,59.2911],[24.2161,59.29],[24.216,59.2894],[24.2166,59.2894],[24.2169,59.2893],[24.217,59.2893],[24.218,59.2888],[24.2189,59.2879],[24.2259,59.2852],[24.2265,59.2835],[24.2294,59.2823],[24.2299,59.2816],[24.2394,59.2842],[24.2426,59.2879],[24.2533,59.2898],[24.2451,59.2956],[24.242,59.2947],[24.2415,59.294],[24.2419,59.2935],[24.2385,59.293],[24.2372,59.2946],[24.2365,59.2963],[24.2364,59.299],[24.2347,59.3007],[24.2342,59.3027],[24.231,59.3043],[24.2339,59.3061],[24.2325,59.3078],[24.2286,59.3078],[24.2279,59.3086],[24.2286,59.3105],[24.2298,59.3117],[24.2157,59.3169],[24.2165,59.319],[24.2167,59.3194],[24.2187,59.324]]]},"properties":{"name":"Klooga harjutusväli"}},
{"type":"Feature","geometry":{"type":"Polygon","coordinates":[[[24.1759,59.2535],[24.177,59.2518],[24.179,59.2445],[24.1754,59.2425],[24.1743,59.238],[24.17,59.2382],[24.1646,59.2321],[24.17,59.2305],[24.1755,59.2311],[24.1776,59.2331],[24.1804,59.237],[24.183,59.2378],[24.1886,59.2376],[24.1891,59.24],[24.192,59.2454],[24.1923,59.2465],[24.2011,59.2491],[24.2035,59.2472],[24.2152,59.2512],[24.2188,59.2524],[24.2248,59.2545],[24.2348,59.2576],[24.2325,59.2618],[24.2321,59.2629],[24.2408,59.2652],[24.2411,59.2652],[24.2424,59.2657],[24.242,59.2673],[24.2396,59.267],[24.2316,59.2657],[24.2293,59.268],[24.2289,59.2708],[24.222,59.2728],[24.2191,59.2733],[24.2149,59.2774],[24.2107,59.2765],[24.2062,59.2751],[24.2064,59.2749],[24.2006,59.271],[24.197,59.2685],[24.1945,59.2649],[24.1895,59.2652],[24.189,59.2625],[24.186,59.2604],[24.179,59.2565],[24.175,59.2551],[24.1759,59.2535]]]},"properties":{"name":"Ämari lennubaas"}},
{"type":"Feature","geometry":{"type":"Polygon","coordinates":[[[27.4087,59.3633],[27.4098,59.3626],[27.4118,59.3636],[27.4107,59.3642],[27.4087,59.3633]]]},"properties":{"name":"Kaitseliit Alutaguse Malev"}},
{"type":"Feature","geometry":{"type":"Polygon","coordinates":[[[21.9972,57.956],[21.9974,57.9549],[22.0007,57.9552],[22.0003,57.9562],[21.9972,57.956]]]},"properties":{"name":"Tammuna piirivalvekordon"}},
{"type":"Feature","geometry":{"type":"Polygon","coordinates":[[[27.6928,59.2899],[27.6935,59.2882],[27.6935,59.2827],[27.6936,59.2818],[27.6937,59.2811],[27.6933,59.279],[27.6934,59.2712],[27.693,59.2644],[27.6932,59.2634],[27.6929,59.262],[27.693,59.2602],[27.6932,59.2598],[27.6935,59.2576],[27.6941,59.2557],[27.6953,59.2553],[27.7182,59.2561],[27.7256,59.2566],[27.7323,59.2576],[27.7407,59.2582],[27.7467,59.258],[27.7547,59.2575],[27.7568,59.2576],[27.7656,59.2573],[27.7668,59.2575],[27.7671,59.2613],[27.7683,59.2619],[27.7684,59.2644],[27.7728,59.2644],[27.7979,59.2607],[27.7979,59.2615],[27.8004,59.2617],[27.7998,59.2619],[27.8069,59.2632],[27.8062,59.2665],[27.8026,59.2687],[27.8043,59.2734],[27.8044,59.2784],[27.8051,59.2786],[27.8053,59.2893],[27.8044,59.2907],[27.7737,59.3015],[27.7734,59.3042],[27.772,59.3053],[27.767,59.3074],[27.7657,59.3072],[27.7649,59.3072],[27.7589,59.3071],[27.7422,59.3069],[27.7403,59.3066],[27.7367,59.3052],[27.736,59.3048],[27.7349,59.3041],[27.7336,59.3037],[27.7326,59.304],[27.7248,59.3027],[27.7201,59.2999],[27.7173,59.2987],[27.7086,59.2944],[27.705,59.2923],[27.6982,59.2912],[27.6954,59.2904],[27.6928,59.2899]]]},"properties":{"name":"Sirgala harjutusväli"}},
{"type":"Feature","geometry":{"type":"Polygon","coordinates":[[[24.3869,59.2924],[24.3872,59.2921],[24.3878,59.2922],[24.3875,59.2925],[24.3869,59.2924]]]},"properties":{"name":""}},
{"type":"Feature","geometry":{"type":"Polygon","coordinates":[[[21.9206,58.5147],[21.9218,58.5138],[21.923,58.5147],[21.9218,58.5153],[21.9206,58.5147]]]},"properties":{"name":""}},
{"type":"Feature","geometry":{"type":"Polygon","coordinates":[[[27.0215,57.8261],[27.0217,57.826],[27.0228,57.826],[27.0225,57.8261],[27.0215,57.8261]]]},"properties":{"name":""}},
{"type":"Feature","geometry":{"type":"Polygon","coordinates":[[[27.02,57.826],[27.0202,57.8259],[27.0212,57.8259],[27.021,57.8261],[27.02,57.826]]]},"properties":{"name":""}},
{"type":"Feature","geometry":{"type":"Polygon","coordinates":[[[27.023,57.8261],[27.0233,57.826],[27.0241,57.826],[27.0237,57.8263],[27.023,57.8261]]]},"properties":{"name":""}},
{"type":"Feature","geometry":{"type":"Polygon","coordinates":[[[23.3891,59.2938],[23.3884,59.2942],[23.3875,59.2939],[23.388,59.2934],[23.3891,59.2938]]]},"properties":{"name":""}},
{"type":"Feature","geometry":{"type":"Polygon","coordinates":[[[24.186,59.2604],[24.179,59.2565],[24.175,59.2551],[24.1759,59.2535],[24.1813,59.2538],[24.1835,59.2531],[24.1851,59.253],[24.1855,59.2507],[24.1875,59.2506],[24.188,59.253],[24.1888,59.253],[24.1945,59.2531],[24.1956,59.2519],[24.1959,59.2517],[24.1989,59.2531],[24.1996,59.2533],[24.2026,59.2544],[24.2057,59.2547],[24.2059,59.2548],[24.2083,59.255],[24.2119,59.256],[24.212,59.2561],[24.2134,59.2565],[24.2145,59.2569],[24.2187,59.2581],[24.2219,59.2594],[24.2257,59.261],[24.2321,59.2629],[24.2408,59.2652],[24.2396,59.267],[24.2316,59.2657],[24.2234,59.2663],[24.2172,59.2662],[24.201,59.2633],[24.1934,59.2621],[24.1932,59.2621],[24.1917,59.2627],[24.1916,59.2627],[24.186,59.2604]]]},"properties":{"name":"Ämari lennuväli"}},
{"type":"Feature","geometry":{"type":"Polygon","coordinates":[[[26.7422,58.3873],[26.7441,58.3858],[26.7451,58.3863],[26.7497,58.3889],[26.7474,58.3899],[26.7449,58.3902],[26.7441,58.3895],[26.743,58.3886],[26.7427,58.3877],[26.7422,58.3873]]]},"properties":{"name":"2. jalaväebrigaadi staap"}},
{"type":"Feature","geometry":{"type":"Polygon","coordinates":[[[24.7523,59.4207],[24.7548,59.4202],[24.7553,59.4203],[24.7552,59.4204],[24.7523,59.4207]]]},"properties":{"name":""}},
{"type":"Feature","geometry":{"type":"Polygon","coordinates":[[[26.5166,59.0788],[26.5177,59.0779],[26.5205,59.0788],[26.5188,59.0804],[26.517,59.0797],[26.5166,59.0788]]]},"properties":{"name":""}},
{"type":"Feature","geometry":{"type":"Polygon","coordinates":[[[27.8159,57.8935],[27.8166,57.8929],[27.8162,57.8937],[27.8159,57.8935]]]},"properties":{"name":"Saatse"}},
{"type":"Feature","geometry":{"type":"Polygon","coordinates":[[[27.4346,59.349],[27.4369,59.3468],[27.4378,59.3467],[27.443,59.3475],[27.4432,59.3475],[27.4446,59.3464],[27.4474,59.3458],[27.456,59.3483],[27.4521,59.3554],[27.4401,59.355],[27.4377,59.3535],[27.4359,59.3518],[27.4331,59.3507],[27.4346,59.349]]]},"properties":{"name":"Viru jalaväepataljon"}},
{"type":"Feature","geometry":{"type":"Polygon","coordinates":[[[27.0161,57.825],[27.0183,57.8232],[27.0221,57.8208],[27.0237,57.8217],[27.0261,57.8234],[27.0266,57.8237],[27.028,57.8244],[27.0291,57.825],[27.0301,57.8255],[27.0322,57.8264],[27.0322,57.8271],[27.0188,57.8268],[27.0174,57.8259],[27.0161,57.825]]]},"properties":{"name":"Taara sõjaväelinnak"}},
{"type":"Feature","geometry":{"type":"Polygon","coordinates":[[[26.8363,57.8202],[26.837,57.8198],[26.8418,57.8229],[26.8413,57.8231],[26.8363,57.8202]]]},"properties":{"name":""}},
{"type":"Feature","geometry":{"type":"Polygon","coordinates":[[[26.8398,57.8168],[26.8404,57.8165],[26.8417,57.8175],[26.8433,57.8184],[26.8428,57.8186],[26.8398,57.8168]]]},"properties":{"name":""}},
{"type":"Feature","geometry":{"type":"Polygon","coordinates":[[[26.842,57.8157],[26.8425,57.8155],[26.8449,57.8168],[26.8444,57.817],[26.842,57.8157]]]},"properties":{"name":""}},
{"type":"Feature","geometry":{"type":"Polygon","coordinates":[[[26.8389,57.8188],[26.8392,57.8186],[26.8411,57.8196],[26.8406,57.8197],[26.8389,57.8188]]]},"properties":{"name":""}},
{"type":"Feature","geometry":{"type":"Polygon","coordinates":[[[26.7721,57.7612],[26.7758,57.7597],[26.7807,57.7587],[26.7831,57.7586],[26.783,57.7559],[26.7856,57.7557],[26.7892,57.7578],[26.7948,57.7578],[26.7942,57.7542],[26.7944,57.7542],[26.795,57.7576],[26.795,57.7575],[26.7955,57.7606],[26.7957,57.7616],[26.7969,57.7615],[26.7973,57.7638],[26.7959,57.7639],[26.7962,57.7657],[26.7972,57.7715],[26.7919,57.7719],[26.7879,57.7712],[26.7841,57.7679],[26.7838,57.768],[26.7815,57.7681],[26.7794,57.7665],[26.7774,57.7638],[26.7756,57.7639],[26.7721,57.7612]]]},"properties":{"name":""}},
{"type":"Feature","geometry":{"type":"Polygon","coordinates":[[[25.2305,59.4183],[25.2322,59.4167],[25.2362,59.4142],[25.2381,59.4138],[25.238,59.4156],[25.2379,59.4186],[25.2379,59.4187],[25.2378,59.42],[25.2372,59.4189],[25.2362,59.4194],[25.2358,59.4196],[25.2335,59.4194],[25.2305,59.4183]]]},"properties":{"name":"Jägala sõjaväelinnak"}},
{"type":"Feature","geometry":{"type":"Polygon","coordinates":[[[24.246,59.267],[24.2471,59.2668],[24.2474,59.2673],[24.2463,59.2675],[24.246,59.267]]]},"properties":{"name":""}},
{"type":"Feature","geometry":{"type":"Polygon","coordinates":[[[24.2446,59.2669],[24.2447,59.2667],[24.2453,59.2668],[24.2452,59.267],[24.2446,59.2669]]]},"properties":{"name":""}},
{"type":"Feature","geometry":{"type":"Polygon","coordinates":[[[28.041,59.4694],[28.0423,59.4688],[28.0429,59.4693],[28.041,59.4694]]]},"properties":{"name":"Narva-Jõesuu piiirvalvekordon"}},
{"type":"Feature","geometry":{"type":"Polygon","coordinates":[[[26.7211,58.3733],[26.7213,58.3726],[26.7222,58.3723],[26.7228,58.3736],[26.7211,58.3733]]]},"properties":{"name":"Kaitseväe Akadeemia"}},
{"type":"Feature","geometry":{"type":"Polygon","coordinates":[[[23.2235,58.6256],[23.2248,58.6236],[23.2255,58.6211],[23.2282,58.6213],[23.228,58.6223],[23.2331,58.6232],[23.2332,58.624],[23.233,58.625],[23.2275,58.625],[23.2251,58.6257],[23.2235,58.6256]]]},"properties":{"name":""}},
{"type":"Feature","geometry":{"type":"Polygon","coordinates":[[[26.5566,58.0421],[26.559,58.0416],[26.5591,58.043],[26.5566,58.0421]]]},"properties":{"name":""}},
{"type":"Feature","geometry":{"type":"Polygon","coordinates":[[[26.5649,58.0389],[26.567,58.0385],[26.5675,58.0397],[26.5657,58.0401],[26.5649,58.0389]]]},"properties":{"name":""}},
{"type":"Feature","geometry":{"type":"MultiPolygon","coordinates":[[[[25.7681,59.4427],[25.7833,59.4429],[25.8009,59.443],[25.8186,59.4432],[25.8326,59.4433],[25.8029,59.4463],[25.802,59.4503],[25.7709,59.4484],[25.7699,59.4436],[25.7681,59.4427]]],[[[25.8362,59.4434],[25.8538,59.4435],[25.8565,59.4435],[25.8562,59.4447],[25.851,59.4444],[25.845,59.444],[25.8362,59.4434]]]]},"properties":{"name":"Keskpolügoon"}},
{"type":"Feature","geometry":{"type":"Polygon","coordinates":[[[24.7385,59.4329],[24.7385,59.4327],[24.7396,59.4329],[24.7395,59.4333],[24.7385,59.4329]]]},"properties":{"name":"Eesti Kaitseliit"}},
{"type":"Feature","geometry":{"type":"Polygon","coordinates":[[[25.5953,58.3824],[25.5967,58.3826],[25.5971,58.3827],[25.5978,58.3828],[25.5981,58.3829],[25.599,58.383],[25.5991,58.3832],[25.5992,58.3834],[25.5995,58.3835],[25.5993,58.384],[25.599,58.3847],[25.599,58.3848],[25.5962,58.3847],[25.596,58.3842],[25.5959,58.3841],[25.5954,58.3834],[25.5953,58.3826],[25.5953,58.3825],[25.5953,58.3824]]]},"properties":{"name":"Kaitseliit Sakala malev"}},
{"type":"Feature","geometry":{"type":"Polygon","coordinates":[[[26.9886,57.8482],[26.9898,57.8476],[26.9906,57.848],[26.9893,57.8486],[26.9886,57.8482]]]},"properties":{"name":"Kaitseliit Võrumaa malev"}},
{"type":"Feature","geometry":{"type":"Polygon","coordinates":[[[24.5091,58.3867],[24.5085,58.3865],[24.509,58.3863],[24.5091,58.3867]]]},"properties":{"name":"Kaitseliit Pärnumaa malev"}},
{"type":"Feature","geometry":{"type":"Polygon","coordinates":[[[27.0559,58.053],[27.0562,58.0527],[27.0568,58.0529],[27.0567,58.0531],[27.0559,58.053]]]},"properties":{"name":"Kaitseliit Põlva malev"}},
{"type":"Feature","geometry":{"type":"Polygon","coordinates":[[[23.5283,58.948],[23.5293,58.9482],[23.5287,58.9486],[23.5283,58.948]]]},"properties":{"name":"Kaitseliit Lääne malev"}},
{"type":"Feature","geometry":{"type":"Polygon","coordinates":[[[26.6988,58.3762],[26.6982,58.3758],[26.6999,58.3745],[26.7008,58.3749],[26.7,58.3754],[26.6988,58.3762]]]},"properties":{"name":"Kaitseliit Küberkaitse üksus"}},
{"type":"Feature","geometry":{"type":"Polygon","coordinates":[[[24.7189,59.3713],[24.7175,59.3709],[24.718,59.3709],[24.7184,59.3708],[24.7209,59.3699],[24.7197,59.3713],[24.7189,59.3713]]]},"properties":{"name":"Kaitseliidu Harju Malev"}},
{"type":"Feature","geometry":{"type":"Polygon","coordinates":[[[24.7999,58.9995],[24.8009,58.9995],[24.8009,58.9996],[24.8,58.9997],[24.7999,58.9995]]]},"properties":{"name":"Kaitseliit Rapla malev"}},
{"type":"Feature","geometry":{"type":"Polygon","coordinates":[[[24.2022,59.3191],[24.2071,59.3185],[24.2073,59.3191],[24.2025,59.3196],[24.2022,59.3191]]]},"properties":{"name":"Lasketiir"}},
{"type":"Feature","geometry":{"type":"Polygon","coordinates":[[[26.7454,58.3845],[26.7447,58.3845],[26.7446,58.384],[26.7454,58.3845]]]},"properties":{"name":"2. jalaväebrigaadi staap"}},
{"type":"Feature","geometry":{"type":"Polygon","coordinates":[[[26.8942,58.3791],[26.8904,58.3785],[26.8905,58.3778],[26.8914,58.3774],[26.8928,58.3764],[26.8937,58.3756],[26.8982,58.3757],[26.9029,58.3794],[26.8989,58.3803],[26.8942,58.3791]]]},"properties":{"name":"2. jalaväebrigaad"}},
{"type":"Feature","geometry":{"type":"Polygon","coordinates":[[[26.2091,58.5343],[26.2076,58.5345],[26.2065,58.5323],[26.2089,58.5323],[26.209,58.5342],[26.2091,58.5343]]]},"properties":{"name":""}},
{"type":"Feature","geometry":{"type":"Polygon","coordinates":[[[27.4746,58.2337],[27.4755,58.2332],[27.4766,58.2339],[27.4765,58.2345],[27.4746,58.2337]]]},"properties":{"name":"Mehikoorma kordon"}},
{"type":"Feature","geometry":{"type":"Polygon","coordinates":[[[27.7444,57.8705],[27.7463,57.871],[27.7447,57.8716],[27.7444,57.8705]]]},"properties":{"name":""}},
{"type":"Feature","geometry":{"type":"Polygon","coordinates":[[[27.5262,57.8305],[27.527,57.8301],[27.5274,57.8298],[27.5269,57.8289],[27.5293,57.8287],[27.5296,57.8287],[27.5317,57.8289],[27.5313,57.8292],[27.5313,57.8296],[27.5307,57.8296],[27.5307,57.8298],[27.5313,57.8298],[27.5314,57.8299],[27.5317,57.8299],[27.532,57.8305],[27.5262,57.8305]]]},"properties":{"name":"Piusa kordon"}},
{"type":"Feature","geometry":{"type":"Polygon","coordinates":[[[27.3601,57.6428],[27.3618,57.6428],[27.3621,57.6436],[27.3611,57.6437],[27.3601,57.6428]]]},"properties":{"name":"Luhamaa kordon"}},
{"type":"Feature","geometry":{"type":"Polygon","coordinates":[[[27.7484,59.4029],[27.7492,59.4027],[27.7497,59.403],[27.7489,59.4033],[27.7484,59.4029]]]},"properties":{"name":"Sillamäe kordon"}},
{"type":"Feature","geometry":{"type":"Polygon","coordinates":[[[26.5094,59.5082],[26.5125,59.508],[26.513,59.5087],[26.5097,59.5089],[26.5094,59.5082]]]},"properties":{"name":"Kunda kordon"}},
{"type":"Feature","geometry":{"type":"Polygon","coordinates":[[[28.164,59.3583],[28.1646,59.3575],[28.1683,59.357],[28.167,59.3589],[28.164,59.3583]]]},"properties":{"name":"Narva kordon"}},
{"type":"Feature","geometry":{"type":"Polygon","coordinates":[[[24.6613,59.459],[24.658,59.4558],[24.6614,59.4541],[24.6652,59.4559],[24.6661,59.4564],[24.6678,59.4571],[24.6669,59.4575],[24.6634,59.46],[24.6633,59.46],[24.6625,59.4597],[24.6613,59.459]]]},"properties":{"name":"Tallinna kordon"}},
{"type":"Feature","geometry":{"type":"Polygon","coordinates":[[[22.503,58.2346],[22.5054,58.2342],[22.5065,58.2356],[22.503,58.2346]]]},"properties":{"name":"Kuressaare kordon"}},
{"type":"Feature","geometry":{"type":"Polygon","coordinates":[[[25.8487,58.3323],[25.8488,58.3315],[25.8528,58.3316],[25.8524,58.3347],[25.851,58.3359],[25.8493,58.3359],[25.8487,58.3323]]]},"properties":{"name":"Väluste lasketiir"}},
{"type":"Feature","geometry":{"type":"Polygon","coordinates":[[[27.114,59.3402],[27.1159,59.3393],[27.1206,59.3406],[27.1203,59.3415],[27.1154,59.3408],[27.114,59.3402]]]},"properties":{"name":""}},
{"type":"Feature","geometry":{"type":"Polygon","coordinates":[[[27.1115,59.3404],[27.1131,59.3383],[27.1157,59.3383],[27.1193,59.3388],[27.1199,59.3401],[27.1216,59.3404],[27.1207,59.3419],[27.1144,59.3411],[27.1115,59.3404]]]},"properties":{"name":""}},
{"type":"Feature","geometry":{"type":"Polygon","coordinates":[[[24.1011,59.1302],[24.1014,59.1275],[24.1034,59.1255],[24.1035,59.1235],[24.115,59.1237],[24.1145,59.1292],[24.1139,59.1305],[24.1011,59.1302]]]},"properties":{"name":"Lintsi linnak"}},
{"type":"Feature","geometry":{"type":"Polygon","coordinates":[[[22.751,59.0063],[22.7517,59.0063],[22.7518,59.0069],[22.7513,59.007],[22.751,59.0063]]]},"properties":{"name":"Kaitseliidu Hiiumaa malevkond"}},
{"type":"Feature","geometry":{"type":"Polygon","coordinates":[[[27.4466,59.3479],[27.4474,59.3472],[27.4509,59.3483],[27.45,59.349],[27.4466,59.3479]]]},"properties":{"name":"Lasketiir"}},
{"type":"Feature","geometry":{"type":"Polygon","coordinates":[[[25.8394,58.341],[25.841,58.328],[25.8586,58.3286],[25.8577,58.3359],[25.8554,58.3384],[25.8552,58.3416],[25.8394,58.341]]]},"properties":{"name":""}},
{"type":"Feature","geometry":{"type":"Polygon","coordinates":[[[24.7673,59.4234],[24.7682,59.4235],[24.7687,59.424],[24.7666,59.4232],[24.7667,59.4232],[24.7673,59.4234]]]},"properties":{"name":""}},
{"type":"Feature","geometry":{"type":"Polygon","coordinates":[[[27.8167,57.8955],[27.8168,57.8955],[27.8178,57.8961],[27.8172,57.8962],[27.8167,57.8955]]]},"properties":{"name":"ДАПП «Крупп»"}},
{"type":"Feature","geometry":{"type":"Polygon","coordinates":[[[24.7304,59.3524],[24.7322,59.3524],[24.7322,59.3581],[24.7305,59.3581],[24.7304,59.3524]]]},"properties":{"name":"Männiku lasketiir"}},
{"type":"Feature","geometry":{"type":"Polygon","coordinates":[[[24.7561,58.3113],[24.7565,58.3091],[24.7578,58.3072],[24.7621,58.3054],[24.7658,58.305],[24.7692,58.3041],[24.7742,58.3032],[24.7824,58.3007],[24.7858,58.3011],[24.7874,58.3008],[24.7879,58.3006],[24.7894,58.2999],[24.7898,58.2997],[24.7903,58.2996],[24.7942,58.2994],[24.8007,58.2973],[24.8026,58.297],[24.806,58.2965],[24.8088,58.2961],[24.8125,58.2956],[24.8145,58.2953],[24.8156,58.2983],[24.8157,58.2985],[24.8178,58.3005],[24.818,58.3016],[24.8181,58.302],[24.8183,58.3024],[24.8184,58.3028],[24.8191,58.3042],[24.8208,58.3061],[24.8236,58.3073],[24.8246,58.3094],[24.8248,58.31],[24.8248,58.3103],[24.8248,58.3106],[24.8249,58.3108],[24.8292,58.3141],[24.8315,58.3174],[24.8298,58.3179],[24.8281,58.3184],[24.8271,58.3186],[24.8267,58.3187],[24.8244,58.319],[24.8223,58.3193],[24.8219,58.3194],[24.8216,58.3195],[24.8214,58.3197],[24.8213,58.3207],[24.8208,58.3226],[24.8202,58.3243],[24.8191,58.3245],[24.8132,58.3238],[24.8029,58.3224],[24.8009,58.3222],[24.7994,58.3228],[24.7987,58.3238],[24.7977,58.3231],[24.798,58.3227],[24.7974,58.3213],[24.7942,58.3198],[24.791,58.3197],[24.7799,58.3218],[24.7794,58.3213],[24.7788,58.321],[24.7778,58.3203],[24.7741,58.3191],[24.7727,58.3175],[24.7708,58.3169],[24.7678,58.3166],[24.7608,58.312],[24.758,58.3114],[24.7561,58.3113]]]},"properties":{"name":"Kikepera harjutusväli"}},
{"type":"Feature","geometry":{"type":"MultiPolygon","coordinates":[[[[24.6893,59.3495],[24.6938,59.3489],[24.6966,59.3507],[24.6986,59.3515],[24.7062,59.3518],[24.7069,59.353],[24.7088,59.3553],[24.7097,59.3571],[24.714,59.361],[24.7127,59.362],[24.7099,59.3644],[24.7076,59.365],[24.7072,59.3645],[24.7025,59.3622],[24.6971,59.3579],[24.696,59.3563],[24.6925,59.3545],[24.6909,59.3534],[24.6894,59.3508],[24.6893,59.3495]]],[[[24.7157,59.3327],[24.7149,59.3251],[24.7099,59.3249],[24.709,59.3288],[24.7064,59.3318],[24.7067,59.3335],[24.7064,59.3347],[24.7037,59.334],[24.699,59.3343],[24.692,59.3239],[24.6999,59.3229],[24.7049,59.3203],[24.7049,59.3196],[24.7049,59.3154],[24.7016,59.3155],[24.7011,59.3134],[24.7011,59.3126],[24.7202,59.3125],[24.7209,59.3124],[24.7291,59.3123],[24.7337,59.3124],[24.7421,59.3135],[24.7468,59.3147],[24.7503,59.3158],[24.7582,59.3192],[24.7621,59.3218],[24.763,59.3231],[24.7666,59.3273],[24.7647,59.331],[24.7639,59.3332],[24.7671,59.3346],[24.7659,59.3425],[24.7654,59.3461],[24.7653,59.3474],[24.7651,59.3482],[24.7615,59.3481],[24.7594,59.348],[24.7592,59.3471],[24.7586,59.3462],[24.7555,59.3435],[24.7531,59.3426],[24.7479,59.3427],[24.7458,59.3434],[24.7379,59.3435],[24.7385,59.3452],[24.7389,59.3472],[24.7398,59.3472],[24.7393,59.353],[24.742,59.353],[24.7416,59.3554],[24.7415,59.3555],[24.741,59.3589],[24.7322,59.3585],[24.7273,59.3583],[24.7284,59.3526],[24.7238,59.3525],[24.7242,59.3507],[24.7248,59.3467],[24.7226,59.3466],[24.7201,59.3462],[24.7187,59.3399],[24.7153,59.3405],[24.7157,59.3355],[24.7157,59.3327]]]]},"properties":{"name":"Männiku harjutusväli"}},
{"type":"Feature","geometry":{"type":"Polygon","coordinates":[[[26.0432,57.7723],[26.0435,57.7718],[26.044,57.771],[26.0451,57.7713],[26.0446,57.7728],[26.044,57.7727],[26.0438,57.7726],[26.0432,57.7725],[26.0432,57.7723]]]},"properties":{"name":"Kaitseliidu Valgamaa malev"}},
{"type":"Feature","geometry":{"type":"Polygon","coordinates":[[[26.9492,58.2564],[26.9459,58.2577],[26.9437,58.2582],[26.9429,58.257],[26.9459,58.256],[26.9465,58.2558],[26.948,58.2558],[26.9486,58.2558],[26.9492,58.2563],[26.9492,58.2564]]]},"properties":{"name":"Uniküla lasketiir"}},
{"type":"Feature","geometry":{"type":"Polygon","coordinates":[[[27.6058,58.0776],[27.6066,58.0775],[27.6068,58.078],[27.606,58.0781],[27.6058,58.0776]]]},"properties":{"name":""}},
{"type":"Feature","geometry":{"type":"Polygon","coordinates":[[[27.6143,57.9791],[27.6159,57.9781],[27.6162,57.9797],[27.6143,57.9791]]]},"properties":{"name":"Värska kordon"}},
{"type":"Feature","geometry":{"type":"Polygon","coordinates":[[[24.6918,59.3395],[24.6917,59.3397],[24.6897,59.3394],[24.6911,59.3369],[24.6914,59.3364],[24.6939,59.3361],[24.694,59.338],[24.6933,59.3379],[24.6918,59.3395]]]},"properties":{"name":""}},
{"type":"Feature","geometry":{"type":"Polygon","coordinates":[[[26.3804,58.7457],[26.381,58.7447],[26.3838,58.7451],[26.3833,58.7461],[26.3804,58.7457]]]},"properties":{"name":""}},
{"type":"Feature","geometry":{"type":"Polygon","coordinates":[[[28.1919,59.3807],[28.1919,59.3804],[28.1925,59.3804],[28.1919,59.3808],[28.1919,59.3807]]]},"properties":{"name":"Kaitseliidu Alutaguse Maleva Narva Malevkonna Staabikompleks"}},
{"type":"Feature","geometry":{"type":"Polygon","coordinates":[[[27.1012,59.7986],[27.1671,59.7986],[27.1671,59.9048],[27.1012,59.9051],[27.1012,59.7986]]]},"properties":{"name":""}},
{"type":"Feature","geometry":{"type":"Polygon","coordinates":[[[24.8368,59.4179],[24.8391,59.4169],[24.8412,59.4186],[24.838,59.4189],[24.8368,59.4179]]]},"properties":{"name":"Kaitseväe toetuse väejuhatus"}},
{"type":"Feature","geometry":{"type":"Polygon","coordinates":[[[24.7174,59.4555],[24.7172,59.454],[24.719,59.4531],[24.7193,59.4531],[24.7196,59.4531],[24.7194,59.453],[24.7195,59.4529],[24.7198,59.4527],[24.7199,59.4526],[24.7206,59.4521],[24.7245,59.4514],[24.7252,59.4514],[24.7258,59.4514],[24.7259,59.4515],[24.726,59.4517],[24.7281,59.4526],[24.728,59.4527],[24.7349,59.459],[24.728,59.4613],[24.7236,59.4605],[24.7189,59.4568],[24.7185,59.4568],[24.7175,59.4556],[24.7174,59.4555]]]},"properties":{"name":"Mereväebaas"}},
{"type":"Feature","geometry":{"type":"Polygon","coordinates":[[[24.7158,59.4637],[24.717,59.4627],[24.7194,59.4618],[24.7225,59.4643],[24.7166,59.4646],[24.7158,59.4637]]]},"properties":{"name":""}},
{"type":"Feature","geometry":{"type":"Polygon","coordinates":[[[26.49,58.772],[26.4905,58.7713],[26.4925,58.7716],[26.4921,58.7722],[26.49,58.772]]]},"properties":{"name":""}},
{"type":"Feature","geometry":{"type":"Polygon","coordinates":[[[25.4109,58.8229],[25.4107,58.8232],[25.4091,58.8228],[25.41,58.8226],[25.4109,58.8229]]]},"properties":{"name":""}},
{"type":"Feature","geometry":{"type":"Polygon","coordinates":[[[25.4233,58.812],[25.4233,58.8116],[25.4242,58.8112],[25.4247,58.812],[25.4233,58.812]]]},"properties":{"name":""}},
{"type":"Feature","geometry":{"type":"Polygon","coordinates":[[[27.7728,59.0328],[27.7752,59.0332],[27.7742,59.034],[27.7728,59.0328]]]},"properties":{"name":"Погранзастава \"Кукин берег\""}},
{"type":"Feature","geometry":{"type":"Polygon","coordinates":[[[23.9714,58.0988],[23.9723,58.0985],[23.973,58.0989],[23.9721,58.0993],[23.9714,58.0988]]]},"properties":{"name":""}},
{"type":"Feature","geometry":{"type":"Polygon","coordinates":[[[22.753,59.0068],[22.7535,59.0062],[22.7549,59.0064],[22.753,59.0068]]]},"properties":{"name":"Kärdla kordon"}},
{"type":"Feature","geometry":{"type":"Polygon","coordinates":[[[24.0851,59.3436],[24.0855,59.3435],[24.0858,59.3428],[24.088,59.343],[24.0876,59.3435],[24.0876,59.3436],[24.0851,59.3436]]]},"properties":{"name":""}},
{"type":"Feature","geometry":{"type":"Polygon","coordinates":[[[22.5028,58.2651],[22.5043,58.2647],[22.5061,58.2651],[22.504,58.2657],[22.5028,58.2651]]]},"properties":{"name":""}},
{"type":"Feature","geometry":{"type":"Polygon","coordinates":[[[27.4346,59.349],[27.4364,59.3473],[27.4372,59.3475],[27.4346,59.349]]]},"properties":{"name":""}},
{"type":"Feature","geometry":{"type":"Polygon","coordinates":[[[27.0293,57.8263],[27.0302,57.8258],[27.0317,57.8266],[27.0308,57.8269],[27.0293,57.8263]]]},"properties":{"name":""}},
{"type":"Feature","geometry":{"type":"Polygon","coordinates":[[[26.7433,58.3888],[26.7439,58.3886],[26.7455,58.3899],[26.7449,58.3901],[26.7433,58.3888]]]},"properties":{"name":""}},
{"type":"Feature","geometry":{"type":"Polygon","coordinates":[[[24.231,59.2592],[24.2311,59.2575],[24.2315,59.2575],[24.2319,59.2576],[24.231,59.2592]]]},"properties":{"name":""}},
{"type":"Feature","geometry":{"type":"Polygon","coordinates":[[[24.4062,59.374],[24.4066,59.373],[24.4076,59.3666],[24.4086,59.3658],[24.4117,59.3644],[24.4148,59.3654],[24.422,59.3715],[24.4135,59.3749],[24.4111,59.3731],[24.4062,59.374]]]},"properties":{"name":"Humala harjutusväli"}},
{"type":"Feature","geometry":{"type":"Polygon","coordinates":[[[24.5474,59.3238],[24.5478,59.3236],[24.5485,59.3242],[24.5474,59.3238]]]},"properties":{"name":""}},
{"type":"Feature","geometry":{"type":"Polygon","coordinates":[[[27.223,57.7931],[27.2237,57.7926],[27.225,57.793],[27.2245,57.7936],[27.223,57.7931]]]},"properties":{"name":""}},
{"type":"Feature","geometry":{"type":"Polygon","coordinates":[[[23.3047,58.4328],[23.3055,58.4327],[23.3054,58.4331],[23.3047,58.4328]]]},"properties":{"name":""}},
{"type":"Feature","geometry":{"type":"Polygon","coordinates":[[[27.4328,57.7353],[27.4344,57.7346],[27.4353,57.7353],[27.434,57.7361],[27.4328,57.7353]]]},"properties":{"name":""}},
{"type":"Feature","geometry":{"type":"Polygon","coordinates":[[[26.5806,59.548],[26.5811,59.5475],[26.5819,59.548],[26.5806,59.548]]]},"properties":{"name":""}},
{"type":"Feature","geometry":{"type":"Polygon","coordinates":[[[23.5459,58.8288],[23.5467,58.8286],[23.5473,58.829],[23.5464,58.8293],[23.5459,58.8288]]]},"properties":{"name":""}},
{"type":"Feature","geometry":{"type":"Polygon","coordinates":[[[23.1634,59.0486],[23.164,59.0482],[23.1646,59.0486],[23.1641,59.0489],[23.1634,59.0486]]]},"properties":{"name":""}},
{"type":"Feature","geometry":{"type":"Polygon","coordinates":[[[24.9809,58.1579],[24.9825,58.1575],[24.983,58.1582],[24.9813,58.1586],[24.9809,58.1579]]]},"properties":{"name":""}},
{"type":"Feature","geometry":{"type":"Polygon","coordinates":[[[26.3257,59.5432],[26.3267,59.5424],[26.3276,59.5428],[26.3266,59.5435],[26.3257,59.5432]]]},"properties":{"name":""}},
{"type":"Feature","geometry":{"type":"Polygon","coordinates":[[[24.2126,59.3137],[24.2132,59.3113],[24.2164,59.3109],[24.2152,59.3141],[24.2126,59.3137]]]},"properties":{"name":"Lasketiir"}},
{"type":"Feature","geometry":{"type":"Polygon","coordinates":[[[24.0854,59.0639],[24.0892,59.0666],[24.0908,59.0678],[24.0899,59.0679],[24.0801,59.0699],[24.0741,59.0717],[24.0703,59.0724],[24.0688,59.0714],[24.0707,59.0693],[24.0678,59.0683],[24.0673,59.0676],[24.0676,59.0669],[24.0689,59.0659],[24.068,59.0655],[24.0683,59.0649],[24.068,59.0647],[24.0682,59.0643],[24.0681,59.0638],[24.068,59.0635],[24.068,59.0634],[24.0678,59.0632],[24.0673,59.0627],[24.0673,59.0625],[24.067,59.062],[24.0665,59.0611],[24.0663,59.0607],[24.0661,59.0599],[24.0658,59.0596],[24.0653,59.059],[24.0649,59.0586],[24.0643,59.0579],[24.0647,59.0579],[24.0766,59.0552],[24.0792,59.0591],[24.0806,59.0613],[24.0854,59.0639]]]},"properties":{"name":"Piirsalu taktikaala"}},
{"type":"Feature","geometry":{"type":"Polygon","coordinates":[[[24.0854,59.0639],[24.0796,59.0648],[24.0749,59.0604],[24.0792,59.0591],[24.0806,59.0613],[24.0854,59.0639]]]},"properties":{"name":""}},
{"type":"Feature","geometry":{"type":"Polygon","coordinates":[[[26.7777,58.4049],[26.7797,58.4049],[26.7797,58.4054],[26.7778,58.4059],[26.7777,58.4049]]]},"properties":{"name":""}},
{"type":"Feature","geometry":{"type":"Polygon","coordinates":[[[24.1714,59.2333],[24.1716,59.2328],[24.1759,59.2319],[24.1794,59.2359],[24.1758,59.2368],[24.1746,59.237],[24.1714,59.2333]]]},"properties":{"name":""}},
{"type":"Feature","geometry":{"type":"Polygon","coordinates":[[[24.2,59.5333],[24.4425,59.5333],[24.4417,59.65],[24.2883,59.65],[24.2,59.6284],[24.2,59.5333]]]},"properties":{"name":"Mereväe harjutusala nr. 002"}},
{"type":"Feature","geometry":{"type":"Polygon","coordinates":[[[23.3333,59.3667],[23.4667,59.2833],[23.5333,59.2833],[23.7333,59.3],[23.7333,59.3667],[23.8333,59.4167],[23.8333,59.45],[23.3333,59.45],[23.3333,59.3667]]]},"properties":{"name":"Mereväe harjutusala nr. 001"}},
{"type":"Feature","geometry":{"type":"Polygon","coordinates":[[[25.4989,59.6459],[25.4997,59.6455],[25.5009,59.6462],[25.4991,59.6463],[25.4989,59.6459]]]},"properties":{"name":""}},
{"type":"Feature","geometry":{"type":"Polygon","coordinates":[[[25.496,58.9629],[25.4983,58.9628],[25.4978,58.961],[25.4966,58.9599],[25.4987,58.9598],[25.4999,58.9643],[25.4963,58.9644],[25.496,58.9629]]]},"properties":{"name":"Eivere lasketiir"}},
{"type":"Feature","geometry":{"type":"Polygon","coordinates":[[[24.6918,59.3395],[24.6933,59.3379],[24.6924,59.3395],[24.6918,59.3395]]]},"properties":{"name":""}},
{"type":"Feature","geometry":{"type":"Polygon","coordinates":[[[26.9503,57.8132],[26.9508,57.8103],[26.9521,57.8103],[26.952,57.8131],[26.9503,57.8132]]]},"properties":{"name":""}},
{"type":"Feature","geometry":{"type":"Polygon","coordinates":[[[25.2336,59.4177],[25.2365,59.4158],[25.238,59.4156],[25.2379,59.4186],[25.2376,59.4189],[25.2336,59.4177]]]},"properties":{"name":"Jägala sõjaväelinnak"}},
{"type":"Feature","geometry":{"type":"Polygon","coordinates":[[[26.2959,59.5302],[26.2976,59.5299],[26.3019,59.5315],[26.305,59.5327],[26.3118,59.5352],[26.3115,59.5354],[26.3045,59.5328],[26.3011,59.532],[26.2969,59.5304],[26.2959,59.5302]]]},"properties":{"name":""}},
{"type":"Feature","geometry":{"type":"Polygon","coordinates":[[[26.7758,57.7597],[26.7756,57.7591],[26.7751,57.7579],[26.7795,57.7567],[26.7832,57.755],[26.7843,57.7547],[26.7852,57.7545],[26.787,57.7541],[26.7886,57.7536],[26.7898,57.7535],[26.7958,57.7542],[26.7986,57.754],[26.8017,57.7545],[26.8035,57.7539],[26.8062,57.7537],[26.8066,57.7546],[26.8063,57.7552],[26.8034,57.7555],[26.8066,57.7569],[26.8061,57.7579],[26.8071,57.7615],[26.8099,57.7617],[26.8135,57.7634],[26.815,57.7634],[26.8155,57.7637],[26.8161,57.764],[26.8167,57.7646],[26.818,57.7655],[26.8182,57.7651],[26.8184,57.7653],[26.8228,57.7666],[26.827,57.7655],[26.834,57.7667],[26.8349,57.7688],[26.8408,57.771],[26.8433,57.7725],[26.8446,57.7726],[26.8475,57.7734],[26.8519,57.7762],[26.8557,57.778],[26.8565,57.7786],[26.8593,57.7799],[26.8636,57.7824],[26.8669,57.7841],[26.8734,57.7872],[26.8793,57.7873],[26.8853,57.7894],[26.8934,57.7857],[26.8954,57.7863],[26.9005,57.7875],[26.9042,57.7879],[26.9108,57.7882],[26.9208,57.7879],[26.9242,57.7901],[26.9257,57.7906],[26.9285,57.7903],[26.932,57.7894],[26.9424,57.7917],[26.9425,57.7918],[26.9435,57.7928],[26.9438,57.7931],[26.9445,57.7945],[26.9469,57.7956],[26.9496,57.7978],[26.9512,57.8],[26.9536,57.8015],[26.9518,57.8025],[26.9511,57.8034],[26.9577,57.8058],[26.9572,57.8129],[26.9447,57.816],[26.9387,57.8178],[26.9325,57.8189],[26.9305,57.8194],[26.9285,57.8202],[26.9215,57.8236],[26.9192,57.8241],[26.9141,57.8244],[26.9116,57.8251],[26.9094,57.827],[26.9092,57.8295],[26.909,57.8312],[26.9083,57.8323],[26.9065,57.8334],[26.9037,57.8341],[26.8937,57.834],[26.8902,57.8335],[26.8878,57.8335],[26.8827,57.8334],[26.8702,57.8331],[26.8688,57.8331],[26.8678,57.8332],[26.8657,57.8334],[26.8599,57.8335],[26.8494,57.834],[26.8445,57.8343],[26.8413,57.8344],[26.8414,57.8348],[26.8331,57.8352],[26.8236,57.8356],[26.8133,57.8362],[26.8074,57.8363],[26.8039,57.8363],[26.8022,57.8362],[26.8019,57.8357],[26.798,57.8352],[26.7976,57.8361],[26.7953,57.8361],[26.7905,57.8357],[26.7833,57.8348],[26.7797,57.8348],[26.7777,57.8349],[26.7669,57.8354],[26.7432,57.8363],[26.736,57.8366],[26.7278,57.837],[26.7138,57.8376],[26.7081,57.8346],[26.704,57.8324],[26.7018,57.8313],[26.7013,57.8311],[26.6939,57.8273],[26.6865,57.8234],[26.6876,57.8221],[26.6922,57.8195],[26.688,57.8174],[26.6737,57.8101],[26.671,57.8087],[26.6692,57.8076],[26.6688,57.8075],[26.6677,57.807],[26.6673,57.8064],[26.6673,57.8055],[26.6673,57.8051],[26.6672,57.8046],[26.6674,57.8035],[26.6672,57.803],[26.6674,57.8007],[26.6685,57.7994],[26.668,57.7988],[26.6679,57.7988],[26.6678,57.7986],[26.6684,57.798],[26.6677,57.7968],[26.6684,57.7956],[26.6662,57.7946],[26.6654,57.7941],[26.6661,57.7937],[26.6668,57.793],[26.6648,57.7914],[26.6662,57.7895],[26.6658,57.7894],[26.6661,57.7886],[26.666,57.7882],[26.6661,57.7878],[26.6654,57.7867],[26.6674,57.7864],[26.6695,57.7848],[26.6705,57.7841],[26.6723,57.7827],[26.6758,57.7829],[26.6796,57.7825],[26.6853,57.7809],[26.6873,57.781],[26.6949,57.7799],[26.6976,57.7803],[26.7,57.7813],[26.7038,57.7822],[26.7062,57.7834],[26.7117,57.781],[26.7188,57.7845],[26.7211,57.7839],[26.7288,57.7803],[26.7346,57.784],[26.7303,57.7868],[26.7337,57.7885],[26.7374,57.7892],[26.7411,57.7872],[26.7417,57.7864],[26.745,57.7879],[26.7482,57.7876],[26.7495,57.7872],[26.7518,57.7865],[26.753,57.7863],[26.7585,57.7845],[26.7607,57.7821],[26.761,57.7803],[26.762,57.779],[26.7629,57.7766],[26.7687,57.7755],[26.7713,57.7746],[26.7674,57.7726],[26.7656,57.7713],[26.7626,57.7719],[26.7601,57.7683],[26.7605,57.7678],[26.7609,57.7674],[26.7618,57.7666],[26.7647,57.7647],[26.7685,57.7613],[26.7687,57.761],[26.7721,57.7612],[26.7758,57.7597]]]},"properties":{"name":"Nursipalu harjutusväli"}},
{"type":"Feature","geometry":{"type":"Polygon","coordinates":[[[22.1961,58.9187],[22.1976,58.9179],[22.1991,58.9183],[22.1983,58.9195],[22.1976,58.9194],[22.1972,58.9193],[22.1961,58.9187]]]},"properties":{"name":"Kõpu kordon"}},
{"type":"Feature","geometry":{"type":"Polygon","coordinates":[[[23.2586,57.8002],[23.2593,57.7992],[23.2624,57.8],[23.2601,57.801],[23.2586,57.8002]]]},"properties":{"name":"Ruhnu kordon"}}
]}